licencenumber,licencecode,licencetype,licenseeorg,liccount,lictotal,licensees,tradingnames,address,suburb,state,postcode,dateexpiry,dateissued
14005239,OFF,Liquor - Off,Company,1,1,AUSTRALIAN WINE ARCHIVES PTY LTD,Australian Wine Archives Pty Ltd,Basement Level 10-12 Colbee Court,PHILLIP,ACT,2606,2023-11-30T00:00:00.000,2001-12-03T00:00:00.000
14005556,OFF,Liquor - Off,Company,1,1,ALDI FOODS PTY LIMITED,Aldi Foods Pty Limited,"Shop AGO 9, Canberra Centre 125 Bunda Street",CANBERRA,ACT,2600,2022-11-30T00:00:00.000,2007-08-29T00:00:00.000
14004210,OFF,Liquor - Off,Company,1,1,CANBERRA CHOICE SUPERMARKETS PTY LTD,"Canberra Choice Supermarkets Pty Ltd, Shop-Rite Griffith",2 Barker Street,GRIFFITH,ACT,2603,2023-02-28T00:00:00.000,1990-08-10T00:00:00.000
14001377,OFF,Liquor - Off,Company,1,1,DEAKIN GROCER PTY LTD,Deakin IGA Supermarket,Shop 1 2-4 Duff Place,DEAKIN,ACT,2600,2023-02-28T00:00:00.000,2016-11-03T00:00:00.000
14004789,OFF,Liquor - Off,Company,1,1,KALOSPIA PTY LTD,Braddon Supermarket,Shop 2 94 Lowanna Street,BRADDON,ACT,2612,2023-11-30T00:00:00.000,2013-02-07T00:00:00.000
14001650,OFF,Liquor - Off,Company,1,1,SIXFOUR PTY LTD,Chapman Food & Liquor Market,"Shop 6, Chapman Shopping Centre 52-56 Perry Drive",CHAPMAN,ACT,2611,2023-02-28T00:00:00.000,
14000163,OFF,Liquor - Off,Company,1,1,MICKSAN HOLDINGS PTY LTD,Cellargold Wines,4 McEwan Avenue,OAKS ESTATE,ACT,2620,2022-02-28T00:00:00.000,2014-03-12T00:00:00.000
14005669,OFF,Liquor - Off,Company,1,1,BRANDNET PTY LTD,Military Shop,65 Kembla Street,FYSHWICK,ACT,2609,2023-11-30T00:00:00.000,
14005569,OFF,Liquor - Off,Company,1,1,RISING WOOD PTY LTD,East Row Supermarket,22-58 East Row,CANBERRA,ACT,2600,2023-02-28T00:00:00.000,2020-04-17T00:00:00.000
14005746,OFF,Liquor - Off,Company,1,1,CAINSCO PTY LTD,Prohibition The Bottle Shop,"Shop 1, 44 Curtin Place",CURTIN,ACT,2605,2023-02-28T00:00:00.000,2021-10-07T00:00:00.000
14003663,OFF,Liquor - Off,Company,1,1,EFTIXIA PTY LTD,Florey Supermarket,Shop 1 Kesteven Street,FLOREY,ACT,2615,2023-02-28T00:00:00.000,1987-08-05T00:00:00.000
14004519,OFF,Liquor - Off,Individual,1,1,Phuong Thi Thuy PHAM,Dina's Liquor,Shop 3 Ground Floor 7 East Row,CANBERRA,ACT,2601,2023-02-28T00:00:00.000,
14005732,OFF,Liquor - Off,Company,1,1,ALDI FOODS PTY LIMITED,Aldi Foods Pty Limited - Amaroo,Amaroo Shopping Centre Cnr Pioneer Street and Balgarup Street,AMAROO,ACT,2914,2022-11-30T00:00:00.000,2020-06-09T00:00:00.000
14005714,OFF,Liquor - Off,Company,1,1,DM CANBERRA PTY LTD,Daily Market,(ANU) Australian National University - Kambri shop 156-B1,ACTON,ACT,2601,2023-02-28T00:00:00.000,2019-03-28T00:00:00.000
14005721,OFF,Liquor - Off,Company,1,1,TMARNI PTY LTD,Denman Village IGA,Denman Village 20/3 Felstead Vista,DENMAN PROSPECT,ACT,2611,2023-02-28T00:00:00.000,2019-09-17T00:00:00.000
14002100,OFF,Liquor - Off,Company,1,1,ARMING PTY LTD,IGA Evatt,9 Heydon Place,EVATT,ACT,2617,2023-02-28T00:00:00.000,2016-11-29T00:00:00.000
14005750,OFF,Liquor - Off,Company,1,1,J & D'S PTY LTD,The Merchants Feast,69 Campaspe Circuit,KALEEN,ACT,2617,2023-11-30T00:00:00.000,2021-12-24T00:00:00.000
14005720,OFF,Liquor - Off,Company,1,1,CSER ENTERPRISES PTY LTD,Wine Not The Brand,"Lakeview house Unit 4, 236 Cowlishaw Street",GREENWAY,ACT,2900,2023-02-28T00:00:00.000,2019-09-06T00:00:00.000
14005546,OFF,Liquor - Off,Company,1,1,ALDI FOODS PTY LIMITED,Aldi Foods Pty Limited,"Gungahlin Square, 43 Hibberson Street",GUNGAHLIN,ACT,2912,2022-11-30T00:00:00.000,2006-12-01T00:00:00.000
14005722,OFF,Liquor - Off,Individual,1,1,Thi Thuy  TRAN,DK Convenience Store,31/8 Trevillian Quay,KINGSTON,ACT,2604,2023-11-30T00:00:00.000,2019-10-10T00:00:00.000
14005719,OFF,Liquor - Off,Company,1,1,THE VINASSOCIATES PTY LTD,The Vinassociates Pty Ltd,32 Arthur Circle,FORREST,ACT,2603,2023-11-30T00:00:00.000,2019-08-16T00:00:00.000
14002601,OFF,Liquor - Off,Company,1,1,MCLAREN VALE CELLARS PTY LTD,McLaren Vale Cellars Pty Ltd,34-36 Townsville Street,FYSHWICK,ACT,2609,2023-02-28T00:00:00.000,1980-06-04T00:00:00.000
14005718,OFF,Liquor - Off,Company,1,1,GLOBAL HOSPITALITY SERVICES PTY LTD,Linear Wines,5 Giblin Street,DOWNER,ACT,2602,2023-11-30T00:00:00.000,2019-06-14T00:00:00.000
14003321,OFF,Liquor - Off,Company,1,1,ALCOE PTY LIMITED,Narrabundah Friendly Grocer,6 Iluka Street,NARRABUNDAH,ACT,2604,2023-02-28T00:00:00.000,2008-05-29T00:00:00.000
14005702,OFF,Liquor - Off,Individual,1,1,Peter Reginald DIETSCH,Peter's Wine Shop,Unit 2/2 Frencham Place,DOWNER,ACT,2602,2022-11-30T00:00:00.000,2018-07-11T00:00:00.000
14005604,OFF,Liquor - Off,Company,1,1,ALDI FOODS PTY LIMITED,Aldi Foods Pty Limited,Shop MM05 Westfield Belconnen 19 Benjamin Way,BELCONNEN,ACT,2617,2022-11-30T00:00:00.000,2010-11-25T00:00:00.000
14004279,OFF,Liquor - Off,Company,1,1,SUPERMERCATO (ACT) PTY LTD,IGA Isabella Plains,Unit 6 Isabella Shopping Centre 114 Ellerston Avenue,ISABELLA PLAINS,ACT,2905,2023-02-28T00:00:00.000,2017-03-28T00:00:00.000
14005760,OFF,Liquor - Off,Company,1,1,DK WHOLESALE & RETAIL PTY LTD,DK Wholesale & Retail Pty Ltd,1/12 Sangster Place,WANNIASSA,ACT,2903,2022-11-30T00:00:00.000,2022-09-06T00:00:00.000
14005571,OFF,Liquor - Off,Company,1,1,CUB PTY LTD,Carlton & United Breweries,25 Mildura Street,FYSHWICK,ACT,2609,2023-11-30T00:00:00.000,2008-05-26T00:00:00.000
14004906,OFF,Liquor - Off,Company,1,1,BK & SONS PTY LTD,The Melba Supermarket,1/4 Melba Court Chinner Street,MELBA,ACT,2615,2023-02-28T00:00:00.000,
14005542,OFF,Liquor - Off,Company,1,1,ALDI FOODS PTY LIMITED,Aldi Foods Pty Limited,9 Sidney Nolan Street,CONDER,ACT,2906,2022-11-30T00:00:00.000,
14005191,OFF,Liquor - Off,Company,1,1,VPACK PTY LTD,Ngunnawal IGA (Platypus),Shop 8 Platypus Centre 4 Riley Close,NGUNNAWAL,ACT,2913,2023-02-28T00:00:00.000,
14005599,OFF,Liquor - Off,Company,1,1,AUSTRALIAN CAPITAL TERRITORY SQUASH RACKETS ASSOCIATION INCORPORATED,Australian Capital Territory Squash Rackets Association Incorporated,4 Launceston Street,PHILLIP,ACT,2606,2023-11-30T00:00:00.000,2010-03-01T00:00:00.000
14003030,OFF,Liquor - Off,Company,1,1,THE FLOW BOTTLESHOP PTY LTD,The Flow Bottleshop Pty Ltd,2/15 Heard Street Southlands Centre,MAWSON,ACT,2607,2023-02-28T00:00:00.000,
14005697,OFF,Liquor - Off,Company,1,1,COLD SEAS PTY LIMITED,Bidfood Canberra,16 Mildura Street,FYSHWICK,ACT,2609,2023-02-28T00:00:00.000,2018-02-08T00:00:00.000
14005703,OFF,Liquor - Off,Company,1,1,BIBLE LANE ENTERPRISES PTY LTD,Piccolos,29 Garema Place,CITY,ACT,2601,2023-11-30T00:00:00.000,2018-08-21T00:00:00.000
14005671,OFF,Liquor - Off,Company,1,1,ALDI FOODS PTY LIMITED,Aldi Foods Pty Limited,Casey Market Town 15 Kingsland Parade,CASEY,ACT,2913,2022-11-30T00:00:00.000,2016-05-04T00:00:00.000
14005663,OFF,Liquor - Off,Company,1,1,AKSHAR PURSHOTTAM PTY LTD,Springbank Rise Convenience Store,19 Whitrod Avenue,CASEY,ACT,2913,2023-02-28T00:00:00.000,2019-06-28T00:00:00.000
14003840,OFF,Liquor - Off,Company,1,1,AUSTRALIAN LIQUOR MARKETERS PTY. LIMITED,Australian Liquor Marketers Pty. Limted (6pm),Corner Mildura Street & Nyrang Street,FYSHWICK,ACT,2609,2023-02-28T00:00:00.000,1988-12-01T00:00:00.000
14004076,OFF,Liquor - Off,Company,1,1,JAIMC PTY LTD,Fyshwick One Stop Liquor,Shop 5 1 Geelong Street,FYSHWICK,ACT,2609,2023-02-28T00:00:00.000,2017-05-01T00:00:00.000
14005650,OFF,Liquor - Off,Company,1,1,PAGE GENERAL STORE PTY LTD,Page General Store Pty Ltd,Shop 2-4 Page Place,PAGE,ACT,2614,2023-02-28T00:00:00.000,2014-11-05T00:00:00.000
14005680,OFF,Liquor - Off,Company,1,1,ALDI FOODS PTY LIMITED,Aldi Foods Pty Limited,"Shop W4, Majura Park Shopping Centre 18 - 26 Spitfire Avenue",MAJURA,ACT,2609,2022-11-30T00:00:00.000,2016-11-29T00:00:00.000
14005753,OFF,Liquor - Off,Company,1,1,M3 MEDIA GROUP PTY LTD,Gravity Seltzer Co,6 Fenton Street,DOWNER,ACT,2602,2022-11-30T00:00:00.000,2022-02-23T00:00:00.000
14005748,OFF,Liquor - Off,Individual,1,1,Timothy Ryan PAPPS,Taste Aussie Drams,40 Fiveash Street,CHISHOLM,ACT,2905,2023-02-28T00:00:00.000,
14005626,OFF,Liquor - Off,Company,1,1,DELI PLANET FYSHWICK PTY LTD,Deli Planet Fyshwick Pty Ltd,"Shop G10, Fyshwick Fresh Food Markets 12 Dalby Street",FYSHWICK,ACT,2609,2023-02-28T00:00:00.000,2012-11-29T00:00:00.000
14002492,OFF,Liquor - Off,Company,1,1,S PELLE PTY LIMITED,S PELLE PTY LIMITED,IGA 3 Sargood Street,O'CONNOR,ACT,2602,2023-02-28T00:00:00.000,1979-12-07T00:00:00.000
14004500,OFF,Liquor - Off,Company,1,1,BILLING MANAGEMENT PTY LTD,Friendly Grocer Lyons,"Shop 1, Lyons Shopping Centre 13 Lyons Place",LYONS,ACT,2606,2023-05-31T00:00:00.000,2020-02-12T00:00:00.000
14005544,OFF,Liquor - Off,Company,1,1,ALDI FOODS PTY LIMITED,Aldi Foods Pty Limited,Shop 20-23 Homeworld Centre 19 Soward Way,GREENWAY,ACT,2900,2022-11-30T00:00:00.000,
14005763,OFF,Liquor - Off,Company,1,1,AUSTRALIAN GIN CLUB PTY LTD,Australian Gin Club Pty Ltd,7 Hutt Street,YARRALUMLA,ACT,2600,2023-11-30T00:00:00.000,2022-11-15T00:00:00.000
14004586,OFF,Liquor - Off,Company,1,1,GORDON SUPERMARKET PTY LTD,IGA Gordon,Shop 3 114 Lewis Luxton Avenue,GORDON,ACT,2906,2023-02-28T00:00:00.000,
14003065,OFF,Liquor - Off,Company,1,1,KARKAZIS BROS PTY LIMITED,Yarralumla Supermarket,21-23 Bentham Street,YARRALUMLA,ACT,2600,2023-02-28T00:00:00.000,
14005656,OFF,Liquor - Off,Individual,1,1,Paul Andrew STARR,Sassafras Wines,Unit 18 17 Yallourn Street,FYSHWICK,ACT,2609,2023-11-30T00:00:00.000,2015-03-23T00:00:00.000
14005518,OFF,Liquor - Off,Company,1,1,WINC AUSTRALIA PTY  LIMITED,Winc Australia,90-94 Sheppard Street,HUME,ACT,2620,2023-11-30T00:00:00.000,2004-09-10T00:00:00.000
14005087,OFF,Liquor - Off,Partnership,1,1,Sarbjit SINGH & Kamaljeet KAUR,Sunshine Supermarket,Unit 2 48 Mannheim Street,KAMBAH,ACT,2902,2023-02-28T00:00:00.000,
14005543,OFF,Liquor - Off,Company,1,1,ALDI FOODS PTY LIMITED,Aldi Kippax,Kippax Centre 50-60 Hardwick Crescent,HOLT,ACT,2615,2022-11-30T00:00:00.000,2006-12-01T00:00:00.000
14005682,OFF,Liquor - Off,Company,1,1,TYCON SERVICES AND TRADING CANBERRA PTY LTD,Akuna Mini Mart,Unit 136 2 Akuna Street,CITY,ACT,2601,2023-02-28T00:00:00.000,2016-12-21T00:00:00.000
14005583,OFF,Liquor - Off,Company,1,1,ALDI FOODS PTY LIMITED,Aldi Foods Pty Limited,"Shop T7 First Floor, Cooleman Court Shopping Centre 26 Brierly Street",WESTON,ACT,2611,2022-11-30T00:00:00.000,2009-01-28T00:00:00.000
14005529,OFF,Liquor - Off,Partnership,1,1,Anthony PYKE & Rosemary PYKE,Red Hill Butcher Shop,Shop 6 16 Duyfken Place,RED HILL,ACT,2603,2024-02-28T00:00:00.000,
14005638,OFF,Liquor - Off,Company,1,1,SUPABARN SUPERMARKETS PTY LTD,Crace Supabarn,"Tenancy 1, Crace Central 56 Abena Avenue",CRACE,ACT,2911,2023-02-28T00:00:00.000,2013-11-19T00:00:00.000
14005175,OFF,Liquor - Off,Company,1,1,T & H GROUP PTY LTD,Foodworks Holder ACT,Block 3 40 Holder Place,HOLDER,ACT,2611,2023-02-28T00:00:00.000,2020-12-17T00:00:00.000
14001000,OFF,Liquor - Off,Company,1,1,VINIDIUM PTY LTD,Hughes Friendly Grocer,16 Hughes Place,HUGHES,ACT,2605,2023-02-28T00:00:00.000,1975-11-01T00:00:00.000
14005539,OFF,Liquor - Off,Company,1,1,PSM100 RETAILS PTY LTD,Psm100 Retails Pty Ltd,Unit 1 Corner McBryde Crescent & Denigan Street,WANNIASSA,ACT,2903,2023-11-30T00:00:00.000,2022-09-15T00:00:00.000
14005752,OFF,Liquor - Off,Company,1,1,UNITY LIQUOR MERCHANTS PTY LTD,Unity Liquor Merchants Pty Ltd,10 Periscope Place,DUNLOP,ACT,2615,2023-02-28T00:00:00.000,2022-02-14T00:00:00.000
14005736,OFF,Liquor - Off,Company,1,1,SUPABARN SUPERMARKETS PTY LTD,Kingston Supabarn,34 Eyre Street,KINGSTON,ACT,2604,2023-02-28T00:00:00.000,2020-10-12T00:00:00.000
14005624,OFF,Liquor - Off,Company,1,1,ALDI FOODS PTY LIMITED,Aldi Foods Pty Limited,36 Benham Street,CHISHOLM,ACT,2905,2022-11-30T00:00:00.000,2012-10-11T00:00:00.000
14005761,OFF,Liquor - Off,Company,1,1,NAVARO PTY LTD,Weston Bottle Shop & Tobacconist,"Shop 6, 11 Brierly Street",WESTON,ACT,2611,2023-02-28T00:00:00.000,2022-09-15T00:00:00.000
14005685,OFF,Liquor - Off,Company,1,1,UNDERGROUND SPIRITS PTY LTD,Underground Spirits,Unit 2 66 Primmer Court,KAMBAH,ACT,2902,2023-11-30T00:00:00.000,2017-02-17T00:00:00.000
14005407,OFF,Liquor - Off,Partnership,1,1,Soteris Zacharia PHOKOS & Dimitry SPASOV,Deville Supermarket,3/96 Pocket Avenue,BANKS,ACT,2906,2023-02-28T00:00:00.000,
14005723,OFF,Liquor - Off,Company,1,1,ADIDEV PTY LTD,Auzi Liquor,"ESQUE Unit 85, 2 Manning Clark Crescent",FRANKLIN,ACT,2913,2023-02-28T00:00:00.000,2022-03-28T00:00:00.000
14005707,OFF,Liquor - Off,Company,1,1,CAINSCO KINGSTON PTY LTD,Prohibition The Bottle Shop,Unit 148 Element Building 39-45 Eastlake Parade,KINGSTON,ACT,2604,2023-02-28T00:00:00.000,2018-10-19T00:00:00.000
14005525,OFF,Liquor - Off,Company,1,1,BAYDEN PTY LTD,Corks Liquor,Unit 2 18 Norman Lindsay Street,CONDER,ACT,2906,2023-02-28T00:00:00.000,2005-06-01T00:00:00.000
14005741,OFF,Liquor - Off,Company,1,1,AWPL TANGO PTY LTD,Awpl Tango Pty Ltd,"Tenancies 206 & 208, Level 2 Airport Terminal Canberra Airport",PIALLIGO,ACT,2609,2023-11-30T00:00:00.000,2022-05-25T00:00:00.000
14001254,OFF,Liquor - Off,Company,1,1,SHIVALIK TRADING PTY LTD,Waramanga Post office and Newsagency,"Shop 2, Waramanga Newsagency & LPO Waramanga Place, Damala Street",WARAMANGA,ACT,2611,2023-02-28T00:00:00.000,2020-08-05T00:00:00.000
14000112,OFF,Liquor - Off,Company,1,1,DUFFY RETAIL PTY LTD,Duffy Retail Pty Ltd,"Shop 6, Duffy Shops 2 Glenmaggie Street",DUFFY,ACT,2611,2023-02-28T00:00:00.000,2004-03-02T00:00:00.000
14005616,OFF,Liquor - Off,Company,1,1,T & H GROUP PTY LTD,Foodworks Forde ACT,"Unit 5, Forde Shops 26 Francis Forde Boulevard",FORDE,ACT,2914,2023-02-28T00:00:00.000,
14000622,OFF,Liquor - Off,Company,1,1,SIMNATHES PTY LTD,IGA Holt,"Shop 1, Holt Shopping Centre 20 Holt Place",HOLT,ACT,2615,2023-02-28T00:00:00.000,
14005561,OFF,Liquor - Off,Company,1,1,KAYBOR PTY LIMITED,Oak Barrel Wines,Basement Level 10-12 Colbee Court,PHILLIP,ACT,2606,2023-02-28T00:00:00.000,
14001490,OFF,Liquor - Off,Company,1,1,LIQUID GRAPE PTY LTD,Liquid Grape Kippax,Shop 4 Kippax Shopping Centre Hardwick Crescent,HOLT,ACT,2615,2023-11-30T00:00:00.000,2017-09-18T00:00:00.000
14005551,OFF,Liquor - Off,Company,1,1,ALDI FOODS PTY LIMITED,Aldi Foods Pty Limited,Jamison Shopping Centre 26 Bowman Street,MACQUARIE,ACT,2614,2022-11-30T00:00:00.000,2007-04-18T00:00:00.000
14005664,OFF,Liquor - Off,Individual,1,1,Timothy John REARDON,The Canberra Distillery,21 Pieman crescent,KALEEN,ACT,2617,2023-11-30T00:00:00.000,2015-12-14T00:00:00.000
14005670,OFF,Liquor - Off,Company,1,1,SUPABARN SUPERMARKETS PTY LTD,Casey Supabarn,15 Kingsland Parade,CASEY,ACT,2913,2023-02-28T00:00:00.000,2016-05-03T00:00:00.000
14004842,OFF,Liquor - Off,Company,1,1,DELE PTY LTD,Jervis Bay Supermarket,95 Village Road,JERVIS BAY,ACT,2540,2023-02-28T00:00:00.000,
14005713,OFF,Liquor - Off,Company,1,1,KIERIKY PTY LIMITED,Tuggeranong Cellars,Shop G-030A Southpoint Shopping Centre 210 Anketell Street,GREENWAY,ACT,2900,2023-02-28T00:00:00.000,2019-03-22T00:00:00.000
14005557,OFF,Liquor - Off,Company,1,1,KIERIKY PTY LIMITED,Jiparu Cellars,Unit 5 96 Wollongong Street,FYSHWICK,ACT,2609,2023-02-28T00:00:00.000,2017-11-09T00:00:00.000
14004666,OFF,Liquor - Off,Company,1,1,KIERIKY PTY LIMITED,Erindale Wines & Spirits,Shop 1(A) 38 Gartside Street,WANNIASSA,ACT,2903,2023-02-28T00:00:00.000,2015-07-07T00:00:00.000
14005622,OFF,Liquor - Off,Company,1,1,DAVID JONES PTY LIMITED,David Jones,"David Jones Westfield Woden, Bradley Street",PHILLIP,ACT,2606,2023-11-30T00:00:00.000,2012-07-26T00:00:00.000
14000278,OFF,Liquor - Off,Company,1,1,GMD (ACT) PTY LTD,Cook Supermarket,1 Cook Place Cook Shopping Centre,COOK,ACT,2614,2023-02-28T00:00:00.000,2016-11-09T00:00:00.000
14005642,OFF,Liquor - Off,Individual,1,1,Pierre Louis POULIQUIN,ICA Drinks,Unit DC3-6-A1 Storage King 86 Nettlefold Street,BELCONNEN,ACT,2617,2023-02-28T00:00:00.000,2014-03-17T00:00:00.000
14005678,OFF,Liquor - Off,Company,1,1,NICH SELECTING PTY LTD,Dickson Liquor Store,Unit 2A 30-36 Woolley Street,DICKSON,ACT,2602,2023-02-28T00:00:00.000,2020-02-10T00:00:00.000
14005512,OFF,Liquor - Off,Company,1,1,ARNICHOLLS PTY LTD,Nicholls IGA,"Shop 1, Nicholls Shopping Centre 88 Kelleway Ave",NICHOLLS,ACT,2913,2023-02-28T00:00:00.000,2021-05-10T00:00:00.000
14005754,OFF,Liquor - Off,Company,1,1,PLONK PTY LTD,Plonk,Tenancy G Belconnen Markets 10 Lathlain St 10 Lathlain Steet,BELCONNEN,ACT,2617,2023-02-28T00:00:00.000,2022-02-21T00:00:00.000
14005692,OFF,Liquor - Off,Company,1,1,THE GIN BOUTIQUE PTY LTD,The Gin Boutique,14 Eric Mawson Street,HARRISON,ACT,2914,2023-02-28T00:00:00.000,
14005689,OFF,Liquor - Off,Company,1,1,E MART PTY LTD,E MART PTY LTD,15/45 West Row,CITY,ACT,2601,2023-02-28T00:00:00.000,2017-07-10T00:00:00.000
14005742,OFF,Liquor - Off,Company,1,1,GLOW GROUP PTY LTD,Bottlemart,51/11 Thynne Street,BRUCE,ACT,2617,2023-02-28T00:00:00.000,2021-04-28T00:00:00.000
14005744,OFF,Liquor - Off,Company,1,1,K & V OLMOS PTY LTD,K & V Olmos Pty Ltd,Shop 1 Citywest Carpark 113 Marcus Clarke Street,CANBERRA,ACT,2600,2023-11-30T00:00:00.000,2021-08-04T00:00:00.000
14005576,OFF,Liquor - Off,Company,1,1,PLONK PTY LTD,Plonk Pty Ltd,"G17, Fyshwick Markets Corner Mildura Street & Dalby Street",FYSHWICK,ACT,2609,2023-02-28T00:00:00.000,2008-07-03T00:00:00.000
14005640,OFF,Liquor - Off,Company,1,1,DNA LIQUOR PTY LTD,The Bottler at Chisholm,64 Halley Street Chisholm Shopping Centre,CHISHOLM,ACT,2905,2023-02-28T00:00:00.000,2013-12-17T00:00:00.000
14005759,OFF,Liquor - Off,Company,1,1,COOMBS BREWING PTY LTD,Coombs Brewing,"Shop 4, 1 Fairhall Street",COOMBS,ACT,2611,2023-02-28T00:00:00.000,2022-07-25T00:00:00.000
14005247,OFF,Liquor - Off,Company,1,1,EXI HOLDINGS PTY LIMITED,Local Liquor Gungahlin,Unit 5/30 Ernest Cavanagh Street,GUNGAHLIN,ACT,2912,2023-02-28T00:00:00.000,2011-12-16T00:00:00.000
14005708,OFF,Liquor - Off,Individual,1,1,Leearni Junee HAMILTON,Honey and Cream,25 Duncan Street,TORRENS,ACT,2607,2023-02-28T00:00:00.000,2018-10-24T00:00:00.000
14005737,OFF,Liquor - Off,Company,1,1,LOCAL SPIRIT GROUP PTY LTD,Local Spirit Group Pty Ltd,"Unit 1 & 2, 7 Tantalum Street",BEARD,ACT,2620,2023-11-30T00:00:00.000,2020-11-06T00:00:00.000
14001609,OFF,Liquor - Off,Company,1,1,HL FOOD AND LIQUOR PTY LTD,HL Food and Liquor Pty Ltd,2 Castley Circuit,KAMBAH,ACT,2902,2023-02-28T00:00:00.000,2022-04-14T00:00:00.000
14005711,OFF,Liquor - Off,Company,1,1,MALTS AND BREWS PTY LTD,Malts and Brews Pty Ltd,Units 98 & 99 Parc Village 54 Bowman Street,MACQUARIE,ACT,2614,2023-02-28T00:00:00.000,2018-12-10T00:00:00.000
14005618,OFF,Liquor - Off,Company,1,1,JIM MURPHY'S AIRPORT CELLARS PTY LTD,Jim Murphy Express,"Tenancy 3 & 4, Majura Park Shopping Centre 18-26 Spitfire Avenue",MAJURA,ACT,2609,2023-02-28T00:00:00.000,2012-03-30T00:00:00.000
14005635,OFF,Liquor - Off,Company,1,1,EVERAIM AUSTRALIA PTY LTD,Bestore,Unit 3 109 Flemington Road,MITCHELL,ACT,2911,2023-02-28T00:00:00.000,2013-09-26T00:00:00.000
14004738,OFF,Liquor - Off,Company,1,1,CYPACE PTY LIMITED,Cypace Pty Limited,19 Mildura Street,FYSHWICK,ACT,2609,2023-02-28T00:00:00.000,1995-11-14T00:00:00.000
14000702,OFF,Liquor - Off,Company,1,1,C.C. JEFFERY PTY LIMITED,C.C. Jeffery Pty Limited,12 North Street,THARWA,ACT,2620,2023-02-28T00:00:00.000,1975-11-01T00:00:00.000
14003170,OFF,Liquor - Off,Company,1,1,CASTRI PTY LTD,Watson Take-Away,Shop 3 5 Watson Place,WATSON,ACT,2602,2023-02-28T00:00:00.000,2021-10-29T00:00:00.000
14000770,OFF,Liquor - Off,Partnership,1,1,John KRNC & Tony KRNC & Steven KRNC & Robert KRNC,John KRNC & Tony KRNC & Steven KRNC & Robert KRNC,1 Wattle Place,LYNEHAM,ACT,2602,2023-02-28T00:00:00.000,1975-11-01T00:00:00.000
14004594,OFF,Liquor - Off,Partnership,1,1,John STERGIOU & Harilaos STERGIOU,Waramanga Supermarket,Waramanga Place,WARAMANGA,ACT,2611,2023-02-28T00:00:00.000,1993-12-06T00:00:00.000
14005600,OFF,Liquor - Off,Company,1,1,WILCORP 1 (ACT) PTY LTD,Charnwood Grocery/Liquor Topshop,121 Tillyard Drive,CHARNWOOD,ACT,2615,2023-02-28T00:00:00.000,
14005710,OFF,Liquor - Off,Company,1,1,SUPERGROCER PTY LTD,Supergrocer,Shop T6 Canberra Outlet Centre 337 Canberra Avenue,FYSHWICK,ACT,2609,2023-02-28T00:00:00.000,2018-11-05T00:00:00.000
14005758,OFF,Liquor - Off,Individual,1,1,Leslie David Joel HENSHAW,Chroma Wines,1/35 Oakden Street,GREENWAY,ACT,2900,2023-11-30T00:00:00.000,2022-06-03T00:00:00.000
14002660,OFF,Liquor - Off,Company,1,1,JIM MURPHY MARKET CELLARS PTY LTD,Jim Murphy Market Cellars Pty Ltd,19 Mildura Street,FYSHWICK,ACT,2609,2023-02-28T00:00:00.000,1980-12-04T00:00:00.000
14005740,OFF,Liquor - Off,Individual,1,1,Chester Tuck MOK,Wine Chest,110B McMichael Terrace,DENMAN PROSPECT,ACT,2611,2023-02-28T00:00:00.000,2021-01-19T00:00:00.000
14002097,OFF,Liquor - Off,Company,1,1,CAVO PTY LTD,Supabarn Express Kaleen,8 Gwydir Square,KALEEN,ACT,2617,2023-02-28T00:00:00.000,1977-10-27T00:00:00.000
14003217,OFF,Liquor - Off,Company,1,1,IBAMAC PTY LTD,Supabarn Express Red Hill,12 Duyfken Place,RED HILL,ACT,2603,2023-02-28T00:00:00.000,2017-07-14T00:00:00.000
14005747,OFF,Liquor - Off,Company,1,1,FRENCH FLAIR PTY LTD,French Flair,Shop 12 The M Centre 17 to 19 Flinders Way,GRIFFITH,ACT,2603,2023-02-28T00:00:00.000,2021-10-25T00:00:00.000
14005528,OFF,Liquor - Off,Company,1,1,WILCORP 1 (ACT) PTY LTD,Hawker Drive In Bottle Shop,Corner Belconnen Way & Springvale Drive,HAWKER,ACT,2614,2023-02-28T00:00:00.000,
14004640,OFF,Liquor - Off,Company,1,1,PALMERSTON SUPERMARKET PTY LTD,Palmerston Supermarket Pty Ltd,"Shop 1, Palmerston Local Shopping Centre Cnr Kosciuszko Avenue & Tiptree Crescent",PALMERSTON,ACT,2913,2023-02-28T00:00:00.000,
14005706,OFF,Liquor - Off,Company,1,1,WODEN LIQUOR STOP PTY LTD,Woden Liquor Stop Pty Ltd,"Unit 4, 101 Hindmarsh Drive",PHILLIP,ACT,2606,2023-02-28T00:00:00.000,2018-10-17T00:00:00.000
14005649,OFF,Liquor - Off,Company,1,1,SUPA 24 CONVENIENCE PTY LTD,Supa 24 Convenience Pty Ltd,Bus Interchange 2 Mort Street,CANBERRA,ACT,2600,2023-11-30T00:00:00.000,
14005679,OFF,Liquor - Off,Company,1,1,HOPS AND VINE HALL PTY LTD,Hops and Vine Hall Pty Ltd,6A Victoria Street,HALL,ACT,2618,2023-05-31T00:00:00.000,2016-11-25T00:00:00.000
14005687,OFF,Liquor - Off,Company,1,1,NICK SPENCER WINES PTY LTD,Nick Spencer Wines Pty Ltd,"Unit 2177, Fyshwick Self Storage 64-68 Collie Street",FYSHWICK,ACT,2609,2023-02-28T00:00:00.000,2017-03-21T00:00:00.000
14004754,OFF,Liquor - Off,Company,1,1,CODE RED INVESTMENTS PTY LIMITED,Chifley Supermarket,Chifley Shopping Centre 20-22 Chifley Place,CHIFLEY,ACT,2606,2023-02-28T00:00:00.000,
14005595,OFF,Liquor - Off,Company,1,1,SIXES & NINES PTY LTD,Hume Mini Mart & Liquor,Unit 3 49 Sheppard Street,HUME,ACT,2620,2023-02-28T00:00:00.000,
14005699,OFF,Liquor - Off,Company,1,1,RICHGHAIE PTY LTD,Blackhearts & Sparrows Canberra,Unit C15 27 Lonsdale Street,BRADDON,ACT,2612,2023-02-28T00:00:00.000,2018-04-09T00:00:00.000
14005757,OFF,Liquor - Off,Company,1,1,ADISAR SAHIB PTY LTD,All In One Super Mart,"Shop 3, 53 Alinga Street",CITY,ACT,2601,2023-02-28T00:00:00.000,2022-03-29T00:00:00.000
14005705,OFF,Liquor - Off,Individual,1,1,Caleb Benjamin WEARNE,Caleb Wearne,"Unit IC4-5-B1, Storage King Belconnen 86 Nettlefold Street",BELCONNEN,ACT,2617,2023-02-28T00:00:00.000,2018-08-27T00:00:00.000
14001422,OFF,Liquor - Off,Company,1,1,KACH PTY LTD,Shop & Save Supermarket Spence & Evatt,193 Copland Drive,SPENCE,ACT,2615,2023-02-28T00:00:00.000,1975-11-14T00:00:00.000
14005724,OFF,Liquor - Off,Individual,1,1,Paul Maurice WILLIAMS,Pequod Wines,12 River Street,OAKS ESTATE,ACT,2620,2023-11-30T00:00:00.000,2019-11-01T00:00:00.000
14005631,OFF,Liquor - Off,Company,1,1,PELLE CAMPBELL IGA PTY LTD,Campbell IGA,Shop 5 10 Blamey Place,CAMPBELL,ACT,2612,2023-02-28T00:00:00.000,2013-03-26T00:00:00.000
14005756,OFF,Liquor - Off,Partnership,1,1,MANSOUR AND NASRIN ADIB SANAEE,Quality Selections Imp Aust,57A Nellie Hamilton Avenue,GUNGAHLIN,ACT,2912,2023-02-28T00:00:00.000,2022-04-13T00:00:00.000
14005351,OFF,Liquor - Off,Company,1,1,UV BHINDER PTY LTD,UV Bhinder Pty Ltd,1 Hackett Place,HACKETT,ACT,2602,2023-02-28T00:00:00.000,2022-09-01T00:00:00.000
14005729,OFF,Liquor - Off,Company,1,1,HEARD ST COFFEE WHOLESALERS PTY LTD,Ale Mary Brewing Company,26 Paragon Mall Lane,FYSHWICK,ACT,2609,2023-02-28T00:00:00.000,2020-02-21T00:00:00.000
14004682,OFF,Liquor - Off,Company,1,1,CHEN & SINGH PTY LTD,North Lyneham Mini Mart,"Shop 3, 3 Colville Street",LYNEHAM,ACT,2602,2023-02-28T00:00:00.000,
14005728,OFF,Liquor - Off,Company,1,1,BOOZE & BARRELS INVESTMENT PTY LTD,Booze & Barrels,2 Bunima Crescent,NGUNNAWAL,ACT,2913,2023-02-28T00:00:00.000,2020-01-24T00:00:00.000
14005755,OFF,Liquor - Off,Company,1,1,AMBROSIA DISTILLERY PTY LTD,Ambrosia Distillery Pty Ltd,"Suite 10b building 3.3, 1 Dairy Road",FYSHWICK,ACT,2609,2023-11-30T00:00:00.000,2022-03-04T00:00:00.000
14005665,OFF,Liquor - Off,Company,1,1,KY PROVISIONS PTY LTD,KY Provisions Pty Ltd,18/10 Coolac Place,BRADDON,ACT,2612,2023-02-28T00:00:00.000,2016-01-05T00:00:00.000
14005677,OFF,Liquor - Off,Company,1,1,WALL AND CO SOLUTIONS PTY LTD,Pizza Capers Gungahlin,25A Ernest Cavanagh Street,GUNGAHLIN,ACT,2912,2023-02-28T00:00:00.000,2016-09-16T00:00:00.000
14005566,OFF,Liquor - Off,Company,1,1,PRINTBIAS PTY LIMITED,Caffe Della Piazza,Basement Level 19 Garema Place,CANBERRA,ACT,2600,2023-11-30T00:00:00.000,2008-03-04T00:00:00.000
14003225,OFF,Liquor - Off,Company,1,1,BV SHEA PTY LIMITED,Gowrie Supermarket,Shop 1 1 Jeffries Street,GOWRIE,ACT,2904,2023-02-28T00:00:00.000,2011-03-01T00:00:00.000
14005717,OFF,Liquor - Off,Individual,1,1,John Richard INGS,Canberra Wine and Spirit Merchants,"Unit 6, 222 City Walk City Plaza",CANBERRA,ACT,2601,2023-02-28T00:00:00.000,2019-05-22T00:00:00.000
14005745,OFF,Liquor - Off,Company,1,1,POP CANBERRA PTY LTD,The Pop Movement,102/27 Lonsdale Street,BRADDON,ACT,2612,2023-02-28T00:00:00.000,2021-07-12T00:00:00.000
14003356,OFF,Liquor - Off,Company,1,1,MACINLY PTY LTD,Ainslie Cellars,7 Edgar Street,AINSLIE,ACT,2602,2023-02-28T00:00:00.000,2021-11-29T00:00:00.000
14005716,OFF,Liquor - Off,Company,1,1,FARRAH LIQUOR PTY LTD,Farrah's Liquor Collective,"Unit 1, Building A 8-20 townsville Street",FYSHWICK,ACT,2609,2023-11-30T00:00:00.000,2020-08-10T00:00:00.000
14005632,OFF,Liquor - Off,Company,1,1,5 STAR SUPERMARKET MITCHELL PTY LTD,5 Star Supermarket Mitchell,Shop 4 & 5 35 Brookes Street,MITCHELL,ACT,2911,2023-02-28T00:00:00.000,2017-08-22T00:00:00.000
14005603,OFF,Liquor - Off,Company,1,1,TIKCUFHA PTY LTD,The Spence Grocer,Shop 1 1 Glassey Place,SPENCE,ACT,2615,2023-02-28T00:00:00.000,
14005667,OFF,Liquor - Off,Company,1,1,THE WINE CROWD PTY LTD,The Wine Crowd,"Unit 2063, Fyshwick Self Storage 64-68 Collie Street",FYSHWICK,ACT,2609,2023-02-28T00:00:00.000,2016-04-26T00:00:00.000
14004746,OFF,Liquor - Off,Company,1,1,JERGROTLY PTY LTD,Spar Express Ngunnawal,Shop 1 Ngunnawal Local Centre Wanganeen Avenue,NGUNNAWAL,ACT,2913,2023-02-28T00:00:00.000,
14005686,OFF,Liquor - Off,Individual,1,1,Douglas John INWOOD,3 Sons Cider,51 Arabana Street,ARANDA,ACT,2614,2023-11-30T00:00:00.000,2017-02-28T00:00:00.000
14005271,OFF,Liquor - Off,Company,1,1,BARKER PROPERTY ENTERPRISES PTY LTD,IGA X-press Farrer,1 Farrer Place,FARRER,ACT,2607,2023-02-28T00:00:00.000,2014-12-18T00:00:00.000
14004367,OFF,Liquor - Off,Company,1,1,FULLER AND GIURITA PTY LTD,Patto's Grog Shop,"Shop 17, Calwell Shopping Centre 7 Webber Crescent",CALWELL,ACT,2905,2023-02-28T00:00:00.000,2021-07-02T00:00:00.000
14000876,OFF,Liquor - Off,Company,1,1,AMG HOLDINGS (AUSTRALIA) PTY LTD,Swinger Hill Supermarket and Cellars,Shop 11 Swinger Hill Shopping Centre 84 Ainsworth Street,MAWSON,ACT,2607,2023-02-28T00:00:00.000,
14005672,OFF,Liquor - Off,Company,1,1,MADA WINES PTY LTD,Mada Wines,"Unit 1167, Fyshwick Self Storage 64-68 Collie Street",FYSHWICK,ACT,2609,2023-11-30T00:00:00.000,2016-06-15T00:00:00.000
14000462,OFF,Liquor - Off,Company,1,1,TIENCA PTY LTD,Tienca Pty Ltd,Shop 1 Garran Place,GARRAN,ACT,2605,2023-02-28T00:00:00.000,
14005212,OFF,Liquor - Off,Company,1,1,SHAKER (ACT) RETAILERS PTY LTD,Spar Rivett,20 Rivett Place,RIVETT,ACT,2611,2023-02-28T00:00:00.000,2022-04-13T00:00:00.000
14002548,OFF,Liquor - Off,Company,1,1,DTR ELLISTON PTY LTD,Candamber Liquor,Shop 10 17 Brierly Street,WESTON,ACT,2611,2023-02-28T00:00:00.000,2019-07-01T00:00:00.000
14005521,OFF,Liquor - Off,Company,1,1,TUTTO DELICATESSEN PTY LTD,"Tutto Continental, Tutto Delicatessen","Unit 1 & 2, 142-152 Mawson Place",MAWSON,ACT,2607,2023-02-28T00:00:00.000,2018-08-17T00:00:00.000
14005526,OFF,Liquor - Off,Individual,1,1,Kim Louise POULSEN,Corner Connections Latham,19/15 Wanliss Street,LATHAM,ACT,2615,2023-02-28T00:00:00.000,
14005530,OFF,Liquor - Off,Company,1,1,LIQUORLAND (AUSTRALIA) PTY LTD,Liquorland (Gungahlin),"Cnr, Hibberson Street & Gungahlin Place",GUNGAHLIN,ACT,2912,2023-11-30T00:00:00.000,
14005540,OFF,Liquor - Off,Company,1,1,LIQUORLAND (AUSTRALIA) PTY LTD,Liquorland Canberra City,"Shop EG24, Canberra Centre Corner Bunda Street & Petrie Street",CANBERRA,ACT,2601,2023-11-30T00:00:00.000,
14004623,OFF,Liquor - Off,Company,1,1,KRISHNA SWAROOP PTY LTD,Theodore Shops,116 Lawrence Wackett Crescent,THEODORE,ACT,2905,2023-02-28T00:00:00.000,2019-08-16T00:00:00.000
14005579,OFF,Liquor - Off,Individual,1,1,Dejan  ANDREVSKI,Bruce Super Convenience,Unit 121 10 Thynne Street,BRUCE,ACT,2617,2023-02-28T00:00:00.000,
14005709,OFF,Liquor - Off,Company,1,1,LIQUORLAND (AUSTRALIA) PTY LTD,Liquorland - Chisholm,"T12, 42 Halley Street",CHISHOLM,ACT,2905,2023-11-30T00:00:00.000,
14003719,OFF,Liquor - Off,Company,1,1,LIQUORLAND (AUSTRALIA) PTY LTD,Liquorland (Tuggeranong),"Upper Level, South Point Tuggeranong Corner Anketell Street & Reed Street",TUGGERANONG,ACT,2900,2023-11-30T00:00:00.000,1987-11-09T00:00:00.000
14005684,OFF,Liquor - Off,Company,1,1,LIQUORLAND (AUSTRALIA) PTY LTD,Liquorland,Shop 4 11 Pioneer Street,AMAROO,ACT,2914,2023-11-30T00:00:00.000,2017-02-01T00:00:00.000
14005646,OFF,Liquor - Off,Company,1,1,LIQUORLAND (AUSTRALIA) PTY LTD,Liquorland Woden,96A Westfield Woden 8 Keltie Street,WODEN,ACT,2606,2023-11-30T00:00:00.000,2014-06-23T00:00:00.000
14005577,OFF,Liquor - Off,Company,1,1,LIQUORLAND (AUSTRALIA) PTY LTD,Liquorland Jamison,"Shop D04, Jamison Shopping Centre 26 Bowman Street",MACQUARIE,ACT,2614,2023-11-30T00:00:00.000,2008-10-21T00:00:00.000
14004287,OFF,Liquor - Off,Company,1,1,LIQUORLAND (AUSTRALIA) PTY LTD,Liquorland Kaleen,Shop 13 Kaleen Plaza 97 Georgina Crescent,KALEEN,ACT,2617,2023-11-30T00:00:00.000,
14005615,OFF,Liquor - Off,Company,1,1,LIQUORLAND (AUSTRALIA) PTY LTD,First Choice Liquor Market,46-50 Hibberson Street,GUNGAHLIN,ACT,2912,2023-11-30T00:00:00.000,2011-12-16T00:00:00.000
14005726,OFF,Liquor - Off,Company,1,1,SHOPLANDS PTY LTD,Shoplands,"Shoplands, Shop 1 6 Farr Place",ISAACS,ACT,2607,2023-02-28T00:00:00.000,2019-11-14T00:00:00.000
14005508,OFF,Liquor - Off,Company,1,1,TANMEL PTY LTD,Canberra Cellars,Unit 4 & 5 21 Lonsdale Street,BRADDON,ACT,2612,2023-02-28T00:00:00.000,2015-03-25T00:00:00.000
14005727,OFF,Liquor - Off,Company,1,1,YESMART PTY LTD,YESMART,143/2 Hinder Street,GUNGAHLIN,ACT,2912,2023-02-28T00:00:00.000,
14005584,OFF,Liquor - Off,Company,1,1,LIQUORLAND (AUSTRALIA) PTY LTD,First Choice Liquor Market,15 Market Street,BELCONNEN,ACT,2617,2023-11-30T00:00:00.000,
14005116,OFF,Liquor - Off,Company,1,1,LIQUORLAND (AUSTRALIA) PTY LTD,Liquorland (Manuka),Tenancy 34  Manuka Plaza Franklin Street,MANUKA,ACT,2603,2023-11-30T00:00:00.000,2000-06-07T00:00:00.000
14005639,OFF,Liquor - Off,Company,1,1,DRAKEFORD HOLDINGS (ACT) PTY LTD,Drakeford Supermarket & Liquor,10-13/9 Jenke Circuit,KAMBAH,ACT,2902,2023-02-28T00:00:00.000,2022-11-23T00:00:00.000
14004922,OFF,Liquor - Off,Company,1,1,TANMEL PTY LTD,Canberra Cellars,Unit 1 Corner Josephson Street & Luxton Street,BELCONNEN,ACT,2617,2023-02-28T00:00:00.000,2015-03-25T00:00:00.000
14005558,OFF,Liquor - Off,Company,1,1,LIQUORLAND (AUSTRALIA) PTY LTD,First Choice Liquor Market,48 Mort Street,BRADDON,ACT,2612,2023-11-30T00:00:00.000,2007-10-25T00:00:00.000
14005335,OFF,Liquor - Off,Company,1,1,MARIANTHY PTY LIMITED,Watson Supa Express,"Shop 4 & 5 Watson Shopping Centre, Watson Place",WATSON,ACT,2602,2023-02-28T00:00:00.000,2002-12-10T00:00:00.000
14000382,OFF,Liquor - Off,Company,1,1,LIQUORLAND (AUSTRALIA) PTY LTD,Liquorland Vintage Cellars,25 Bougainville Street,MANUKA,ACT,2603,2023-11-30T00:00:00.000,1975-11-01T00:00:00.000
14002310,OFF,Liquor - Off,Company,1,1,LIQUORLAND (AUSTRALIA) PTY LTD,Liquorland Wanniassa,12 Sangster Place,WANNIASSA,ACT,2903,2023-11-30T00:00:00.000,2003-07-18T00:00:00.000
14005614,OFF,Liquor - Off,Company,1,1,TANMEL PTY LTD,Canberra Cellars,Unit 2 29 O'Hanlon Place,NICHOLLS,ACT,2913,2023-02-28T00:00:00.000,2015-03-25T00:00:00.000
14005633,OFF,Liquor - Off,Company,1,1,BADLA HOLDINGS PTY LTD,Gourmet By Design,Unit 1 28 Lyell Street,FYSHWICK,ACT,2609,2023-02-28T00:00:00.000,2013-07-23T00:00:00.000
14005676,OFF,Liquor - Off,Company,1,1,BARTON SUPERMARKET PTY LTD,Barton Grocer,48 Macquarie Street,BARTON,ACT,2600,2023-02-28T00:00:00.000,2016-08-02T00:00:00.000
14005594,OFF,Liquor - Off,Company,1,1,ENDEAVOUR GROUP LIMITED,Dan Murphy's Phillip,"Unit 8, Phillip Market Place 48 Botany Street",PHILLIP,ACT,2606,2023-11-30T00:00:00.000,2020-02-03T00:00:00.000
14004703,OFF,Liquor - Off,Company,1,1,ENDEAVOUR GROUP LIMITED,BWS - Beer Wine Spirits Dickson,38 Woolley Street,DICKSON,ACT,2602,2023-11-30T00:00:00.000,2020-02-03T00:00:00.000
14004375,OFF,Liquor - Off,Company,1,1,ENDEAVOUR GROUP LIMITED,BWS - Beer Wine Spirits Calwell,Calwell Shopping Centre 7 Webber Crescent,CALWELL,ACT,2905,2023-11-30T00:00:00.000,2020-02-03T00:00:00.000
14005691,OFF,Liquor - Off,Company,1,1,ENDEAVOUR GROUP LIMITED,Dan Murphy's Canberra Airport,"7-15 Mustang Avenue Majura Park, Canberra Airport",PIALLIGO,ACT,2609,2023-11-30T00:00:00.000,2020-02-03T00:00:00.000
14005701,OFF,Liquor - Off,Company,1,1,ENDEAVOUR GROUP LIMITED,BWS - Beer Wine Sprits Canberra City,"Mayfair Apartments, 40 Marcus Clarke Street",CANBERRA,ACT,2601,2023-11-30T00:00:00.000,2020-02-03T00:00:00.000
14003743,OFF,Liquor - Off,Company,1,1,ENDEAVOUR GROUP LIMITED,BWS - Beer Wine Spirits (Tuggeranaong),"Ground Level, Tuggeranong Hyperdome Corner Anketell Street & Reed Street",GREENWAY,ACT,2900,2023-11-30T00:00:00.000,2020-02-03T00:00:00.000
14004412,OFF,Liquor - Off,Company,1,1,ENDEAVOUR GROUP LIMITED,BWS - Beer Wine Spirits Kaleen,93 Georgina Crescent,KALEEN,ACT,2617,2023-11-30T00:00:00.000,2020-02-03T00:00:00.000
14005730,OFF,Liquor - Off,Company,1,1,ENDEAVOUR GROUP LIMITED,Dan Murphy's - Gungahlin,"Unit 1, 35 Crinigan Circle",GUNGAHLIN,ACT,2912,2023-11-30T00:00:00.000,2020-04-02T00:00:00.000
14001940,OFF,Liquor - Off,Company,1,1,ENDEAVOUR GROUP LIMITED,BWS - Beer Wine Spirits Kippax (Holt),Shop 16 Kippax Fair 48 Hardwick Street,HOLT,ACT,2615,2023-11-30T00:00:00.000,2020-02-03T00:00:00.000
14002820,OFF,Liquor - Off,Company,1,1,ENDEAVOUR GROUP LIMITED,BWS - Beer Wine Spirits Weston Creek,Shop 101 Cooleman Court Shopping Centre 26 Brierly Street,WESTON,ACT,2611,2023-11-30T00:00:00.000,2020-02-03T00:00:00.000
14005674,OFF,Liquor - Off,Company,1,1,ENDEAVOUR GROUP LIMITED,BWS - Beer Wine Spirits (Franklin),Corner of Nullarbor Avenue and Flemington Road,FRANKLIN,ACT,2913,2023-11-30T00:00:00.000,2020-02-03T00:00:00.000
14002302,OFF,Liquor - Off,Company,1,1,ENDEAVOUR GROUP LIMITED,BWS - Beer Wine Spirits Kambah,Kambah Village Centre 1 Marconi Crescent,KAMBAH,ACT,2902,2023-11-30T00:00:00.000,2020-02-03T00:00:00.000
14002610,OFF,Liquor - Off,Company,1,1,ENDEAVOUR GROUP LIMITED,BWS (Beer Wine Spirits) Hawker,Shop 1 26 Hawker Place,HAWKER,ACT,2614,2023-11-30T00:00:00.000,2020-02-03T00:00:00.000
14005731,OFF,Liquor - Off,Company,1,1,ENDEAVOUR GROUP LIMITED,BWS - Beer Wine Spirits - Belconnen,"6 Grazier Lane Blocks 32-51, 54-59, 75-76",BELCONNEN,ACT,2616,2023-11-30T00:00:00.000,2020-07-13T00:00:00.000
14001730,OFF,Liquor - Off,Company,1,1,ENDEAVOUR GROUP LIMITED,BWS- Beer Wine Spirits Charnwood,27 Charnwood Place,CHARNWOOD,ACT,2615,2023-11-30T00:00:00.000,2020-02-03T00:00:00.000
14004893,OFF,Liquor - Off,Company,1,1,ENDEAVOUR GROUP LIMITED,BWS - Beer Wine Spirits Gungahlin,Gungahlin Market Place 31 Hibberson Street,GUNGAHLIN,ACT,2912,2023-11-30T00:00:00.000,2020-02-03T00:00:00.000
14005587,OFF,Liquor - Off,Company,1,1,ENDEAVOUR GROUP LIMITED,BWS - Beer Wine Spirits Dickson,5 Dickson Place,DICKSON,ACT,2602,2023-11-30T00:00:00.000,2020-02-03T00:00:00.000
14002791,OFF,Liquor - Off,Company,1,1,ENDEAVOUR GROUP LIMITED,BWS - Beer Wine Spirits Mawson,Southlands Shopping Centre 15 Mawson Place,MAWSON,ACT,2607,2023-11-30T00:00:00.000,2020-02-03T00:00:00.000
14005327,OFF,Liquor - Off,Company,1,1,ENDEAVOUR GROUP LIMITED,Dan Murphy's Tuggeranong,"Shops 34, 35 & 36 Homeworld Centre 150-180 Soward Way",GREENWAY,ACT,2900,2023-11-30T00:00:00.000,2020-02-03T00:00:00.000
14005715,OFF,Liquor - Off,Partnership,1,1,D.J CORKERY & A.M GILLAM,We Happy Few Wines,"Unit 1026, Fyshwick Storage Centre 64-68 Collie Street",FYSHWICK,ACT,2609,2023-11-30T00:00:00.000,2019-04-02T00:00:00.000
14005739,OFF,Liquor - Off,Company,1,1,ENDEAVOUR GROUP LIMITED,BWS - Beer Wine Spirits (Canberra Airport),"W1, 18-26 Spitfire Avenue Majura Park",MAJURA,ACT,2609,2023-11-30T00:00:00.000,2021-01-18T00:00:00.000
14004850,OFF,Liquor - Off,Company,1,1,ENDEAVOUR GROUP LIMITED,BWS - Beer Wine Spirits Conder,Cnr Box Hill Avenue & Tharwa Drive,CONDER,ACT,2906,2023-11-30T00:00:00.000,2020-02-03T00:00:00.000
14002812,OFF,Liquor - Off,Company,1,1,ENDEAVOUR GROUP LIMITED,BWS - Beer Wine Spirits Belconnen,Westfield Belconnen 20 Benjamin Way,BELCONNEN,ACT,2617,2023-11-30T00:00:00.000,2020-02-03T00:00:00.000
14002484,OFF,Liquor - Off,Company,1,1,ENDEAVOUR GROUP LIMITED,BWS - Beer Wine Spirits Kingston,42 Giles Street,KINGSTON,ACT,2604,2023-11-30T00:00:00.000,2020-02-03T00:00:00.000
14005738,OFF,Liquor - Off,Company,1,1,ENDEAVOUR GROUP LIMITED,Dan Murphy's Dickson,44 Dickson Place,DICKSON,ACT,2602,2023-11-30T00:00:00.000,2020-11-24T00:00:00.000
14005617,OFF,Liquor - Off,Company,1,1,ENDEAVOUR GROUP LIMITED,BWS - Beer Wine Spirits Bonner,Bill Ferguson Circuit,BONNER,ACT,2914,2023-11-30T00:00:00.000,2020-02-03T00:00:00.000
14002804,OFF,Liquor - Off,Company,1,1,ENDEAVOUR GROUP LIMITED,BWS - Beer Wine Spirits Woden,Westfield Woden Corinna Street,PHILLIP,ACT,2606,2023-11-30T00:00:00.000,2020-02-03T00:00:00.000
14005588,OFF,Liquor - Off,Company,1,1,ENDEAVOUR GROUP LIMITED,BWS - Beer Wine Spirits Wanniassa,Shop 8 10-17 Sangster Place,WANNIASSA,ACT,2903,2023-11-30T00:00:00.000,2020-02-03T00:00:00.000
14003436,OFF,Liquor - Off,Company,1,1,ENDEAVOUR GROUP LIMITED,BWS - Beer Wine Spirits Erindale,50/68 Comrie Street,WANNIASSA,ACT,2903,2023-11-30T00:00:00.000,2020-02-03T00:00:00.000
14005613,OFF,Liquor - Off,Company,1,1,ENDEAVOUR GROUP LIMITED,BWS - Beer Wine Spirits - Dunlop,78-82 Lance Hill Avenue,DUNLOP,ACT,2615,2023-11-30T00:00:00.000,2020-02-03T00:00:00.000
14004949,OFF,Liquor - Off,Company,1,1,ENDEAVOUR GROUP LIMITED,Dan Murphy's Belconnen,"Shop 193, Westfield Belconnen 20 Benjamin Way",BELCONNEN,ACT,2617,2023-11-30T00:00:00.000,2020-02-03T00:00:00.000
14005762,OFF,Liquor - Off,Company,1,1,LITTLE THEO'S GROUP PTY LTD,Little Theo's Take Away Food & Pizza Bar,Shop 3/3 Carleton Street,KAMBAH,ACT,2902,2023-02-28T00:00:00.000,2022-11-10T00:00:00.000
14005655,OFF,Liquor - Off,Company,1,1,QFLY UNITED PTY LTD,UC Supermarket,"University of Canberra, Cooper Lodge, Shop 8 & 9 20 Pantowora Street",BRUCE,ACT,2617,2023-02-28T00:00:00.000,2015-01-13T00:00:00.000
14005537,OFF,Liquor - Off,Company,1,1,ZIERHOLZ PTY LTD,Zierholz Pty Ltd,Unit 7 19-25 Kembla Street,FYSHWICK,ACT,2609,2023-02-28T00:00:00.000,2006-06-29T00:00:00.000
14005695,OFF,Liquor - Off,Individual,1,1,James Bernard WRIGHT,Cloud House Wines,7 Mirrabucca Crescent,GIRALANG,ACT,2617,2023-02-28T00:00:00.000,2017-12-22T00:00:00.000
14005764,OFF,Liquor - Off,Company,1,1,CAPITAL LIQUOR & BEV PTY LTD,Capital Liquor & Bev Pty Ltd,3/37 Dacre Street,MITCHELL,ACT,2911,2023-02-28T00:00:00.000,2022-12-20T00:00:00.000
14005609,OFF,Liquor - Off,Company,1,1,COSTCO WHOLESALE AUSTRALIA PTY LTD,Costco Wholesale Australia Pty Ltd,39-41 Mustang Avenue Majura Park,MAJURA,ACT,2609,2023-11-30T00:00:00.000,
