locationID,brandID,storeID,latitude,longitude,storeName,address,suburb,postcode,state,phone,distance,fax,locationFeatures,openingHours,operationalInfo,openingHoursExceptions,isOpen,openingDate,closingDate,cncEnabled,cncStore
34256079,3,6019,-27.564955,151.914114,Glenvale,114-128 Glenvale Road,Glenvale,4350,QLD,(07) 4529 5580,4.219,,,"{'mondayOpen': '09:00', 'mondayClose': '21:00', 'tuesdayOpen': '09:00', 'tuesdayClose': '21:00', 'wednesdayOpen': '09:00', 'wednesdayClose': '21:00', 'thursdayOpen': '09:00', 'thursdayClose': '21:00', 'fridayOpen': '09:00', 'fridayClose': '21:00', 'saturdayOpen': '09:00', 'saturdayClose': '19:00', 'sundayOpen': '09:00', 'sundayClose': '18:00'}","{'storeManager': 'DANIEL BORGSTAHL', 'areaRegion': 'QLD8', 'areaRegionMgr': 'Konrad Kolmet (Secondment)', 'regionZone': 'QLD', 'regionZoneMgr': 'Mat Davey'}",[],True,,,True,True
34256251,3,8683,-27.565417,151.930723,Clifford Gardens,Corner Anzac Avenue And James Street,Toowoomba,4350,QLD,(07) 3726 9662,3.3,,,"{'mondayOpen': '09:00', 'mondayClose': '19:00', 'tuesdayOpen': '09:00', 'tuesdayClose': '19:00', 'wednesdayOpen': '09:00', 'wednesdayClose': '19:00', 'thursdayOpen': '09:00', 'thursdayClose': '21:00', 'fridayOpen': '09:00', 'fridayClose': '21:00', 'saturdayOpen': '09:00', 'saturdayClose': '17:00', 'sundayOpen': '09:00', 'sundayClose': '17:00'}","{'storeManager': 'BARRY RICHARDS', 'areaRegion': 'QLD8', 'areaRegionMgr': 'Konrad Kolmet (Secondment)', 'regionZone': 'QLD', 'regionZoneMgr': 'Mat Davey'}",[],True,,,True,True
34256328,3,6643,-27.594603,151.948748,Toowoomba (kmart Plaza),878 Ruthven Street,Toowoomba,4350,QLD,(07) 3726 9661,5.999,,,"{'mondayOpen': '09:00', 'mondayClose': '19:00', 'tuesdayOpen': '09:00', 'tuesdayClose': '19:00', 'wednesdayOpen': '09:00', 'wednesdayClose': '19:00', 'thursdayOpen': '09:00', 'thursdayClose': '21:00', 'fridayOpen': '09:00', 'fridayClose': '21:00', 'saturdayOpen': '09:00', 'saturdayClose': '18:00', 'sundayOpen': '09:00', 'sundayClose': '18:00'}","{'storeManager': 'MEGAN SANDER', 'areaRegion': 'QLD8', 'areaRegionMgr': 'Konrad Kolmet (Secondment)', 'regionZone': 'QLD', 'regionZoneMgr': 'Mat Davey'}",[],True,,,True,True
34256422,3,6609,-27.571469,153.063142,Sunnybank,358 Mains And Mccullough Streets,Sunnybank,4109,QLD,(07) 3726 9684,11.151,,,"{'mondayOpen': '09:00', 'mondayClose': '20:00', 'tuesdayOpen': '09:00', 'tuesdayClose': '20:00', 'wednesdayOpen': '09:00', 'wednesdayClose': '20:00', 'thursdayOpen': '09:00', 'thursdayClose': '21:00', 'fridayOpen': '09:00', 'fridayClose': '21:00', 'saturdayOpen': '09:00', 'saturdayClose': '20:00', 'sundayOpen': '09:00', 'sundayClose': '18:00'}","{'storeManager': 'DANIEL BROWNE', 'areaRegion': 'QNS7', 'areaRegionMgr': 'Ben Harris', 'regionZone': 'QNS', 'regionZoneMgr': 'Adam Hill'}",[],True,,,True,True
34256410,3,6540,-27.562689,153.082112,Garden City,2049 Logan Road,Upper Mount Gravatt,4122,QLD,(07) 3734 0854,11.179,,,"{'mondayOpen': '09:00', 'mondayClose': '20:00', 'tuesdayOpen': '09:00', 'tuesdayClose': '20:00', 'wednesdayOpen': '09:00', 'wednesdayClose': '20:00', 'thursdayOpen': '09:00', 'thursdayClose': '21:00', 'fridayOpen': '09:00', 'fridayClose': '20:00', 'saturdayOpen': '09:00', 'saturdayClose': '20:00', 'sundayOpen': '09:00', 'sundayClose': '18:00'}","{'storeManager': 'JOHN HENWOOD', 'areaRegion': 'QNS7', 'areaRegionMgr': 'Ben Harris', 'regionZone': 'QNS', 'regionZoneMgr': 'Adam Hill'}",[],True,,,True,True
34256312,3,6486,-27.540449,153.082799,Mt Gravatt Plaza,55 Creek Road,Mount Gravatt,4122,QLD,(07) 3452 6480,9.361,,,"{'mondayOpen': '09:00', 'mondayClose': '20:00', 'tuesdayOpen': '09:00', 'tuesdayClose': '20:00', 'wednesdayOpen': '09:00', 'wednesdayClose': '20:00', 'thursdayOpen': '09:00', 'thursdayClose': '20:00', 'fridayOpen': '09:00', 'fridayClose': '20:00', 'saturdayOpen': '09:00', 'saturdayClose': '20:00', 'sundayOpen': '09:00', 'sundayClose': '18:00'}","{'storeManager': 'HAYDEN DONOHUE', 'areaRegion': 'QNS7', 'areaRegionMgr': 'Ben Harris', 'regionZone': 'QNS', 'regionZoneMgr': 'Adam Hill'}",[],True,,,True,True
34255940,3,8336,-27.509428,153.024171,Fairfield (fairfield Road),190 Fairfield Road,Fairfield,4103,QLD,(07) 3734 0867,3.5,,,"{'mondayOpen': '10:00', 'mondayClose': '20:00', 'tuesdayOpen': '10:00', 'tuesdayClose': '20:00', 'wednesdayOpen': '10:00', 'wednesdayClose': '20:00', 'thursdayOpen': '10:00', 'thursdayClose': '20:00', 'fridayOpen': '10:00', 'fridayClose': '21:00', 'saturdayOpen': '10:00', 'saturdayClose': '21:00', 'sundayOpen': '10:00', 'sundayClose': '19:00'}","{'storeManager': 'JAMIE ARTUS', 'areaRegion': 'QLD1CB', 'areaRegionMgr': 'Matthue Woods', 'regionZone': 'QLD', 'regionZoneMgr': 'Mat Davey'}",[],True,,,True,True
34256335,3,6663,-27.532431,152.981618,Sherwood,672 Sherwood Road,Sherwood,4075,QLD,(07) 3734 0861,5.888,,,"{'mondayOpen': '10:00', 'mondayClose': '20:00', 'tuesdayOpen': '10:00', 'tuesdayClose': '20:00', 'wednesdayOpen': '10:00', 'wednesdayClose': '20:00', 'thursdayOpen': '10:00', 'thursdayClose': '20:00', 'fridayOpen': '10:00', 'fridayClose': '21:00', 'saturdayOpen': '10:00', 'saturdayClose': '21:00', 'sundayOpen': '10:00', 'sundayClose': '19:00'}","{'storeManager': 'JAMES HISCOCK', 'areaRegion': 'QLD1CB', 'areaRegionMgr': 'Matthue Woods', 'regionZone': 'QLD', 'regionZoneMgr': 'Mat Davey'}",[],True,,,True,True
34256319,3,6622,-27.611154,153.055622,Sunnybank Hills,Corner Calam Road And Compton Road,Sunnybank Hills,4109,QLD,(07) 3712 5680,15.01,,,"{'mondayOpen': '09:00', 'mondayClose': '20:00', 'tuesdayOpen': '09:00', 'tuesdayClose': '20:00', 'wednesdayOpen': '09:00', 'wednesdayClose': '20:00', 'thursdayOpen': '09:00', 'thursdayClose': '21:00', 'fridayOpen': '09:00', 'fridayClose': '21:00', 'saturdayOpen': '09:00', 'saturdayClose': '20:00', 'sundayOpen': '09:00', 'sundayClose': '18:00'}","{'storeManager': 'MELODY VOLLER', 'areaRegion': 'QNS7', 'areaRegionMgr': 'Ben Harris', 'regionZone': 'QNS', 'regionZoneMgr': 'Adam Hill'}",[],True,,,True,True
34256015,3,8560,-27.578058,152.973603,Inala Superstore,Corner Freeman Road And Rudd Street,Inala,4077,QLD,(07) 3078 8600,10.959,,,"{'mondayOpen': '10:00', 'mondayClose': '19:00', 'tuesdayOpen': '10:00', 'tuesdayClose': '19:00', 'wednesdayOpen': '10:00', 'wednesdayClose': '19:00', 'thursdayOpen': '10:00', 'thursdayClose': '20:00', 'fridayOpen': '10:00', 'fridayClose': '21:00', 'saturdayOpen': '10:00', 'saturdayClose': '21:00', 'sundayOpen': '10:00', 'sundayClose': '18:00'}","{'storeManager': 'HARDEEP GILL', 'areaRegion': 'QLD8', 'areaRegionMgr': 'Konrad Kolmet (Secondment)', 'regionZone': 'QLD', 'regionZoneMgr': 'Mat Davey'}",[],True,,,True,True
34256158,3,6091,-27.57746,153.113921,Rochedale,329 Gardner Road,Rochedale,4123,QLD,(07) 3182 9480,14.17,,,"{'mondayOpen': '09:00', 'mondayClose': '20:00', 'tuesdayOpen': '09:00', 'tuesdayClose': '20:00', 'wednesdayOpen': '09:00', 'wednesdayClose': '20:00', 'thursdayOpen': '09:00', 'thursdayClose': '21:00', 'fridayOpen': '09:00', 'fridayClose': '21:00', 'saturdayOpen': '09:00', 'saturdayClose': '21:00', 'sundayOpen': '09:00', 'sundayClose': '18:00'}","{'storeManager': 'SAMANTHA DILLON', 'areaRegion': 'QNS7', 'areaRegionMgr': 'Ben Harris', 'regionZone': 'QNS', 'regionZoneMgr': 'Adam Hill'}",[],True,,,True,True
34256423,3,6611,-27.502243,153.005813,St Lucia,222 Hawken Drive,St Lucia,4067,QLD,(07) 3734 0856,2.235,,,"{'mondayOpen': '10:00', 'mondayClose': '20:00', 'tuesdayOpen': '10:00', 'tuesdayClose': '20:00', 'wednesdayOpen': '10:00', 'wednesdayClose': '20:00', 'thursdayOpen': '10:00', 'thursdayClose': '21:00', 'fridayOpen': '10:00', 'fridayClose': '21:00', 'saturdayOpen': '10:00', 'saturdayClose': '21:00', 'sundayOpen': '10:00', 'sundayClose': '21:00'}","{'storeManager': 'JAMIE LEE COSGROVE', 'areaRegion': 'QLD1CB', 'areaRegionMgr': 'Matthue Woods', 'regionZone': 'QLD', 'regionZoneMgr': 'Mat Davey'}",[],True,,,True,True
34256186,3,8670,-27.501606,152.996858,Ironside,28 Hawken Drive,St Lucia,4067,QLD,(07) 3734 0882,2.23,,,"{'mondayOpen': '10:00', 'mondayClose': '20:00', 'tuesdayOpen': '10:00', 'tuesdayClose': '20:00', 'wednesdayOpen': '10:00', 'wednesdayClose': '20:00', 'thursdayOpen': '10:00', 'thursdayClose': '20:00', 'fridayOpen': '10:00', 'fridayClose': '21:00', 'saturdayOpen': '10:00', 'saturdayClose': '21:00', 'sundayOpen': '10:00', 'sundayClose': '20:00'}","{'storeManager': 'IAN SPLATT', 'areaRegion': 'QLD1CB', 'areaRegionMgr': 'Matthue Woods', 'regionZone': 'QLD', 'regionZoneMgr': 'Mat Davey'}",[],True,,,True,True
34256089,3,6080,-27.559021,152.950912,Darra,"Shop 9a, 166 Monier Road",Darra,4076,QLD,(07) 3726 9611,9.648,,,"{'mondayOpen': '09:00', 'mondayClose': '21:00', 'tuesdayOpen': '09:00', 'tuesdayClose': '21:00', 'wednesdayOpen': '09:00', 'wednesdayClose': '21:00', 'thursdayOpen': '09:00', 'thursdayClose': '21:00', 'fridayOpen': '09:00', 'fridayClose': '21:00', 'saturdayOpen': '09:00', 'saturdayClose': '21:00', 'sundayOpen': '09:00', 'sundayClose': '18:00'}","{'storeManager': 'JOHN NORRIS', 'areaRegion': 'QNS6', 'areaRegionMgr': 'Ian Haines', 'regionZone': 'QNS', 'regionZoneMgr': 'Adam Hill'}",[],True,,,True,True
34256345,3,6684,-27.501911,153.102592,Carindale Westfield,1151 Creek Road,Carindale,4152,QLD,(07) 3308 6180,8.727,,,"{'mondayOpen': '09:00', 'mondayClose': '21:00', 'tuesdayOpen': '09:00', 'tuesdayClose': '21:00', 'wednesdayOpen': '09:00', 'wednesdayClose': '21:00', 'thursdayOpen': '09:00', 'thursdayClose': '22:00', 'fridayOpen': '09:00', 'fridayClose': '21:00', 'saturdayOpen': '09:00', 'saturdayClose': '21:00', 'sundayOpen': '09:00', 'sundayClose': '18:00'}","{'storeManager': 'TIMOTHY SCHULTZ', 'areaRegion': 'QLD1CB', 'areaRegionMgr': 'Matthue Woods', 'regionZone': 'QLD', 'regionZoneMgr': 'Mat Davey'}",[],True,,,True,True
34256325,3,6638,-27.60752,153.110493,Kuraby,21 Kingston Road,Underwood,4119,QLD,(07) 3726 9614,16.654,,,"{'mondayOpen': '10:00', 'mondayClose': '19:00', 'tuesdayOpen': '10:00', 'tuesdayClose': '19:00', 'wednesdayOpen': '10:00', 'wednesdayClose': '19:00', 'thursdayOpen': '10:00', 'thursdayClose': '20:00', 'fridayOpen': '10:00', 'fridayClose': '20:00', 'saturdayOpen': '10:00', 'saturdayClose': '20:00', 'sundayOpen': '10:00', 'sundayClose': '19:00'}","{'storeManager': 'SARAH MADDEN', 'areaRegion': 'QNS7', 'areaRegionMgr': 'Ben Harris', 'regionZone': 'QNS', 'regionZoneMgr': 'Adam Hill'}",[],True,,,True,True
34256171,3,6123,-27.596542,153.124738,Rochedale Cellars,549-563 Underwood Road,Rochedale,4123,QLD,(07) 3726 9603,16.385,,,"{'mondayOpen': '09:00', 'mondayClose': '20:00', 'tuesdayOpen': '09:00', 'tuesdayClose': '20:00', 'wednesdayOpen': '09:00', 'wednesdayClose': '20:00', 'thursdayOpen': '09:00', 'thursdayClose': '21:00', 'fridayOpen': '09:00', 'fridayClose': '21:00', 'saturdayOpen': '09:00', 'saturdayClose': '21:00', 'sundayOpen': '09:00', 'sundayClose': '19:00'}","{'storeManager': 'ROBERT ALI', 'areaRegion': 'QNS7', 'areaRegionMgr': 'Ben Harris', 'regionZone': 'QNS', 'regionZoneMgr': 'Adam Hill'}",[],True,,,True,True
34256009,3,5468,-27.486253,153.006413,West End,168 Hardgrave Road,West End,4101,QLD,(07) 3734 0891,19.265,,,"{'mondayOpen': '10:00', 'mondayClose': '20:00', 'tuesdayOpen': '10:00', 'tuesdayClose': '20:00', 'wednesdayOpen': '10:00', 'wednesdayClose': '20:00', 'thursdayOpen': '10:00', 'thursdayClose': '20:00', 'fridayOpen': '10:00', 'fridayClose': '22:00', 'saturdayOpen': '10:00', 'saturdayClose': '22:00', 'sundayOpen': '10:00', 'sundayClose': '20:00'}","{'storeManager': 'TRACI LEA HAMPSTEAD', 'areaRegion': 'QLD1CB', 'areaRegionMgr': 'Matthue Woods', 'regionZone': 'QLD', 'regionZoneMgr': 'Mat Davey'}",[],True,,,True,True
34256185,3,8669,-27.549647,152.93894,Mt Ommaney Centre,171 Dandenong Road,Mount Ommaney,4074,QLD,(07) 3725 7280,9.305,,,"{'mondayOpen': '09:00', 'mondayClose': '20:00', 'tuesdayOpen': '09:00', 'tuesdayClose': '20:00', 'wednesdayOpen': '09:00', 'wednesdayClose': '20:00', 'thursdayOpen': '09:00', 'thursdayClose': '21:00', 'fridayOpen': '09:00', 'fridayClose': '21:00', 'saturdayOpen': '09:00', 'saturdayClose': '19:00', 'sundayOpen': '09:00', 'sundayClose': '18:00'}","{'storeManager': 'SHELBY COOK', 'areaRegion': 'QLD8', 'areaRegionMgr': 'Konrad Kolmet (Secondment)', 'regionZone': 'QLD', 'regionZoneMgr': 'Mat Davey'}",[],True,,,True,True
34256323,3,6629,-27.49839,152.972979,Indooroopilly,Moggill Road,Indooroopilly,4068,QLD,(07) 3720 3480,3.167,,,"{'mondayOpen': '09:00', 'mondayClose': '21:00', 'tuesdayOpen': '09:00', 'tuesdayClose': '21:00', 'wednesdayOpen': '09:00', 'wednesdayClose': '21:00', 'thursdayOpen': '09:00', 'thursdayClose': '22:00', 'fridayOpen': '09:00', 'fridayClose': '21:00', 'saturdayOpen': '09:00', 'saturdayClose': '21:00', 'sundayOpen': '09:00', 'sundayClose': '18:00'}","{'storeManager': 'EMILY NANCARROW', 'areaRegion': 'QLD1CB', 'areaRegionMgr': 'Matthue Woods', 'regionZone': 'QLD', 'regionZoneMgr': 'Mat Davey'}",[],True,,,True,True
34256173,3,6127,-27.501652,153.116217,Carindale,42 Scrub Road,Carindale,4152,QLD,(07) 3734 0842,9.85,,,"{'mondayOpen': '10:00', 'mondayClose': '20:00', 'tuesdayOpen': '10:00', 'tuesdayClose': '20:00', 'wednesdayOpen': '10:00', 'wednesdayClose': '20:00', 'thursdayOpen': '10:00', 'thursdayClose': '20:00', 'fridayOpen': '10:00', 'fridayClose': '21:00', 'saturdayOpen': '10:00', 'saturdayClose': '21:00', 'sundayOpen': '10:00', 'sundayClose': '19:00'}","{'storeManager': 'ALBERT WESSLING', 'areaRegion': 'QNS7', 'areaRegionMgr': 'Ben Harris', 'regionZone': 'QNS', 'regionZoneMgr': 'Adam Hill'}",[],True,,,True,True
34256043,3,2488,-27.485028,152.992567,Toowong,9 Sherwood Road,Toowong,4066,QLD,(07) 3734 0886,18.999,,,"{'mondayOpen': '10:00', 'mondayClose': '20:00', 'tuesdayOpen': '10:00', 'tuesdayClose': '20:00', 'wednesdayOpen': '10:00', 'wednesdayClose': '20:00', 'thursdayOpen': '09:00', 'thursdayClose': '21:00', 'fridayOpen': '09:00', 'fridayClose': '21:00', 'saturdayOpen': '09:00', 'saturdayClose': '21:00', 'sundayOpen': '09:00', 'sundayClose': '18:00'}","{'storeManager': 'LUKE SMART', 'areaRegion': 'QLD1CB', 'areaRegionMgr': 'Matthue Woods', 'regionZone': 'QLD', 'regionZoneMgr': 'Mat Davey'}",[],True,,,True,True
34256330,3,6648,-27.611762,153.124447,Springwood,17-25 Cinderalla Road,Springwood,4127,QLD,(07) 3726 9681,17.716,,,"{'mondayOpen': '09:00', 'mondayClose': '20:00', 'tuesdayOpen': '09:00', 'tuesdayClose': '20:00', 'wednesdayOpen': '09:00', 'wednesdayClose': '20:00', 'thursdayOpen': '09:00', 'thursdayClose': '20:00', 'fridayOpen': '09:00', 'fridayClose': '20:00', 'saturdayOpen': '09:00', 'saturdayClose': '20:00', 'sundayOpen': '09:00', 'sundayClose': '18:00'}","{'storeManager': 'SHARON OLSON', 'areaRegion': 'QNS7', 'areaRegionMgr': 'Ben Harris', 'regionZone': 'QNS', 'regionZoneMgr': 'Adam Hill'}",[],True,,,True,True
34256352,3,6723,-27.506585,152.948397,Kenmore Plaza Cellars,841 Moggill Road,Kenmore,4069,QLD,(07) 3726 9609,5.428,,,"{'mondayOpen': '09:00', 'mondayClose': '20:00', 'tuesdayOpen': '09:00', 'tuesdayClose': '20:00', 'wednesdayOpen': '09:00', 'wednesdayClose': '20:00', 'thursdayOpen': '09:00', 'thursdayClose': '21:00', 'fridayOpen': '09:00', 'fridayClose': '21:00', 'saturdayOpen': '09:00', 'saturdayClose': '21:00', 'sundayOpen': '10:00', 'sundayClose': '19:00'}","{'storeManager': 'MEGAN ADSETT', 'areaRegion': 'QLD1CB', 'areaRegionMgr': 'Matthue Woods', 'regionZone': 'QLD', 'regionZoneMgr': 'Mat Davey'}",[],True,,,True,True
34256412,3,6542,-27.624931,152.967925,Forest Lake,235 Forest Lake Boulevard,Forest Lake,4078,QLD,(07) 3714 2580,16.158,,,"{'mondayOpen': '09:00', 'mondayClose': '20:00', 'tuesdayOpen': '09:00', 'tuesdayClose': '20:00', 'wednesdayOpen': '09:00', 'wednesdayClose': '20:00', 'thursdayOpen': '09:00', 'thursdayClose': '21:00', 'fridayOpen': '09:00', 'fridayClose': '21:00', 'saturdayOpen': '09:00', 'saturdayClose': '20:00', 'sundayOpen': '09:00', 'sundayClose': '18:00'}","{'storeManager': 'BRENDAN DIETRICH', 'areaRegion': 'QLD8', 'areaRegionMgr': 'Konrad Kolmet (Secondment)', 'regionZone': 'QLD', 'regionZoneMgr': 'Mat Davey'}",[],True,,,True,True
34256354,3,7008,-27.469152,153.024554,Adelaide Street,79 Adelaide Street,Brisbane,4000,QLD,(07) 2890 1680,17.693,,,"{'mondayOpen': '09:00', 'mondayClose': '21:00', 'tuesdayOpen': '09:00', 'tuesdayClose': '21:00', 'wednesdayOpen': '09:00', 'wednesdayClose': '21:00', 'thursdayOpen': '09:00', 'thursdayClose': '21:00', 'fridayOpen': '09:00', 'fridayClose': '21:00', 'saturdayOpen': '09:00', 'saturdayClose': '21:00', 'sundayOpen': '10:00', 'sundayClose': '18:00'}","{'storeManager': 'LACHLAN RAFF', 'areaRegion': 'QLD1CB', 'areaRegionMgr': 'Matthue Woods', 'regionZone': 'QLD', 'regionZoneMgr': 'Mat Davey'}",[],True,,,True,True
34256078,3,6014,-27.555187,152.922543,Middle Park,Corner Riverhills Road And Horizon Road,Middle Park,4074,QLD,(07) 3723 3880,10.657,,,"{'mondayOpen': '09:00', 'mondayClose': '20:00', 'tuesdayOpen': '09:00', 'tuesdayClose': '20:00', 'wednesdayOpen': '09:00', 'wednesdayClose': '20:00', 'thursdayOpen': '09:00', 'thursdayClose': '20:00', 'fridayOpen': '09:00', 'fridayClose': '21:00', 'saturdayOpen': '09:00', 'saturdayClose': '21:00', 'sundayOpen': '10:00', 'sundayClose': '19:00'}","{'storeManager': 'JOANNE GRANT', 'areaRegion': 'QLD8', 'areaRegionMgr': 'Konrad Kolmet (Secondment)', 'regionZone': 'QLD', 'regionZoneMgr': 'Mat Davey'}",[],True,,,True,True
34256088,3,6079,-27.468931,153.002931,Milton Village,12-36 Baroona Road,Milton,4064,QLD,(07) 3726 9657,17.316,,,"{'mondayOpen': '10:00', 'mondayClose': '21:00', 'tuesdayOpen': '10:00', 'tuesdayClose': '21:00', 'wednesdayOpen': '10:00', 'wednesdayClose': '21:00', 'thursdayOpen': '10:00', 'thursdayClose': '21:00', 'fridayOpen': '10:00', 'fridayClose': '22:00', 'saturdayOpen': '10:00', 'saturdayClose': '22:00', 'sundayOpen': '10:00', 'sundayClose': '21:00'}","{'storeManager': 'TY JAQUES', 'areaRegion': 'QLD2CB', 'areaRegionMgr': 'Kellianne Doyle', 'regionZone': 'QLD', 'regionZoneMgr': 'Mat Davey'}",[],True,,,True,True
34256353,3,6726,-27.506207,152.939,Kenmore Village,9 Brookfield Road,Brookfield,4069,QLD,(07) 3726 9621,6.117,,,"{'mondayOpen': '09:00', 'mondayClose': '20:00', 'tuesdayOpen': '09:00', 'tuesdayClose': '20:00', 'wednesdayOpen': '09:00', 'wednesdayClose': '20:00', 'thursdayOpen': '09:00', 'thursdayClose': '21:00', 'fridayOpen': '09:00', 'fridayClose': '21:00', 'saturdayOpen': '09:00', 'saturdayClose': '20:00', 'sundayOpen': '09:00', 'sundayClose': '18:00'}","{'storeManager': '', 'areaRegion': 'QLD1CB', 'areaRegionMgr': 'Matthue Woods', 'regionZone': 'QLD', 'regionZoneMgr': 'Mat Davey'}",[],True,,,True,True
34256350,3,6691,-27.471362,153.097965,Cannon Hill,Corner Creek Road And Wynnum Road,Cannon Hill,4170,QLD,(07) 3734 0864,8.144,,,"{'mondayOpen': '09:00', 'mondayClose': '20:00', 'tuesdayOpen': '09:00', 'tuesdayClose': '20:00', 'wednesdayOpen': '09:00', 'wednesdayClose': '20:00', 'thursdayOpen': '09:00', 'thursdayClose': '21:00', 'fridayOpen': '09:00', 'fridayClose': '21:00', 'saturdayOpen': '09:00', 'saturdayClose': '21:00', 'sundayOpen': '09:00', 'sundayClose': '18:00'}","{'storeManager': 'PHELAN HOLMES', 'areaRegion': 'QLD1CB', 'areaRegionMgr': 'Matthue Woods', 'regionZone': 'QLD', 'regionZoneMgr': 'Mat Davey'}",[],True,,,True,True
34256413,3,6543,-27.465241,153.079213,Morningside,38 Junction Road,Morningside,4170,QLD,(07) 3734 0883,18.968,,,"{'mondayOpen': '09:00', 'mondayClose': '21:00', 'tuesdayOpen': '09:00', 'tuesdayClose': '21:00', 'wednesdayOpen': '09:00', 'wednesdayClose': '21:00', 'thursdayOpen': '09:00', 'thursdayClose': '21:00', 'fridayOpen': '09:00', 'fridayClose': '21:00', 'saturdayOpen': '09:00', 'saturdayClose': '20:00', 'sundayOpen': '10:00', 'sundayClose': '18:00'}","{'storeManager': 'DEVANGKUMAR PATEL', 'areaRegion': 'QLD1CB', 'areaRegionMgr': 'Matthue Woods', 'regionZone': 'QLD', 'regionZoneMgr': 'Mat Davey'}",[],True,,,True,True
34256239,3,6209,-27.642843,153.117515,Logan City Centre,Corner Kingston Road And Wembley Road,Woodridge,4114,QLD,(07) 3734 0848,18.95,,,"{'mondayOpen': '09:00', 'mondayClose': '20:00', 'tuesdayOpen': '09:00', 'tuesdayClose': '20:00', 'wednesdayOpen': '09:00', 'wednesdayClose': '20:00', 'thursdayOpen': '09:00', 'thursdayClose': '20:00', 'fridayOpen': '09:00', 'fridayClose': '21:00', 'saturdayOpen': '09:00', 'saturdayClose': '21:00', 'sundayOpen': '09:00', 'sundayClose': '18:00'}","{'storeManager': 'TERRY WARE', 'areaRegion': 'QNS6', 'areaRegionMgr': 'Ian Haines', 'regionZone': 'QNS', 'regionZoneMgr': 'Adam Hill'}",[],True,,,True,True
34256336,3,6664,-27.458331,152.995581,Paddington,147 Latrobe Terrace,Paddington,4064,QLD,(07) 3734 0862,16.068,,,"{'mondayOpen': '10:00', 'mondayClose': '21:00', 'tuesdayOpen': '10:00', 'tuesdayClose': '21:00', 'wednesdayOpen': '10:00', 'wednesdayClose': '21:00', 'thursdayOpen': '10:00', 'thursdayClose': '21:00', 'fridayOpen': '10:00', 'fridayClose': '21:00', 'saturdayOpen': '10:00', 'saturdayClose': '21:00', 'sundayOpen': '10:00', 'sundayClose': '21:00'}","{'storeManager': 'MICHAEL EXLEY', 'areaRegion': 'QLD2CB', 'areaRegionMgr': 'Kellianne Doyle', 'regionZone': 'QLD', 'regionZoneMgr': 'Mat Davey'}",[],True,,,True,True
34256241,3,6222,-27.455153,153.006767,Red Hill,152 Musgrave Road,Red Hill,4059,QLD,(07) 3734 0849,15.854,,,"{'mondayOpen': '11:00', 'mondayClose': '20:00', 'tuesdayOpen': '11:00', 'tuesdayClose': '20:00', 'wednesdayOpen': '11:00', 'wednesdayClose': '20:00', 'thursdayOpen': '11:00', 'thursdayClose': '21:00', 'fridayOpen': '10:00', 'fridayClose': '21:00', 'saturdayOpen': '10:00', 'saturdayClose': '21:00', 'sundayOpen': '11:00', 'sundayClose': '20:00'}","{'storeManager': 'DONNA GRAHAM', 'areaRegion': 'QLD2CB', 'areaRegionMgr': 'Kellianne Doyle', 'regionZone': 'QLD', 'regionZoneMgr': 'Mat Davey'}",[],True,,,True,True
34256227,3,6146,-27.437231,153.023113,Windsor (qld),142 Newmarket Road,Windsor,4030,QLD,(07) 3734 0844,14.237,,,"{'mondayOpen': '09:00', 'mondayClose': '20:00', 'tuesdayOpen': '09:00', 'tuesdayClose': '20:00', 'wednesdayOpen': '09:00', 'wednesdayClose': '21:00', 'thursdayOpen': '09:00', 'thursdayClose': '21:00', 'fridayOpen': '09:00', 'fridayClose': '21:00', 'saturdayOpen': '09:00', 'saturdayClose': '21:00', 'sundayOpen': '10:00', 'sundayClose': '20:00'}","{'storeManager': 'TIMOTHY HALES', 'areaRegion': 'QLD2CB', 'areaRegionMgr': 'Kellianne Doyle', 'regionZone': 'QLD', 'regionZoneMgr': 'Mat Davey'}",[],True,,,True,True
34256184,3,8644,-27.644038,153.153677,Daisy Hill Liquor King,4-14 Alamanda Drive,Daisy Hill,4127,QLD,(07) 3726 9692,19.582,,,"{'mondayOpen': '10:00', 'mondayClose': '19:00', 'tuesdayOpen': '10:00', 'tuesdayClose': '19:00', 'wednesdayOpen': '10:00', 'wednesdayClose': '19:00', 'thursdayOpen': '10:00', 'thursdayClose': '19:00', 'fridayOpen': '10:00', 'fridayClose': '20:00', 'saturdayOpen': '10:00', 'saturdayClose': '20:00', 'sundayOpen': '10:00', 'sundayClose': '16:00'}","{'storeManager': 'BIANCAH STRONG', 'areaRegion': 'QNS6', 'areaRegionMgr': 'Ian Haines', 'regionZone': 'QNS', 'regionZoneMgr': 'Adam Hill'}",[],True,,,True,True
34256337,3,6666,-27.434076,153.065449,Ascot,Corner Racecourse Street And Dobson Street,Ascot,4007,QLD,(07) 2105 0580,19.351,,,"{'mondayOpen': '09:00', 'mondayClose': '21:00', 'tuesdayOpen': '09:00', 'tuesdayClose': '21:00', 'wednesdayOpen': '09:00', 'wednesdayClose': '21:00', 'thursdayOpen': '09:00', 'thursdayClose': '21:00', 'fridayOpen': '09:00', 'fridayClose': '21:00', 'saturdayOpen': '09:00', 'saturdayClose': '21:00', 'sundayOpen': '10:00', 'sundayClose': '19:00'}","{'storeManager': 'STEPHEN HOHIPA', 'areaRegion': 'QLD2CB', 'areaRegionMgr': 'Kellianne Doyle', 'regionZone': 'QLD', 'regionZoneMgr': 'Mat Davey'}",[],True,,,True,True
34255950,3,8370,-27.534649,153.206071,Currumbin Court Bottleshop,3 Currumbin Court,Capalaba,4157,QLD,(07) 3726 9691,18.232,,,"{'mondayOpen': '10:00', 'mondayClose': '19:00', 'tuesdayOpen': '10:00', 'tuesdayClose': '19:00', 'wednesdayOpen': '10:00', 'wednesdayClose': '19:00', 'thursdayOpen': '10:00', 'thursdayClose': '20:00', 'fridayOpen': '10:00', 'fridayClose': '20:00', 'saturdayOpen': '10:00', 'saturdayClose': '20:00', 'sundayOpen': '10:00', 'sundayClose': '18:00'}","{'storeManager': 'KYM PATTISON', 'areaRegion': 'QNS7', 'areaRegionMgr': 'Ben Harris', 'regionZone': 'QNS', 'regionZoneMgr': 'Adam Hill'}",[],True,,,True,True
34256331,3,6649,-27.445695,152.952585,The Gap,992 Water Works Road,The Gap,4061,QLD,(07) 3734 0859,14.682,,,"{'mondayOpen': '09:00', 'mondayClose': '20:00', 'tuesdayOpen': '09:00', 'tuesdayClose': '20:00', 'wednesdayOpen': '09:00', 'wednesdayClose': '20:00', 'thursdayOpen': '09:00', 'thursdayClose': '21:00', 'fridayOpen': '09:00', 'fridayClose': '21:00', 'saturdayOpen': '09:00', 'saturdayClose': '20:00', 'sundayOpen': '09:00', 'sundayClose': '18:00'}","{'storeManager': 'TALJINDER SINGH', 'areaRegion': 'QLD2CB', 'areaRegionMgr': 'Kellianne Doyle', 'regionZone': 'QLD', 'regionZoneMgr': 'Mat Davey'}",[],True,,,True,True
34256314,3,6510,-27.456476,153.154731,Wynnum West,2021 Wynnum Road,Wynnum West,4178,QLD,(07) 3734 0853,13.21,,,"{'mondayOpen': '09:00', 'mondayClose': '20:00', 'tuesdayOpen': '09:00', 'tuesdayClose': '20:00', 'wednesdayOpen': '09:00', 'wednesdayClose': '20:00', 'thursdayOpen': '09:00', 'thursdayClose': '21:00', 'fridayOpen': '09:00', 'fridayClose': '21:00', 'saturdayOpen': '09:00', 'saturdayClose': '21:00', 'sundayOpen': '09:00', 'sundayClose': '18:00'}","{'storeManager': 'JOEL POLAK', 'areaRegion': 'QLD1CB', 'areaRegionMgr': 'Matthue Woods', 'regionZone': 'QLD', 'regionZoneMgr': 'Mat Davey'}",[],True,,,True,True
34256316,3,6616,-27.679369,153.115719,Marsden,55-77  Chambers Flat Road,Marsden,4132,QLD,(07) 3726 9693,19.352,,,"{'mondayOpen': '09:00', 'mondayClose': '20:00', 'tuesdayOpen': '09:00', 'tuesdayClose': '20:00', 'wednesdayOpen': '09:00', 'wednesdayClose': '21:00', 'thursdayOpen': '09:00', 'thursdayClose': '21:00', 'fridayOpen': '09:00', 'fridayClose': '21:00', 'saturdayOpen': '09:00', 'saturdayClose': '21:00', 'sundayOpen': '09:00', 'sundayClose': '18:00'}","{'storeManager': 'MICHELLE BADGERY', 'areaRegion': 'QNS6', 'areaRegionMgr': 'Ian Haines', 'regionZone': 'QNS', 'regionZoneMgr': 'Adam Hill'}",[],True,,,True,True
34256160,3,6094,-27.42253,153.034156,Lutwyche,543 Lutwyche Rd & Lowerson Rd,Lutwyche,4030,QLD,(07) 3922 8480,18.454,,,"{'mondayOpen': '09:00', 'mondayClose': '21:00', 'tuesdayOpen': '09:00', 'tuesdayClose': '21:00', 'wednesdayOpen': '09:00', 'wednesdayClose': '21:00', 'thursdayOpen': '09:00', 'thursdayClose': '21:00', 'fridayOpen': '09:00', 'fridayClose': '21:00', 'saturdayOpen': '09:00', 'saturdayClose': '21:00', 'sundayOpen': '09:00', 'sundayClose': '18:00'}","{'storeManager': 'MICHELLE MCGRATH', 'areaRegion': 'QLD2CB', 'areaRegionMgr': 'Kellianne Doyle', 'regionZone': 'QLD', 'regionZoneMgr': 'Mat Davey'}",[],True,,,True,True
34256306,3,6472,-27.424107,152.999613,Alderley,34 South Pine Road,Alderley,4051,QLD,(07) 3550 2580,19.465,,,"{'mondayOpen': '09:00', 'mondayClose': '21:00', 'tuesdayOpen': '09:00', 'tuesdayClose': '21:00', 'wednesdayOpen': '09:00', 'wednesdayClose': '21:00', 'thursdayOpen': '09:00', 'thursdayClose': '21:00', 'fridayOpen': '09:00', 'fridayClose': '21:00', 'saturdayOpen': '09:00', 'saturdayClose': '21:00', 'sundayOpen': '09:00', 'sundayClose': '18:00'}","{'storeManager': 'LAURENCE RUDDLE', 'areaRegion': 'QLD2CB', 'areaRegionMgr': 'Kellianne Doyle', 'regionZone': 'QLD', 'regionZoneMgr': 'Mat Davey'}",[],True,,,True,True
34256300,3,6460,-27.696581,153.039344,Park Ridge,Park Ridge Road,Park Ridge,4125,QLD,(07) 3380 4880,17.007,,,"{'mondayOpen': '09:00', 'mondayClose': '20:00', 'tuesdayOpen': '09:00', 'tuesdayClose': '20:00', 'wednesdayOpen': '09:00', 'wednesdayClose': '20:00', 'thursdayOpen': '09:00', 'thursdayClose': '21:00', 'fridayOpen': '09:00', 'fridayClose': '21:00', 'saturdayOpen': '09:00', 'saturdayClose': '20:00', 'sundayOpen': '09:00', 'sundayClose': '18:00'}","{'storeManager': 'PAUL DWYER', 'areaRegion': 'QNS6', 'areaRegionMgr': 'Ian Haines', 'regionZone': 'QNS', 'regionZoneMgr': 'Adam Hill'}",[],True,,,True,True
34255941,3,8339,-27.422718,152.990481,Enoggera,318 Wardell Street,Enoggera,4051,QLD,(07) 3734 0868,19.613,,,"{'mondayOpen': '09:00', 'mondayClose': '20:00', 'tuesdayOpen': '09:00', 'tuesdayClose': '20:00', 'wednesdayOpen': '09:00', 'wednesdayClose': '20:00', 'thursdayOpen': '09:00', 'thursdayClose': '21:00', 'fridayOpen': '09:00', 'fridayClose': '21:00', 'saturdayOpen': '09:00', 'saturdayClose': '21:00', 'sundayOpen': '09:00', 'sundayClose': '19:00'}","{'storeManager': 'JASON MARCH', 'areaRegion': 'QLD2CB', 'areaRegionMgr': 'Kellianne Doyle', 'regionZone': 'QLD', 'regionZoneMgr': 'Mat Davey'}",[],True,,,True,True
34256225,3,6136,-27.454041,153.167096,Wynnum,210 West Avenue,Wynnum,4178,QLD,(07) 3734 0843,14.298,,,"{'mondayOpen': '09:00', 'mondayClose': '20:00', 'tuesdayOpen': '09:00', 'tuesdayClose': '20:00', 'wednesdayOpen': '09:00', 'wednesdayClose': '20:00', 'thursdayOpen': '09:00', 'thursdayClose': '20:00', 'fridayOpen': '09:00', 'fridayClose': '21:00', 'saturdayOpen': '09:00', 'saturdayClose': '20:00', 'sundayOpen': '10:00', 'sundayClose': '19:00'}","{'storeManager': 'ZOE JEFFERIES', 'areaRegion': 'QLD1CB', 'areaRegionMgr': 'Matthue Woods', 'regionZone': 'QLD', 'regionZoneMgr': 'Mat Davey'}",[],True,,,True,True
34256418,3,6597,-27.6616,153.171,Hyperdome Liquor King,14-38 Bryants Road,Loganholme,4129,QLD,(07) 3734 0809,18.215,,,"{'mondayOpen': '09:00', 'mondayClose': '20:00', 'tuesdayOpen': '09:00', 'tuesdayClose': '20:00', 'wednesdayOpen': '09:00', 'wednesdayClose': '20:00', 'thursdayOpen': '09:00', 'thursdayClose': '21:00', 'fridayOpen': '09:00', 'fridayClose': '21:00', 'saturdayOpen': '09:00', 'saturdayClose': '21:00', 'sundayOpen': '09:00', 'sundayClose': '18:00'}","{'storeManager': 'PAREURUORA TAPSELL', 'areaRegion': 'QNS6', 'areaRegionMgr': 'Ian Haines', 'regionZone': 'QNS', 'regionZoneMgr': 'Adam Hill'}",[],True,,,True,True
34256179,3,8638,-27.66163,153.17115,Fitzys Loganholme Drive,Corner Pacific Highway And Bryants Road,Loganholme,4129,QLD,(07) 3726 9651,18.228,,,"{'mondayOpen': '10:00', 'mondayClose': '21:00', 'tuesdayOpen': '10:00', 'tuesdayClose': '21:00', 'wednesdayOpen': '10:00', 'wednesdayClose': '21:00', 'thursdayOpen': '10:00', 'thursdayClose': '22:00', 'fridayOpen': '10:00', 'fridayClose': '22:00', 'saturdayOpen': '10:00', 'saturdayClose': '22:00', 'sundayOpen': '10:00', 'sundayClose': '20:00'}","{'storeManager': 'JADE KEENE', 'areaRegion': 'QNS6', 'areaRegionMgr': 'Ian Haines', 'regionZone': 'QNS', 'regionZoneMgr': 'Adam Hill'}",[],True,,,True,True
34256181,3,8641,-27.663414,153.175631,Loganholme Shopping Village,37-59 Bryants Road,Loganholme,4129,QLD,(07) 3734 0874,18.658,,,"{'mondayOpen': '10:00', 'mondayClose': '20:00', 'tuesdayOpen': '10:00', 'tuesdayClose': '20:00', 'wednesdayOpen': '10:00', 'wednesdayClose': '20:00', 'thursdayOpen': '10:00', 'thursdayClose': '21:00', 'fridayOpen': '10:00', 'fridayClose': '21:00', 'saturdayOpen': '10:00', 'saturdayClose': '21:00', 'sundayOpen': '10:00', 'sundayClose': '20:00'}","{'storeManager': 'ROBERT OSWALD', 'areaRegion': 'QNS6', 'areaRegionMgr': 'Ian Haines', 'regionZone': 'QNS', 'regionZoneMgr': 'Adam Hill'}",[],True,,,True,True
34255942,3,8340,-27.492447,153.216923,Birkdale Grape,180 Birkdale Road,Birkdale,4159,QLD,(07) 3726 9650,18.236,,,"{'mondayOpen': '10:00', 'mondayClose': '20:00', 'tuesdayOpen': '10:00', 'tuesdayClose': '20:00', 'wednesdayOpen': '10:00', 'wednesdayClose': '20:00', 'thursdayOpen': '10:00', 'thursdayClose': '20:00', 'fridayOpen': '10:00', 'fridayClose': '21:00', 'saturdayOpen': '10:00', 'saturdayClose': '21:00', 'sundayOpen': '10:00', 'sundayClose': '20:00'}","{'storeManager': 'ASHLEY HOFFMAN', 'areaRegion': 'QNS7', 'areaRegionMgr': 'Ben Harris', 'regionZone': 'QNS', 'regionZoneMgr': 'Adam Hill'}",[],True,,,True,True
34256168,3,6113,-27.692578,153.135438,Waterford Plaza Cellars,Corner Kingston-Beenleigh Road And Tygum Road,Waterford,4133,QLD,(07) 3734 0840,17.31,,,"{'mondayOpen': '09:00', 'mondayClose': '19:00', 'tuesdayOpen': '09:00', 'tuesdayClose': '19:00', 'wednesdayOpen': '09:00', 'wednesdayClose': '19:00', 'thursdayOpen': '09:00', 'thursdayClose': '20:00', 'fridayOpen': '09:00', 'fridayClose': '20:00', 'saturdayOpen': '09:00', 'saturdayClose': '20:00', 'sundayOpen': '09:00', 'sundayClose': '18:00'}","{'storeManager': 'CALEB KJAERGAARD', 'areaRegion': 'QNS6', 'areaRegionMgr': 'Ian Haines', 'regionZone': 'QNS', 'regionZoneMgr': 'Adam Hill'}",[],True,,,True,True
34256074,3,6004,-27.403211,153.031153,Kedron,346-366 Gympie Road,Kedron,4031,QLD,(07) 3069 1580,16.426,,,"{'mondayOpen': '09:00', 'mondayClose': '21:00', 'tuesdayOpen': '09:00', 'tuesdayClose': '21:00', 'wednesdayOpen': '09:00', 'wednesdayClose': '21:00', 'thursdayOpen': '09:00', 'thursdayClose': '21:00', 'fridayOpen': '09:00', 'fridayClose': '21:00', 'saturdayOpen': '09:00', 'saturdayClose': '21:00', 'sundayOpen': '09:00', 'sundayClose': '18:00'}","{'storeManager': 'JOCK HADJION', 'areaRegion': 'QLD2CB', 'areaRegionMgr': 'Kellianne Doyle', 'regionZone': 'QLD', 'regionZoneMgr': 'Mat Davey'}",[],True,,,True,True
34256299,3,6324,-27.40879,152.979984,Brookside,Osborne Road,Mitchelton,4053,QLD,(07) 3513 9280,18.594,,,"{'mondayOpen': '09:00', 'mondayClose': '21:00', 'tuesdayOpen': '09:00', 'tuesdayClose': '21:00', 'wednesdayOpen': '09:00', 'wednesdayClose': '21:00', 'thursdayOpen': '09:00', 'thursdayClose': '21:00', 'fridayOpen': '09:00', 'fridayClose': '21:00', 'saturdayOpen': '09:00', 'saturdayClose': '20:00', 'sundayOpen': '09:00', 'sundayClose': '18:00'}","{'storeManager': 'TORY BUTEUX', 'areaRegion': 'QLD2CB', 'areaRegionMgr': 'Kellianne Doyle', 'regionZone': 'QLD', 'regionZoneMgr': 'Mat Davey'}",[],True,,,True,True
34256182,3,8642,-27.693008,153.143167,Fitzys Waterford,24-34 Albert Street,Waterford,4133,QLD,(07) 3726 9672,17.867,,,"{'mondayOpen': '10:00', 'mondayClose': '20:00', 'tuesdayOpen': '10:00', 'tuesdayClose': '20:00', 'wednesdayOpen': '10:00', 'wednesdayClose': '20:00', 'thursdayOpen': '10:00', 'thursdayClose': '21:00', 'fridayOpen': '10:00', 'fridayClose': '22:00', 'saturdayOpen': '10:00', 'saturdayClose': '22:00', 'sundayOpen': '10:00', 'sundayClose': '19:00'}","{'storeManager': 'PETER FULLER', 'areaRegion': 'QNS6', 'areaRegionMgr': 'Ian Haines', 'regionZone': 'QNS', 'regionZoneMgr': 'Adam Hill'}",[],True,,,True,True
34256406,3,6535,-27.646412,152.87173,Redbank Plains,393 Redbank Plains Road,Redbank Plains,4301,QLD,(07) 3201 9380,16.929,,,"{'mondayOpen': '09:00', 'mondayClose': '19:00', 'tuesdayOpen': '09:00', 'tuesdayClose': '19:00', 'wednesdayOpen': '09:00', 'wednesdayClose': '19:00', 'thursdayOpen': '09:00', 'thursdayClose': '20:00', 'fridayOpen': '09:00', 'fridayClose': '20:00', 'saturdayOpen': '09:00', 'saturdayClose': '20:00', 'sundayOpen': '09:00', 'sundayClose': '18:00'}","{'storeManager': 'CINDY LARCOMBE', 'areaRegion': 'QLD8', 'areaRegionMgr': 'Konrad Kolmet (Secondment)', 'regionZone': 'QLD', 'regionZoneMgr': 'Mat Davey'}",[],True,,,True,True
34256308,3,6478,-27.676598,152.902948,Springfield Orion,1 Main Street,Springfield Central,4300,QLD,(07) 3470 3180,19.36,,,"{'mondayOpen': '09:00', 'mondayClose': '20:00', 'tuesdayOpen': '09:00', 'tuesdayClose': '20:00', 'wednesdayOpen': '09:00', 'wednesdayClose': '20:00', 'thursdayOpen': '09:00', 'thursdayClose': '21:00', 'fridayOpen': '09:00', 'fridayClose': '21:00', 'saturdayOpen': '09:00', 'saturdayClose': '21:00', 'sundayOpen': '09:00', 'sundayClose': '18:00'}","{'storeManager': 'JESSICA BUCKINGHAM', 'areaRegion': 'QLD8', 'areaRegionMgr': 'Konrad Kolmet (Secondment)', 'regionZone': 'QLD', 'regionZoneMgr': 'Mat Davey'}",[],True,,,True,True
34256011,3,8375,-27.39519,152.997682,Everton Park Hotel Barn,101 Flockton Street,Everton Park,4053,QLD,(07) 3726 9626,16.568,,,"{'mondayOpen': '10:00', 'mondayClose': '20:00', 'tuesdayOpen': '10:00', 'tuesdayClose': '20:00', 'wednesdayOpen': '10:00', 'wednesdayClose': '20:00', 'thursdayOpen': '10:00', 'thursdayClose': '21:00', 'fridayOpen': '10:00', 'fridayClose': '21:00', 'saturdayOpen': '10:00', 'saturdayClose': '21:00', 'sundayOpen': '10:00', 'sundayClose': '19:00'}","{'storeManager': 'ANTHONY SOMMERS', 'areaRegion': 'QLD2CB', 'areaRegionMgr': 'Kellianne Doyle', 'regionZone': 'QLD', 'regionZoneMgr': 'Mat Davey'}",[],True,,,True,True
34256295,3,6294,-27.389259,153.049179,Wavell Heights,159-167 Hamilton Road,Wavell Heights,4012,QLD,(07) 3734 0850,14.572,,,"{'mondayOpen': '10:00', 'mondayClose': '20:00', 'tuesdayOpen': '10:00', 'tuesdayClose': '20:00', 'wednesdayOpen': '10:00', 'wednesdayClose': '20:00', 'thursdayOpen': '10:00', 'thursdayClose': '21:00', 'fridayOpen': '10:00', 'fridayClose': '21:00', 'saturdayOpen': '10:00', 'saturdayClose': '21:00', 'sundayOpen': '10:00', 'sundayClose': '20:00'}","{'storeManager': 'IVAYLO NEDYALKOV', 'areaRegion': 'QLD2CB', 'areaRegionMgr': 'Kellianne Doyle', 'regionZone': 'QLD', 'regionZoneMgr': 'Mat Davey'}",[],True,,,True,True
34256180,3,8640,-27.690339,153.177928,Clarks Rd Liquor King,2-8 Ascot Drive,Loganholme,4129,QLD,(07) 3734 0873,12.594,,,"{'mondayOpen': '10:00', 'mondayClose': '20:00', 'tuesdayOpen': '10:00', 'tuesdayClose': '20:00', 'wednesdayOpen': '10:00', 'wednesdayClose': '20:00', 'thursdayOpen': '10:00', 'thursdayClose': '20:00', 'fridayOpen': '10:00', 'fridayClose': '21:00', 'saturdayOpen': '10:00', 'saturdayClose': '20:00', 'sundayOpen': '10:00', 'sundayClose': '19:00'}","{'storeManager': 'MICHAEL HALL', 'areaRegion': 'QNS6', 'areaRegionMgr': 'Ian Haines', 'regionZone': 'QNS', 'regionZoneMgr': 'Adam Hill'}",[],True,,,True,True
34256183,3,8643,-27.700065,153.168514,Edens Landing Liquor King,127 Castille Crescent,Edens Landing,4207,QLD,(07) 3734 0875,12.436,,,"{'mondayOpen': '11:00', 'mondayClose': '19:00', 'tuesdayOpen': '11:00', 'tuesdayClose': '19:00', 'wednesdayOpen': '11:00', 'wednesdayClose': '19:00', 'thursdayOpen': '11:00', 'thursdayClose': '19:00', 'fridayOpen': '11:00', 'fridayClose': '20:00', 'saturdayOpen': '11:00', 'saturdayClose': '20:00', 'sundayOpen': '11:00', 'sundayClose': '19:00'}","{'storeManager': 'MATTHEW KNIGHT', 'areaRegion': 'QNS6', 'areaRegionMgr': 'Ian Haines', 'regionZone': 'QNS', 'regionZoneMgr': 'Adam Hill'}",[],True,,,True,True
34255948,3,8368,-27.526484,153.268425,Cleveland Sands Bottleshop,82-100 Middle Street,Cleveland,4163,QLD,(07) 3734 0870,15.637,,,"{'mondayOpen': '09:00', 'mondayClose': '19:00', 'tuesdayOpen': '09:00', 'tuesdayClose': '19:00', 'wednesdayOpen': '09:00', 'wednesdayClose': '19:00', 'thursdayOpen': '09:00', 'thursdayClose': '19:00', 'fridayOpen': '09:00', 'fridayClose': '20:00', 'saturdayOpen': '09:00', 'saturdayClose': '20:00', 'sundayOpen': '09:00', 'sundayClose': '18:00'}","{'storeManager': 'PHILLIP JOHNSON', 'areaRegion': 'QNS7', 'areaRegionMgr': 'Ben Harris', 'regionZone': 'QNS', 'regionZoneMgr': 'Adam Hill'}",[],True,,,True,True
34255949,3,8369,-27.526484,153.268425,Cleveland Harbourside Bottleshop,82-100 Middle Street,Cleveland,4163,QLD,(07) 3734 0871,15.637,,,"{'mondayOpen': '09:00', 'mondayClose': '19:00', 'tuesdayOpen': '09:00', 'tuesdayClose': '19:00', 'wednesdayOpen': '09:00', 'wednesdayClose': '19:00', 'thursdayOpen': '09:00', 'thursdayClose': '19:00', 'fridayOpen': '09:00', 'fridayClose': '20:00', 'saturdayOpen': '09:00', 'saturdayClose': '20:00', 'sundayOpen': '09:00', 'sundayClose': '18:00'}","{'storeManager': 'ROWENA MCCULLOCH', 'areaRegion': 'QNS7', 'areaRegionMgr': 'Ben Harris', 'regionZone': 'QNS', 'regionZoneMgr': 'Adam Hill'}",[],True,,,True,True
34256238,3,6204,-27.951385,153.408099,Labrador,36 Frank Street,Labrador,4215,QLD,(07) 3734 0847,3.64,,,"{'mondayOpen': '09:00', 'mondayClose': '20:00', 'tuesdayOpen': '09:00', 'tuesdayClose': '20:00', 'wednesdayOpen': '09:00', 'wednesdayClose': '20:00', 'thursdayOpen': '09:00', 'thursdayClose': '20:00', 'fridayOpen': '09:00', 'fridayClose': '21:00', 'saturdayOpen': '09:00', 'saturdayClose': '21:00', 'sundayOpen': '09:00', 'sundayClose': '20:00'}","{'storeManager': '', 'areaRegion': 'QNS5', 'areaRegionMgr': 'Luke Pope (Secondment)', 'regionZone': 'QNS', 'regionZoneMgr': 'Adam Hill'}",[],True,,,True,True
34256162,3,6098,-27.968892,153.415689,Australia Fair,42 Marine Parade,Southport,4215,QLD,(07) 5668 4980,18.918,,,"{'mondayOpen': '09:00', 'mondayClose': '19:00', 'tuesdayOpen': '09:00', 'tuesdayClose': '19:00', 'wednesdayOpen': '09:00', 'wednesdayClose': '19:00', 'thursdayOpen': '09:00', 'thursdayClose': '20:00', 'fridayOpen': '09:00', 'fridayClose': '21:00', 'saturdayOpen': '09:00', 'saturdayClose': '21:00', 'sundayOpen': '09:00', 'sundayClose': '19:00'}","{'storeManager': 'BLAKE CHAPMAN', 'areaRegion': 'QNS5', 'areaRegionMgr': 'Luke Pope (Secondment)', 'regionZone': 'QNS', 'regionZoneMgr': 'Adam Hill'}",[],True,,,True,True
34256421,3,6608,-27.977818,153.380717,Ashmore,Corner Nerang-Southport Road And Currumburra Road,Ashmore,4214,QLD,(07) 3726 9689,18.913,,,"{'mondayOpen': '09:00', 'mondayClose': '19:00', 'tuesdayOpen': '09:00', 'tuesdayClose': '19:00', 'wednesdayOpen': '09:00', 'wednesdayClose': '19:00', 'thursdayOpen': '09:00', 'thursdayClose': '19:00', 'fridayOpen': '09:00', 'fridayClose': '21:00', 'saturdayOpen': '09:00', 'saturdayClose': '18:00', 'sundayOpen': '10:00', 'sundayClose': '18:00'}","{'storeManager': '', 'areaRegion': 'QNS5', 'areaRegionMgr': 'Luke Pope (Secondment)', 'regionZone': 'QNS', 'regionZoneMgr': 'Adam Hill'}",[],True,,,True,True
34256405,3,6534,-27.979797,153.425049,Main Beach,26-30 Tedder Avenue,Main Beach,4217,QLD,(07) 3726 9688,17.559,,,"{'mondayOpen': '10:00', 'mondayClose': '20:00', 'tuesdayOpen': '10:00', 'tuesdayClose': '20:00', 'wednesdayOpen': '10:00', 'wednesdayClose': '20:00', 'thursdayOpen': '10:00', 'thursdayClose': '20:00', 'fridayOpen': '10:00', 'fridayClose': '21:00', 'saturdayOpen': '10:00', 'saturdayClose': '21:00', 'sundayOpen': '10:00', 'sundayClose': '20:00'}","{'storeManager': 'PHILIP UNDERWOOD', 'areaRegion': 'QNS5', 'areaRegionMgr': 'Luke Pope (Secondment)', 'regionZone': 'QNS', 'regionZoneMgr': 'Adam Hill'}",[],True,,,True,True
34256075,3,6007,-27.985491,153.410135,Southport Park,Cnr Ferry And Benowa Road,Southport,4215,QLD,(07) 5635 5280,17.258,,,"{'mondayOpen': '09:00', 'mondayClose': '20:00', 'tuesdayOpen': '09:00', 'tuesdayClose': '20:00', 'wednesdayOpen': '09:00', 'wednesdayClose': '20:00', 'thursdayOpen': '09:00', 'thursdayClose': '21:00', 'fridayOpen': '09:00', 'fridayClose': '21:00', 'saturdayOpen': '09:00', 'saturdayClose': '21:00', 'sundayOpen': '10:00', 'sundayClose': '18:00'}","{'storeManager': 'DANA LALICH', 'areaRegion': 'QNS5', 'areaRegionMgr': 'Luke Pope (Secondment)', 'regionZone': 'QNS', 'regionZoneMgr': 'Adam Hill'}",[],True,,,True,True
34256237,3,6203,-27.899853,153.385617,Coombabah,21 Hansford Road,Coombabah,4216,QLD,(07) 3734 0846,8.484,,,"{'mondayOpen': '10:00', 'mondayClose': '19:00', 'tuesdayOpen': '10:00', 'tuesdayClose': '19:00', 'wednesdayOpen': '10:00', 'wednesdayClose': '19:00', 'thursdayOpen': '10:00', 'thursdayClose': '20:00', 'fridayOpen': '10:00', 'fridayClose': '20:00', 'saturdayOpen': '10:00', 'saturdayClose': '20:00', 'sundayOpen': '10:00', 'sundayClose': '19:00'}","{'storeManager': 'TINA WILSON', 'areaRegion': 'QNS5', 'areaRegionMgr': 'Luke Pope (Secondment)', 'regionZone': 'QNS', 'regionZoneMgr': 'Adam Hill'}",[],True,,,True,True
34256301,3,6461,-27.99962,153.37724,Benowa Village,Corner Ross Street And Ashmore Road,Ashmore,4217,QLD,(07) 5510 7580,16.844,,,"{'mondayOpen': '09:00', 'mondayClose': '20:00', 'tuesdayOpen': '09:00', 'tuesdayClose': '20:00', 'wednesdayOpen': '09:00', 'wednesdayClose': '20:00', 'thursdayOpen': '09:00', 'thursdayClose': '21:00', 'fridayOpen': '09:00', 'fridayClose': '21:00', 'saturdayOpen': '09:00', 'saturdayClose': '21:00', 'sundayOpen': '09:00', 'sundayClose': '19:00'}","{'storeManager': 'BRADLEY OWEN', 'areaRegion': 'QNS5', 'areaRegionMgr': 'Luke Pope (Secondment)', 'regionZone': 'QNS', 'regionZoneMgr': 'Adam Hill'}",[],True,,,True,True
34256252,3,8688,-27.999577,153.427829,Surfers Paradise Express,3240 Gold Coast Highway,Surfers Paradise,4217,QLD,(07) 3734 0837,15.359,,,"{'mondayOpen': '10:00', 'mondayClose': '22:00', 'tuesdayOpen': '10:00', 'tuesdayClose': '22:00', 'wednesdayOpen': '10:00', 'wednesdayClose': '22:00', 'thursdayOpen': '10:00', 'thursdayClose': '22:00', 'fridayOpen': '10:00', 'fridayClose': '22:00', 'saturdayOpen': '10:00', 'saturdayClose': '22:00', 'sundayOpen': '10:00', 'sundayClose': '21:00'}","{'storeManager': '', 'areaRegion': 'QNS5', 'areaRegionMgr': 'Luke Pope (Secondment)', 'regionZone': 'QNS', 'regionZoneMgr': 'Adam Hill'}",[],True,,,True,True
34256414,3,6544,-27.925676,153.323704,Pacific Pines,2 Universal Street,Pacific Pines,4211,QLD,(07) 3726 9696,7.376,,,"{'mondayOpen': '10:00', 'mondayClose': '19:00', 'tuesdayOpen': '10:00', 'tuesdayClose': '19:00', 'wednesdayOpen': '10:00', 'wednesdayClose': '19:00', 'thursdayOpen': '10:00', 'thursdayClose': '20:00', 'fridayOpen': '10:00', 'fridayClose': '21:00', 'saturdayOpen': '10:00', 'saturdayClose': '21:00', 'sundayOpen': '10:00', 'sundayClose': '19:00'}","{'storeManager': 'PAUL RANISAV', 'areaRegion': 'QNS5', 'areaRegionMgr': 'Luke Pope (Secondment)', 'regionZone': 'QNS', 'regionZoneMgr': 'Adam Hill'}",[],True,,,True,True
34256420,3,6599,-27.998022,153.338097,Nerang,57 Station Street,Nerang,4211,QLD,(07) 3734 0802,18.754,,,"{'mondayOpen': '09:00', 'mondayClose': '20:00', 'tuesdayOpen': '09:00', 'tuesdayClose': '20:00', 'wednesdayOpen': '09:00', 'wednesdayClose': '20:00', 'thursdayOpen': '09:00', 'thursdayClose': '20:00', 'fridayOpen': '09:00', 'fridayClose': '21:00', 'saturdayOpen': '09:00', 'saturdayClose': '19:00', 'sundayOpen': '09:00', 'sundayClose': '18:00'}","{'storeManager': 'VICTORIA CAMERON', 'areaRegion': 'QNS5', 'areaRegionMgr': 'Luke Pope (Secondment)', 'regionZone': 'QNS', 'regionZoneMgr': 'Adam Hill'}",[],True,,,True,True
34256073,3,6003,-27.92507,153.306145,Pacific Pines (pitcairn Way),Corner Binstead Way And Pitcairn Way,Pacific Pines,4211,QLD,(07) 5644 1380,8.473,,,"{'mondayOpen': '09:00', 'mondayClose': '21:00', 'tuesdayOpen': '09:00', 'tuesdayClose': '21:00', 'wednesdayOpen': '09:00', 'wednesdayClose': '21:00', 'thursdayOpen': '09:00', 'thursdayClose': '21:00', 'fridayOpen': '09:00', 'fridayClose': '21:00', 'saturdayOpen': '09:00', 'saturdayClose': '21:00', 'sundayOpen': '09:00', 'sundayClose': '19:00'}","{'storeManager': 'CHRISTOPHER COE', 'areaRegion': 'QNS5', 'areaRegionMgr': 'Luke Pope (Secondment)', 'regionZone': 'QNS', 'regionZoneMgr': 'Adam Hill'}",[],True,,,True,True
34256415,3,6545,-27.878507,153.36488,Hope Island,87-97 Broadwater Avenue,Hope Island,4212,QLD,(07) 3726 9619,10.921,,,"{'mondayOpen': '10:00', 'mondayClose': '20:00', 'tuesdayOpen': '10:00', 'tuesdayClose': '20:00', 'wednesdayOpen': '10:00', 'wednesdayClose': '20:00', 'thursdayOpen': '10:00', 'thursdayClose': '20:00', 'fridayOpen': '10:00', 'fridayClose': '21:00', 'saturdayOpen': '10:00', 'saturdayClose': '21:00', 'sundayOpen': '10:00', 'sundayClose': '19:00'}","{'storeManager': 'COREY GODWIN', 'areaRegion': 'QNS5', 'areaRegionMgr': 'Luke Pope (Secondment)', 'regionZone': 'QNS', 'regionZoneMgr': 'Adam Hill'}",[],True,,,True,True
34255951,3,8373,-27.913858,153.282881,Coomera Lodge Bottleshop,160 Maudsland Road,Upper Coomera,4209,QLD,(07) 3726 9625,10.79,,,"{'mondayOpen': '10:00', 'mondayClose': '19:00', 'tuesdayOpen': '10:00', 'tuesdayClose': '19:00', 'wednesdayOpen': '10:00', 'wednesdayClose': '20:00', 'thursdayOpen': '10:00', 'thursdayClose': '20:00', 'fridayOpen': '10:00', 'fridayClose': '21:00', 'saturdayOpen': '10:00', 'saturdayClose': '20:00', 'sundayOpen': '10:00', 'sundayClose': '19:00'}","{'storeManager': 'AMEIKA WATSON', 'areaRegion': 'QNS5', 'areaRegionMgr': 'Luke Pope (Secondment)', 'regionZone': 'QNS', 'regionZoneMgr': 'Adam Hill'}",[],True,,,True,True
34256304,3,6469,-28.036258,153.427416,Pacific Fair,Hooker Boulevard,Broadbeach,4218,QLD,(07) 5504 3480,11.428,,,"{'mondayOpen': '09:00', 'mondayClose': '22:00', 'tuesdayOpen': '09:00', 'tuesdayClose': '22:00', 'wednesdayOpen': '09:00', 'wednesdayClose': '22:00', 'thursdayOpen': '09:00', 'thursdayClose': '22:00', 'fridayOpen': '09:00', 'fridayClose': '22:00', 'saturdayOpen': '09:00', 'saturdayClose': '22:00', 'sundayOpen': '09:00', 'sundayClose': '20:00'}","{'storeManager': 'JOANNE ELVERS', 'areaRegion': 'QNS5', 'areaRegionMgr': 'Luke Pope (Secondment)', 'regionZone': 'QNS', 'regionZoneMgr': 'Adam Hill'}",[],True,,,True,True
34256166,3,6103,-28.039866,153.43378,Mermaid Beach Cellar,2547 Gold Coast Highway,Mermaid Beach,4218,QLD,(07) 3734 0839,10.889,,,"{'mondayOpen': '10:00', 'mondayClose': '20:00', 'tuesdayOpen': '10:00', 'tuesdayClose': '20:00', 'wednesdayOpen': '10:00', 'wednesdayClose': '20:00', 'thursdayOpen': '10:00', 'thursdayClose': '21:00', 'fridayOpen': '10:00', 'fridayClose': '22:00', 'saturdayOpen': '10:00', 'saturdayClose': '22:00', 'sundayOpen': '10:00', 'sundayClose': '20:00'}","{'storeManager': 'LISA HEARN', 'areaRegion': 'QNS5', 'areaRegionMgr': 'Luke Pope (Secondment)', 'regionZone': 'QNS', 'regionZoneMgr': 'Adam Hill'}",[],True,,,True,True
34256243,3,6242,-28.045893,153.408209,Mermaid Waters,Corner Bermuda Street And Markeri Street,Mermaid Waters,4218,QLD,(07) 3726 9680,11.06,,,"{'mondayOpen': '09:00', 'mondayClose': '20:00', 'tuesdayOpen': '09:00', 'tuesdayClose': '20:00', 'wednesdayOpen': '09:00', 'wednesdayClose': '20:00', 'thursdayOpen': '09:00', 'thursdayClose': '21:00', 'fridayOpen': '09:00', 'fridayClose': '21:00', 'saturdayOpen': '09:00', 'saturdayClose': '20:00', 'sundayOpen': '09:00', 'sundayClose': '19:00'}","{'storeManager': ""JAKE O'NEILL"", 'areaRegion': 'QNS5', 'areaRegionMgr': 'Luke Pope (Secondment)', 'regionZone': 'QNS', 'regionZoneMgr': 'Adam Hill'}",[],True,,,True,True
34256076,3,6008,-27.8536,153.315,Coomera Town Centre,73 Foxwell Road,Coomera,4209,QLD,(07) 5605 8780,14.7,,,"{'mondayOpen': '09:00', 'mondayClose': '19:00', 'tuesdayOpen': '09:00', 'tuesdayClose': '19:00', 'wednesdayOpen': '09:00', 'wednesdayClose': '20:00', 'thursdayOpen': '09:00', 'thursdayClose': '21:00', 'fridayOpen': '09:00', 'fridayClose': '21:00', 'saturdayOpen': '09:00', 'saturdayClose': '21:00', 'sundayOpen': '10:00', 'sundayClose': '18:00'}","{'storeManager': 'ALEXANDRE BRENNAN', 'areaRegion': 'QNS5', 'areaRegionMgr': 'Luke Pope (Secondment)', 'regionZone': 'QNS', 'regionZoneMgr': 'Adam Hill'}",[],True,,,True,True
34256297,3,6310,-27.851378,153.300593,Coomera City Centre,Old Coach Road And City Centre Drive,Upper Coomera,4209,QLD,(07) 5680 9480,15.427,,,"{'mondayOpen': '09:00', 'mondayClose': '20:00', 'tuesdayOpen': '09:00', 'tuesdayClose': '20:00', 'wednesdayOpen': '09:00', 'wednesdayClose': '20:00', 'thursdayOpen': '09:00', 'thursdayClose': '21:00', 'fridayOpen': '09:00', 'fridayClose': '21:00', 'saturdayOpen': '09:00', 'saturdayClose': '21:00', 'sundayOpen': '09:00', 'sundayClose': '18:00'}","{'storeManager': 'DANIEL WESTROP', 'areaRegion': 'QNS5', 'areaRegionMgr': 'Luke Pope (Secondment)', 'regionZone': 'QNS', 'regionZoneMgr': 'Adam Hill'}",[],True,,,True,True
34256305,3,6471,-28.077092,153.385427,Robina,19 Robina Town Centre Drive,Robina,4226,QLD,(07) 5501 6180,9.468,,,"{'mondayOpen': '09:00', 'mondayClose': '21:00', 'tuesdayOpen': '09:00', 'tuesdayClose': '21:00', 'wednesdayOpen': '09:00', 'wednesdayClose': '21:00', 'thursdayOpen': '09:00', 'thursdayClose': '21:00', 'fridayOpen': '09:00', 'fridayClose': '21:00', 'saturdayOpen': '09:00', 'saturdayClose': '21:00', 'sundayOpen': '09:00', 'sundayClose': '18:00'}","{'storeManager': 'ROBERT LESCHKE', 'areaRegion': 'QNS4', 'areaRegionMgr': 'Graham Parsonson', 'regionZone': 'QNS', 'regionZoneMgr': 'Adam Hill'}",[],True,,,True,True
34256334,3,6653,-28.074096,153.444112,Miami,Corner Gold Coast Avenue And Nundah Avenue,Miami,4220,QLD,(07) 3734 0860,6.987,,,"{'mondayOpen': '09:00', 'mondayClose': '21:00', 'tuesdayOpen': '09:00', 'tuesdayClose': '21:00', 'wednesdayOpen': '09:00', 'wednesdayClose': '21:00', 'thursdayOpen': '09:00', 'thursdayClose': '21:00', 'fridayOpen': '09:00', 'fridayClose': '22:00', 'saturdayOpen': '09:00', 'saturdayClose': '21:00', 'sundayOpen': '09:00', 'sundayClose': '19:00'}","{'storeManager': 'TAYLOR ROGERS', 'areaRegion': 'QNS4', 'areaRegionMgr': 'Graham Parsonson', 'regionZone': 'QNS', 'regionZoneMgr': 'Adam Hill'}",[],True,,,True,True
34256351,3,6694,-28.099391,153.425047,Treetops Plaza,3 Classic Way,Burleigh Waters,4220,QLD,(07) 3726 9685,5.317,,,"{'mondayOpen': '09:00', 'mondayClose': '20:00', 'tuesdayOpen': '09:00', 'tuesdayClose': '20:00', 'wednesdayOpen': '09:00', 'wednesdayClose': '20:00', 'thursdayOpen': '09:00', 'thursdayClose': '20:00', 'fridayOpen': '09:00', 'fridayClose': '20:00', 'saturdayOpen': '09:00', 'saturdayClose': '20:00', 'sundayOpen': '09:00', 'sundayClose': '18:00'}","{'storeManager': 'PAUL HEATHCOTE', 'areaRegion': 'QNS4', 'areaRegionMgr': 'Graham Parsonson', 'regionZone': 'QNS', 'regionZoneMgr': 'Adam Hill'}",[],True,,,True,True
34256165,3,6102,-28.098185,153.441791,West Burleigh Cellar,Reedy Creek Road,West Burleigh,4219,QLD,(07) 3734 0838,4.58,,,"{'mondayOpen': '09:00', 'mondayClose': '20:00', 'tuesdayOpen': '09:00', 'tuesdayClose': '20:00', 'wednesdayOpen': '09:00', 'wednesdayClose': '20:00', 'thursdayOpen': '09:00', 'thursdayClose': '20:00', 'fridayOpen': '09:00', 'fridayClose': '20:00', 'saturdayOpen': '09:00', 'saturdayClose': '19:00', 'sundayOpen': '09:00', 'sundayClose': '18:00'}","{'storeManager': 'JESSICA REYNOLDS', 'areaRegion': 'QNS4', 'areaRegionMgr': 'Graham Parsonson', 'regionZone': 'QNS', 'regionZoneMgr': 'Adam Hill'}",[],True,,,True,True
34256164,3,6101,-28.11117,153.440508,Burleigh Barn,Corner Tsipura Drive And Township Drive,West Burleigh,4219,QLD,(07) 3726 9612,3.46,,,"{'mondayOpen': '10:00', 'mondayClose': '20:00', 'tuesdayOpen': '10:00', 'tuesdayClose': '20:00', 'wednesdayOpen': '10:00', 'wednesdayClose': '20:00', 'thursdayOpen': '10:00', 'thursdayClose': '20:00', 'fridayOpen': '10:00', 'fridayClose': '21:00', 'saturdayOpen': '10:00', 'saturdayClose': '21:00', 'sundayOpen': '10:00', 'sundayClose': '19:00'}","{'storeManager': 'MARK OCONNOR', 'areaRegion': 'QNS4', 'areaRegionMgr': 'Graham Parsonson', 'regionZone': 'QNS', 'regionZoneMgr': 'Adam Hill'}",[],True,,,True,True
34256072,3,6002,-27.718445,153.202353,Beenleigh,19 Tansey Street,Beenleigh,4207,QLD,(07) 3726 9698,15.97,,,"{'mondayOpen': '09:00', 'mondayClose': '20:00', 'tuesdayOpen': '09:00', 'tuesdayClose': '20:00', 'wednesdayOpen': '09:00', 'wednesdayClose': '20:00', 'thursdayOpen': '09:00', 'thursdayClose': '20:00', 'fridayOpen': '09:00', 'fridayClose': '21:00', 'saturdayOpen': '09:00', 'saturdayClose': '20:00', 'sundayOpen': '09:00', 'sundayClose': '18:00'}","{'storeManager': 'SAMANTHA BILLIAU', 'areaRegion': 'QNS6', 'areaRegionMgr': 'Ian Haines', 'regionZone': 'QNS', 'regionZoneMgr': 'Adam Hill'}",[],True,,,True,True
34256253,3,8693,-27.722904,153.219827,Beenleigh Tav Liquor,114 Distillery Road,Beenleigh,4207,QLD,(07) 3726 9653,17.492,,,"{'mondayOpen': '11:00', 'mondayClose': '19:00', 'tuesdayOpen': '11:00', 'tuesdayClose': '19:00', 'wednesdayOpen': '11:00', 'wednesdayClose': '19:00', 'thursdayOpen': '11:00', 'thursdayClose': '19:00', 'fridayOpen': '10:00', 'fridayClose': '20:00', 'saturdayOpen': '10:00', 'saturdayClose': '20:00', 'sundayOpen': '10:00', 'sundayClose': '18:00'}","{'storeManager': 'CANDICE WHAITIRI', 'areaRegion': 'QNS6', 'areaRegionMgr': 'Ian Haines', 'regionZone': 'QNS', 'regionZoneMgr': 'Adam Hill'}",[],True,,,True,True
34256249,3,8674,-27.740514,153.191414,Windaroo,Corner Carl Heck Boulevarde And Beenleigh-Beaudesert Road,Windaroo,4207,QLD,(07) 3726 9682,16.742,,,"{'mondayOpen': '11:00', 'mondayClose': '19:00', 'tuesdayOpen': '11:00', 'tuesdayClose': '19:00', 'wednesdayOpen': '11:00', 'wednesdayClose': '19:00', 'thursdayOpen': '10:00', 'thursdayClose': '19:00', 'fridayOpen': '10:00', 'fridayClose': '20:00', 'saturdayOpen': '10:00', 'saturdayClose': '20:00', 'sundayOpen': '10:00', 'sundayClose': '19:00'}","{'storeManager': 'KARLIE BARLOW', 'areaRegion': 'QNS6', 'areaRegionMgr': 'Ian Haines', 'regionZone': 'QNS', 'regionZoneMgr': 'Adam Hill'}",[],True,,,True,True
34255943,3,8341,-27.586991,153.280756,Victoria Point,Corner Cleveland-Redland Bay Road And Bunker Road,Victoria Point,4165,QLD,(07) 3734 0869,18.414,,,"{'mondayOpen': '09:00', 'mondayClose': '18:00', 'tuesdayOpen': '09:00', 'tuesdayClose': '18:00', 'wednesdayOpen': '09:00', 'wednesdayClose': '18:00', 'thursdayOpen': '09:00', 'thursdayClose': '21:00', 'fridayOpen': '09:00', 'fridayClose': '19:00', 'saturdayOpen': '09:00', 'saturdayClose': '19:00', 'sundayOpen': '09:00', 'sundayClose': '18:00'}","{'storeManager': 'TIMOTHY LITTLE', 'areaRegion': 'QNS7', 'areaRegionMgr': 'Ben Harris', 'regionZone': 'QNS', 'regionZoneMgr': 'Adam Hill'}",[],True,,,True,True
34256250,3,8675,-27.763766,153.24454,Ormeau,180 Pascoe Road,Ormeau,4208,QLD,(07) 3726 9694,1.658,,,"{'mondayOpen': '10:00', 'mondayClose': '19:00', 'tuesdayOpen': '10:00', 'tuesdayClose': '19:00', 'wednesdayOpen': '10:00', 'wednesdayClose': '19:00', 'thursdayOpen': '10:00', 'thursdayClose': '20:00', 'fridayOpen': '10:00', 'fridayClose': '20:00', 'saturdayOpen': '10:00', 'saturdayClose': '20:00', 'sundayOpen': '10:00', 'sundayClose': '19:00'}","{'storeManager': 'PETER CASHIN', 'areaRegion': 'QNS6', 'areaRegionMgr': 'Ian Haines', 'regionZone': 'QNS', 'regionZoneMgr': 'Adam Hill'}",[],True,,,True,True
34256298,3,6323,-27.784265,153.262239,Ormeau Village,40 Eggersdorf Road,Ormeau,4208,QLD,(07) 5645 1280,4.345,,,"{'mondayOpen': '09:00', 'mondayClose': '20:00', 'tuesdayOpen': '09:00', 'tuesdayClose': '20:00', 'wednesdayOpen': '09:00', 'wednesdayClose': '20:00', 'thursdayOpen': '09:00', 'thursdayClose': '21:00', 'fridayOpen': '09:00', 'fridayClose': '21:00', 'saturdayOpen': '09:00', 'saturdayClose': '20:00', 'sundayOpen': '09:00', 'sundayClose': '18:00'}","{'storeManager': 'HITESH NAYYAR', 'areaRegion': 'QNS6', 'areaRegionMgr': 'Ian Haines', 'regionZone': 'QNS', 'regionZoneMgr': 'Adam Hill'}",[],True,,,True,True
34256310,3,6483,-27.570625,152.793671,Karalee,29-51 Cnr Junctoin And Essex Street,Karalee,4306,QLD,(07) 3413 2580,15.038,,,"{'mondayOpen': '09:00', 'mondayClose': '21:00', 'tuesdayOpen': '09:00', 'tuesdayClose': '21:00', 'wednesdayOpen': '09:00', 'wednesdayClose': '21:00', 'thursdayOpen': '09:00', 'thursdayClose': '21:00', 'fridayOpen': '09:00', 'fridayClose': '21:00', 'saturdayOpen': '09:00', 'saturdayClose': '21:00', 'sundayOpen': '09:00', 'sundayClose': '19:00'}","{'storeManager': 'GLENN BENECKE', 'areaRegion': 'QLD8', 'areaRegionMgr': 'Konrad Kolmet (Secondment)', 'regionZone': 'QLD', 'regionZoneMgr': 'Mat Davey'}",[],True,,,True,True
34256302,3,6464,-27.620616,152.779784,Silkstone Village,Corner Blackstone Road And Grange Road,Silkstone,4304,QLD,(07) 3069 5680,19.225,,,"{'mondayOpen': '09:00', 'mondayClose': '19:00', 'tuesdayOpen': '09:00', 'tuesdayClose': '19:00', 'wednesdayOpen': '09:00', 'wednesdayClose': '20:00', 'thursdayOpen': '09:00', 'thursdayClose': '20:00', 'fridayOpen': '09:00', 'fridayClose': '21:00', 'saturdayOpen': '09:00', 'saturdayClose': '21:00', 'sundayOpen': '09:00', 'sundayClose': '18:00'}","{'storeManager': 'TIFFANY DAVIES', 'areaRegion': 'QLD8', 'areaRegionMgr': 'Konrad Kolmet (Secondment)', 'regionZone': 'QLD', 'regionZoneMgr': 'Mat Davey'}",[],True,,,True,True
34256317,3,6618,-27.615484,152.76184,Ipswich,Corner Gorden Street And Limestone Street,Ipswich,4305,QLD,(07) 3810 0180,17.343,,,"{'mondayOpen': '09:00', 'mondayClose': '21:00', 'tuesdayOpen': '09:00', 'tuesdayClose': '21:00', 'wednesdayOpen': '09:00', 'wednesdayClose': '21:00', 'thursdayOpen': '09:00', 'thursdayClose': '21:00', 'fridayOpen': '09:00', 'fridayClose': '21:00', 'saturdayOpen': '09:00', 'saturdayClose': '19:00', 'sundayOpen': '09:00', 'sundayClose': '18:00'}","{'storeManager': ""KYLE O'SHEA"", 'areaRegion': 'QLD8', 'areaRegionMgr': 'Konrad Kolmet (Secondment)', 'regionZone': 'QLD', 'regionZoneMgr': 'Mat Davey'}",[],True,,,True,True
34256294,3,6293,-27.374822,153.077825,Banyo,299 Saint Vincents Road,Banyo,4014,QLD,(07) 3726 9649,12.721,,,"{'mondayOpen': '09:00', 'mondayClose': '20:00', 'tuesdayOpen': '09:00', 'tuesdayClose': '20:00', 'wednesdayOpen': '09:00', 'wednesdayClose': '20:00', 'thursdayOpen': '09:00', 'thursdayClose': '21:00', 'fridayOpen': '09:00', 'fridayClose': '21:00', 'saturdayOpen': '09:00', 'saturdayClose': '21:00', 'sundayOpen': '09:00', 'sundayClose': '20:00'}","{'storeManager': 'KIRSTY HALL', 'areaRegion': 'QLD7', 'areaRegionMgr': 'Kevin Gilbert', 'regionZone': 'QLD', 'regionZoneMgr': 'Mat Davey'}",[],True,,,True,True
34256318,3,6621,-27.36152,153.013022,Aspley,59 Albany Creek,Aspley,4034,QLD,(07) 3726 9602,12.63,,,"{'mondayOpen': '09:00', 'mondayClose': '21:00', 'tuesdayOpen': '09:00', 'tuesdayClose': '21:00', 'wednesdayOpen': '09:00', 'wednesdayClose': '21:00', 'thursdayOpen': '09:00', 'thursdayClose': '21:00', 'fridayOpen': '09:00', 'fridayClose': '21:00', 'saturdayOpen': '09:00', 'saturdayClose': '21:00', 'sundayOpen': '09:00', 'sundayClose': '18:00'}","{'storeManager': 'CHRISTY CRUICKSHANK', 'areaRegion': 'QLD7', 'areaRegionMgr': 'Kevin Gilbert', 'regionZone': 'QLD', 'regionZoneMgr': 'Mat Davey'}",[],True,,,True,True
34256242,3,6231,-27.350507,153.048723,Taigum Barn,217 Beams Road,Taigum,4018,QLD,(07) 3726 9670,10.376,,,"{'mondayOpen': '10:00', 'mondayClose': '20:00', 'tuesdayOpen': '10:00', 'tuesdayClose': '20:00', 'wednesdayOpen': '10:00', 'wednesdayClose': '20:00', 'thursdayOpen': '10:00', 'thursdayClose': '21:00', 'fridayOpen': '10:00', 'fridayClose': '21:00', 'saturdayOpen': '10:00', 'saturdayClose': '21:00', 'sundayOpen': '10:00', 'sundayClose': '20:00'}","{'storeManager': 'DYLAN LITTLE', 'areaRegion': 'QLD7', 'areaRegionMgr': 'Kevin Gilbert', 'regionZone': 'QLD', 'regionZoneMgr': 'Mat Davey'}",[],True,,,True,True
34256403,3,6531,-27.341742,153.042584,Taigum Village,320 Roghan Road,Taigum,4018,QLD,(07) 3624 3080,9.603,,,"{'mondayOpen': '09:00', 'mondayClose': '21:00', 'tuesdayOpen': '09:00', 'tuesdayClose': '21:00', 'wednesdayOpen': '09:00', 'wednesdayClose': '21:00', 'thursdayOpen': '09:00', 'thursdayClose': '21:00', 'fridayOpen': '09:00', 'fridayClose': '21:00', 'saturdayOpen': '09:00', 'saturdayClose': '21:00', 'sundayOpen': '09:00', 'sundayClose': '19:00'}","{'storeManager': 'SAROJ BUDHATHOKI', 'areaRegion': 'QLD7', 'areaRegionMgr': 'Kevin Gilbert', 'regionZone': 'QLD', 'regionZoneMgr': 'Mat Davey'}",[],True,,,True,True
34256012,3,8380,-27.588869,152.740805,Mihi Creek Tavern Barn,26 Fernvale Road,Brassall,4305,QLD,(07) 3726 9627,19.973,,,"{'mondayOpen': '10:00', 'mondayClose': '20:00', 'tuesdayOpen': '10:00', 'tuesdayClose': '20:00', 'wednesdayOpen': '10:00', 'wednesdayClose': '20:00', 'thursdayOpen': '10:00', 'thursdayClose': '21:00', 'fridayOpen': '10:00', 'fridayClose': '21:00', 'saturdayOpen': '10:00', 'saturdayClose': '21:00', 'sundayOpen': '10:00', 'sundayClose': '20:00'}","{'storeManager': 'THOMAS HAYMAN', 'areaRegion': 'QLD8', 'areaRegionMgr': 'Konrad Kolmet (Secondment)', 'regionZone': 'QLD', 'regionZoneMgr': 'Mat Davey'}",[],True,,,True,True
34256167,3,6104,-28.122049,153.473052,Palm Beach,Pavillions On 5th Avenue,Palm Beach,4221,QLD,(07) 5631 1180,1.434,,,"{'mondayOpen': '09:00', 'mondayClose': '20:00', 'tuesdayOpen': '09:00', 'tuesdayClose': '20:00', 'wednesdayOpen': '09:00', 'wednesdayClose': '20:00', 'thursdayOpen': '09:00', 'thursdayClose': '21:00', 'fridayOpen': '09:00', 'fridayClose': '21:00', 'saturdayOpen': '09:00', 'saturdayClose': '21:00', 'sundayOpen': '09:00', 'sundayClose': '20:00'}","{'storeManager': 'TARYN TONKIN', 'areaRegion': 'QNS4', 'areaRegionMgr': 'Graham Parsonson', 'regionZone': 'QNS', 'regionZoneMgr': 'Adam Hill'}",[],True,,,True,True
34256163,3,6099,-28.135445,153.470206,The Pines (elanora),13-31 Guineas Creek Road,Elanora,4221,QLD,(07) 5586 4480,0.252,,,"{'mondayOpen': '09:00', 'mondayClose': '21:00', 'tuesdayOpen': '09:00', 'tuesdayClose': '21:00', 'wednesdayOpen': '09:00', 'wednesdayClose': '21:00', 'thursdayOpen': '09:00', 'thursdayClose': '21:00', 'fridayOpen': '09:00', 'fridayClose': '21:00', 'saturdayOpen': '09:00', 'saturdayClose': '21:00', 'sundayOpen': '09:00', 'sundayClose': '18:00'}","{'storeManager': 'JAKE BISCHOFF', 'areaRegion': 'QNS4', 'areaRegionMgr': 'Graham Parsonson', 'regionZone': 'QNS', 'regionZoneMgr': 'Adam Hill'}",[],True,,,True,True
34256169,3,6117,-28.172356,153.543823,Tweed Heads,Corner Francis Street And Wharf Street,Tweed Heads,2485,NSW,(07) 3726 9679,7.754,,,"{'mondayOpen': '09:00', 'mondayClose': '20:00', 'tuesdayOpen': '09:00', 'tuesdayClose': '20:00', 'wednesdayOpen': '09:00', 'wednesdayClose': '20:00', 'thursdayOpen': '09:00', 'thursdayClose': '20:00', 'fridayOpen': '09:00', 'fridayClose': '21:00', 'saturdayOpen': '09:00', 'saturdayClose': '21:00', 'sundayOpen': '10:00', 'sundayClose': '19:00'}","{'storeManager': 'NATALIE STEWART', 'areaRegion': 'QNS4', 'areaRegionMgr': 'Graham Parsonson', 'regionZone': 'QNS', 'regionZoneMgr': 'Adam Hill'}",[],True,,,True,True
34255944,3,8343,-27.30612,153.063044,Brighton Barn,196 Brighton Terrace,Sandgate,4017,QLD,(07) 3726 9646,5.294,,,"{'mondayOpen': '10:00', 'mondayClose': '20:00', 'tuesdayOpen': '10:00', 'tuesdayClose': '20:00', 'wednesdayOpen': '10:00', 'wednesdayClose': '20:00', 'thursdayOpen': '10:00', 'thursdayClose': '21:00', 'fridayOpen': '10:00', 'fridayClose': '21:00', 'saturdayOpen': '10:00', 'saturdayClose': '21:00', 'sundayOpen': '10:00', 'sundayClose': '20:00'}","{'storeManager': 'STEVEN HOBBS', 'areaRegion': 'QLD7', 'areaRegionMgr': 'Kevin Gilbert', 'regionZone': 'QLD', 'regionZoneMgr': 'Mat Davey'}",[],True,,,True,True
34255945,3,8362,-27.323075,153.010091,Bonny View Tavern,Corner Gympie Road And Griffiths Street,Bald Hills,4036,QLD,(07) 3726 9624,9.199,,,"{'mondayOpen': '10:00', 'mondayClose': '20:00', 'tuesdayOpen': '10:00', 'tuesdayClose': '20:00', 'wednesdayOpen': '10:00', 'wednesdayClose': '20:00', 'thursdayOpen': '10:00', 'thursdayClose': '20:00', 'fridayOpen': '10:00', 'fridayClose': '21:00', 'saturdayOpen': '10:00', 'saturdayClose': '21:00', 'sundayOpen': '10:00', 'sundayClose': '19:00'}","{'storeManager': 'MARGOT WILLIAMS', 'areaRegion': 'QLD7', 'areaRegionMgr': 'Kevin Gilbert', 'regionZone': 'QLD', 'regionZoneMgr': 'Mat Davey'}",[],True,,,True,True
34256419,3,6598,-27.346669,152.968633,Albany Creek,700 Albany Creek Road,Albany Creek,4035,QLD,(07) 3734 0855,13.53,,,"{'mondayOpen': '09:00', 'mondayClose': '20:00', 'tuesdayOpen': '09:00', 'tuesdayClose': '20:00', 'wednesdayOpen': '09:00', 'wednesdayClose': '20:00', 'thursdayOpen': '09:00', 'thursdayClose': '20:00', 'fridayOpen': '09:00', 'fridayClose': '20:00', 'saturdayOpen': '09:00', 'saturdayClose': '20:00', 'sundayOpen': '09:00', 'sundayClose': '18:00'}","{'storeManager': 'TAMARA GORTMANS', 'areaRegion': 'QLD7', 'areaRegionMgr': 'Kevin Gilbert', 'regionZone': 'QLD', 'regionZoneMgr': 'Mat Davey'}",[],True,,,True,True
34256161,3,6096,-28.200117,153.54662,Tweed City,54 Minjungbal Drive,Tweed Heads South,2486,NSW,(07) 5506 4080,9.948,,,"{'mondayOpen': '09:00', 'mondayClose': '20:00', 'tuesdayOpen': '09:00', 'tuesdayClose': '20:00', 'wednesdayOpen': '09:00', 'wednesdayClose': '20:00', 'thursdayOpen': '09:00', 'thursdayClose': '21:00', 'fridayOpen': '09:00', 'fridayClose': '20:00', 'saturdayOpen': '09:00', 'saturdayClose': '19:00', 'sundayOpen': '10:00', 'sundayClose': '18:00'}","{'storeManager': 'HOLLY MORAN', 'areaRegion': 'QNS4', 'areaRegionMgr': 'Graham Parsonson', 'regionZone': 'QNS', 'regionZoneMgr': 'Adam Hill'}",[],True,,,True,True
34256170,3,6119,-28.214494,153.541909,Banora Point,59-71 Darlington Drive,Banora Point,2486,NSW,(07) 3726 9686,10.94,,,"{'mondayOpen': '09:00', 'mondayClose': '21:00', 'tuesdayOpen': '09:00', 'tuesdayClose': '21:00', 'wednesdayOpen': '09:00', 'wednesdayClose': '21:00', 'thursdayOpen': '09:00', 'thursdayClose': '21:00', 'fridayOpen': '09:00', 'fridayClose': '21:00', 'saturdayOpen': '09:00', 'saturdayClose': '21:00', 'sundayOpen': '10:00', 'sundayClose': '21:00'}","{'storeManager': 'DARRYN TOMKINS', 'areaRegion': 'QNS4', 'areaRegionMgr': 'Graham Parsonson', 'regionZone': 'QNS', 'regionZoneMgr': 'Adam Hill'}",[],True,,,True,True
34255947,3,8364,-27.317926,152.98707,Bhs Liquor Shop,22 Kremzow Road,Brendale,4500,QLD,(07) 3726 9667,10.22,,,"{'mondayOpen': '10:00', 'mondayClose': '19:00', 'tuesdayOpen': '10:00', 'tuesdayClose': '19:00', 'wednesdayOpen': '10:00', 'wednesdayClose': '19:00', 'thursdayOpen': '10:00', 'thursdayClose': '19:00', 'fridayOpen': '10:00', 'fridayClose': '19:00', 'saturdayOpen': '10:00', 'saturdayClose': '19:00', 'sundayOpen': '10:00', 'sundayClose': '17:00'}","{'storeManager': '', 'areaRegion': 'QLD7', 'areaRegionMgr': 'Kevin Gilbert', 'regionZone': 'QLD', 'regionZoneMgr': 'Mat Davey'}",[],True,,,True,True
34256326,3,6639,-27.306935,152.991057,Strathpine,295 Gympie Road,Strathpine,4500,QLD,(07) 3490 4280,9.22,,,"{'mondayOpen': '09:00', 'mondayClose': '19:00', 'tuesdayOpen': '09:00', 'tuesdayClose': '19:00', 'wednesdayOpen': '09:00', 'wednesdayClose': '19:00', 'thursdayOpen': '09:00', 'thursdayClose': '21:00', 'fridayOpen': '09:00', 'fridayClose': '20:00', 'saturdayOpen': '09:00', 'saturdayClose': '20:00', 'sundayOpen': '09:00', 'sundayClose': '18:00'}","{'storeManager': 'AMANDA CORNELL', 'areaRegion': 'QLD7', 'areaRegionMgr': 'Kevin Gilbert', 'regionZone': 'QLD', 'regionZoneMgr': 'Mat Davey'}",[],True,,,True,True
34255946,3,8363,-27.297717,152.976595,Kensington Village,25-26 Kensington Way,Bray Park,4500,QLD,(07) 3726 9695,9.788,,,"{'mondayOpen': '09:00', 'mondayClose': '20:00', 'tuesdayOpen': '09:00', 'tuesdayClose': '20:00', 'wednesdayOpen': '09:00', 'wednesdayClose': '20:00', 'thursdayOpen': '09:00', 'thursdayClose': '21:00', 'fridayOpen': '09:00', 'fridayClose': '21:00', 'saturdayOpen': '09:00', 'saturdayClose': '21:00', 'sundayOpen': '09:00', 'sundayClose': '18:00'}","{'storeManager': 'JAKE ALBERY', 'areaRegion': 'QLD7', 'areaRegionMgr': 'Kevin Gilbert', 'regionZone': 'QLD', 'regionZoneMgr': 'Mat Davey'}",[],True,,,True,True
34256296,3,6296,-27.272371,153.016245,Murrumba Downs,Corner Bruce Highway And Dohles Road,Murrumba Downs,4503,QLD,(07) 3734 0851,18.198,,,"{'mondayOpen': '09:00', 'mondayClose': '21:00', 'tuesdayOpen': '09:00', 'tuesdayClose': '21:00', 'wednesdayOpen': '09:00', 'wednesdayClose': '21:00', 'thursdayOpen': '09:00', 'thursdayClose': '21:00', 'fridayOpen': '09:00', 'fridayClose': '21:00', 'saturdayOpen': '09:00', 'saturdayClose': '21:00', 'sundayOpen': '09:00', 'sundayClose': '19:00'}","{'storeManager': 'SARAH MORO', 'areaRegion': 'QLD7', 'areaRegionMgr': 'Kevin Gilbert', 'regionZone': 'QLD', 'regionZoneMgr': 'Mat Davey'}",[],True,,,True,True
34256110,3,8622,-27.250023,152.997044,Finnigans Chin Barn,Andrew Street,Kallangur,4503,QLD,(07) 3726 9641,15.355,,,"{'mondayOpen': '10:00', 'mondayClose': '20:00', 'tuesdayOpen': '10:00', 'tuesdayClose': '20:00', 'wednesdayOpen': '10:00', 'wednesdayClose': '20:00', 'thursdayOpen': '10:00', 'thursdayClose': '21:00', 'fridayOpen': '10:00', 'fridayClose': '21:00', 'saturdayOpen': '10:00', 'saturdayClose': '21:00', 'sundayOpen': '10:00', 'sundayClose': '20:00'}","{'storeManager': 'MIKAELA EDMONDSTONE', 'areaRegion': 'QLD7', 'areaRegionMgr': 'Kevin Gilbert', 'regionZone': 'QLD', 'regionZoneMgr': 'Mat Davey'}",[],True,,,True,True
34256313,3,6489,-27.24327,153.018817,North Lakes,Corner Anzac Ave And North Lakes Drive,North Lakes,4509,QLD,(07) 3491 5780,15.227,,,"{'mondayOpen': '09:00', 'mondayClose': '21:00', 'tuesdayOpen': '09:00', 'tuesdayClose': '21:00', 'wednesdayOpen': '09:00', 'wednesdayClose': '21:00', 'thursdayOpen': '09:00', 'thursdayClose': '21:00', 'fridayOpen': '09:00', 'fridayClose': '21:00', 'saturdayOpen': '09:00', 'saturdayClose': '21:00', 'sundayOpen': '09:00', 'sundayClose': '18:00'}","{'storeManager': 'JESSICA SEAR-HALL', 'areaRegion': 'QLD7', 'areaRegionMgr': 'Kevin Gilbert', 'regionZone': 'QLD', 'regionZoneMgr': 'Mat Davey'}",[],True,,,True,True
34256112,3,8624,-27.244118,152.983183,Kallangur Village Cellars,Corner Ann Street And Marsden Road,Kallangur,4503,QLD,(07) 3726 9665,14.454,,,"{'mondayOpen': '10:00', 'mondayClose': '20:00', 'tuesdayOpen': '10:00', 'tuesdayClose': '20:00', 'wednesdayOpen': '10:00', 'wednesdayClose': '20:00', 'thursdayOpen': '10:00', 'thursdayClose': '20:00', 'fridayOpen': '10:00', 'fridayClose': '21:00', 'saturdayOpen': '10:00', 'saturdayClose': '21:00', 'sundayOpen': '10:00', 'sundayClose': '20:00'}","{'storeManager': 'JANE MORGAN-HARRY', 'areaRegion': 'QLD7', 'areaRegionMgr': 'Kevin Gilbert', 'regionZone': 'QLD', 'regionZoneMgr': 'Mat Davey'}",[],True,,,True,True
34256119,3,2833,-27.23355,153.036288,Mango Hill,67 Capestone Blvd,Mango Hill,4509,QLD,(07) 3734 0890,14.894,,,"{'mondayOpen': '09:00', 'mondayClose': '21:00', 'tuesdayOpen': '09:00', 'tuesdayClose': '21:00', 'wednesdayOpen': '09:00', 'wednesdayClose': '21:00', 'thursdayOpen': '09:00', 'thursdayClose': '21:00', 'fridayOpen': '09:00', 'fridayClose': '21:00', 'saturdayOpen': '09:00', 'saturdayClose': '20:00', 'sundayOpen': '09:00', 'sundayClose': '18:00'}","{'storeManager': 'ALICIA HACKETT', 'areaRegion': 'QLD7', 'areaRegionMgr': 'Kevin Gilbert', 'regionZone': 'QLD', 'regionZoneMgr': 'Mat Davey'}",[],True,,,True,True
34256408,3,6537,-27.22939,153.106177,Redcliffe (anzac Ave),82-98 Anzac Ave,Redcliffe,4020,QLD,(07) 3726 9666,18.21,,,"{'mondayOpen': '09:00', 'mondayClose': '20:00', 'tuesdayOpen': '09:00', 'tuesdayClose': '20:00', 'wednesdayOpen': '09:00', 'wednesdayClose': '20:00', 'thursdayOpen': '09:00', 'thursdayClose': '21:00', 'fridayOpen': '09:00', 'fridayClose': '21:00', 'saturdayOpen': '09:00', 'saturdayClose': '21:00', 'sundayOpen': '09:00', 'sundayClose': '19:00'}","{'storeManager': 'GRANT PRYOR', 'areaRegion': 'QLD7', 'areaRegionMgr': 'Kevin Gilbert', 'regionZone': 'QLD', 'regionZoneMgr': 'Mat Davey'}",[],True,,,True,True
34256320,3,6623,-27.220183,153.098217,Redcliffe,Corner Ashmole Road And Klingner Road,Redcliffe,4020,QLD,(07) 3480 3180,17.014,,,"{'mondayOpen': '09:00', 'mondayClose': '21:00', 'tuesdayOpen': '09:00', 'tuesdayClose': '21:00', 'wednesdayOpen': '09:00', 'wednesdayClose': '21:00', 'thursdayOpen': '09:00', 'thursdayClose': '21:00', 'fridayOpen': '09:00', 'fridayClose': '21:00', 'saturdayOpen': '09:00', 'saturdayClose': '21:00', 'sundayOpen': '09:00', 'sundayClose': '19:00'}","{'storeManager': 'CONRAD SOO CHOON', 'areaRegion': 'QLD7', 'areaRegionMgr': 'Kevin Gilbert', 'regionZone': 'QLD', 'regionZoneMgr': 'Mat Davey'}",[],True,,,True,True
34256416,3,6548,-24.871819,152.34841,Bundaberg,16 Maryborough St,Bundaberg,4670,QLD,(07) 4155 8280,3.109,,,"{'mondayOpen': '09:00', 'mondayClose': '19:00', 'tuesdayOpen': '09:00', 'tuesdayClose': '19:00', 'wednesdayOpen': '09:00', 'wednesdayClose': '19:00', 'thursdayOpen': '09:00', 'thursdayClose': '21:00', 'fridayOpen': '09:00', 'fridayClose': '21:00', 'saturdayOpen': '09:00', 'saturdayClose': '18:00', 'sundayOpen': '09:00', 'sundayClose': '18:00'}","{'storeManager': 'JODIE CUNNINGTON', 'areaRegion': 'QLD5', 'areaRegionMgr': 'Randall Drysdale', 'regionZone': 'QLD', 'regionZoneMgr': 'Mat Davey'}",[],True,,,True,True
34256293,3,6288,-24.890809,152.32051,Kensington,130 Takalvan Street,Bundaberg,4670,QLD,(07) 4326 1280,5.948,,,"{'mondayOpen': '09:00', 'mondayClose': '19:00', 'tuesdayOpen': '09:00', 'tuesdayClose': '19:00', 'wednesdayOpen': '09:00', 'wednesdayClose': '19:00', 'thursdayOpen': '09:00', 'thursdayClose': '21:00', 'fridayOpen': '09:00', 'fridayClose': '21:00', 'saturdayOpen': '09:00', 'saturdayClose': '18:00', 'sundayOpen': '09:00', 'sundayClose': '18:00'}","{'storeManager': 'RONISH RAJU', 'areaRegion': 'QLD5', 'areaRegionMgr': 'Randall Drysdale', 'regionZone': 'QLD', 'regionZoneMgr': 'Mat Davey'}",[],True,,,True,True
34256234,3,6174,-27.153418,152.975489,Burpengary,Corner Station Street And Progress Street,Burpengary,4505,QLD,(07) 3734 0845,4.591,,,"{'mondayOpen': '09:00', 'mondayClose': '20:00', 'tuesdayOpen': '09:00', 'tuesdayClose': '20:00', 'wednesdayOpen': '09:00', 'wednesdayClose': '20:00', 'thursdayOpen': '09:00', 'thursdayClose': '20:00', 'fridayOpen': '09:00', 'fridayClose': '21:00', 'saturdayOpen': '09:00', 'saturdayClose': '21:00', 'sundayOpen': '09:00', 'sundayClose': '19:00'}","{'storeManager': 'LOUISE BOWDEN', 'areaRegion': 'QLD6', 'areaRegionMgr': 'Lisa Hartnett', 'regionZone': 'QLD', 'regionZoneMgr': 'Mat Davey'}",[],True,,,True,True
34256157,3,6089,-27.16263,152.95814,Burpengary Station,9-11 Burpengary Road,Burpengary,4505,QLD,(07) 3734 0887,5.17,,,"{'mondayOpen': '09:00', 'mondayClose': '20:00', 'tuesdayOpen': '09:00', 'tuesdayClose': '20:00', 'wednesdayOpen': '09:00', 'wednesdayClose': '20:00', 'thursdayOpen': '09:00', 'thursdayClose': '21:00', 'fridayOpen': '09:00', 'fridayClose': '21:00', 'saturdayOpen': '09:00', 'saturdayClose': '21:00', 'sundayOpen': '09:00', 'sundayClose': '19:00'}","{'storeManager': 'JODY BRABON', 'areaRegion': 'QLD6', 'areaRegionMgr': 'Lisa Hartnett', 'regionZone': 'QLD', 'regionZoneMgr': 'Mat Davey'}",[],True,,,True,True
34256177,3,8628,-27.138681,152.98201,Burpengary Village Cellars,Corner Buckley Road And Uhlman Road,Burpengary,4505,QLD,(07) 3726 9678,3.584,,,"{'mondayOpen': '10:00', 'mondayClose': '19:00', 'tuesdayOpen': '10:00', 'tuesdayClose': '19:00', 'wednesdayOpen': '10:00', 'wednesdayClose': '20:00', 'thursdayOpen': '10:00', 'thursdayClose': '20:00', 'fridayOpen': '10:00', 'fridayClose': '21:00', 'saturdayOpen': '10:00', 'saturdayClose': '20:00', 'sundayOpen': '10:00', 'sundayClose': '19:00'}","{'storeManager': 'KIEREN HACKETT', 'areaRegion': 'QLD6', 'areaRegionMgr': 'Lisa Hartnett', 'regionZone': 'QLD', 'regionZoneMgr': 'Mat Davey'}",[],True,,,True,True
34256113,3,8626,-27.160815,152.935417,Woodpecker Bottleshop,Corner Rowley Road And Facer Road,Burpengary,4505,QLD,(07) 3726 9673,5.128,,,"{'mondayOpen': '10:00', 'mondayClose': '19:00', 'tuesdayOpen': '10:00', 'tuesdayClose': '19:00', 'wednesdayOpen': '10:00', 'wednesdayClose': '19:00', 'thursdayOpen': '10:00', 'thursdayClose': '19:00', 'fridayOpen': '10:00', 'fridayClose': '20:00', 'saturdayOpen': '10:00', 'saturdayClose': '20:00', 'sundayOpen': '10:00', 'sundayClose': '18:00'}","{'storeManager': 'KYLIE DIAMOND', 'areaRegion': 'QLD6', 'areaRegionMgr': 'Lisa Hartnett', 'regionZone': 'QLD', 'regionZoneMgr': 'Mat Davey'}",[],True,,,True,True
34256178,3,8629,-27.136475,152.936198,Excelsior Park Cellars,Corner Oakey Flat Road And Nairn Road,Moorina,4506,QLD,(07) 3726 9631,2.591,,,"{'mondayOpen': '10:00', 'mondayClose': '19:00', 'tuesdayOpen': '10:00', 'tuesdayClose': '19:00', 'wednesdayOpen': '10:00', 'wednesdayClose': '19:00', 'thursdayOpen': '10:00', 'thursdayClose': '20:00', 'fridayOpen': '10:00', 'fridayClose': '20:00', 'saturdayOpen': '10:00', 'saturdayClose': '20:00', 'sundayOpen': '10:00', 'sundayClose': '19:00'}","{'storeManager': 'CHANTELLE HOSKING', 'areaRegion': 'QLD6', 'areaRegionMgr': 'Lisa Hartnett', 'regionZone': 'QLD', 'regionZoneMgr': 'Mat Davey'}",[],True,,,True,True
34256109,3,8621,-27.114955,152.963556,Glenwood Drive  Cellars,Lot 62 Glenwood Drive,Morayfield,4506,QLD,(07) 3726 9622,1.029,,,"{'mondayOpen': '10:00', 'mondayClose': '19:00', 'tuesdayOpen': '10:00', 'tuesdayClose': '19:00', 'wednesdayOpen': '10:00', 'wednesdayClose': '20:00', 'thursdayOpen': '10:00', 'thursdayClose': '20:00', 'fridayOpen': '10:00', 'fridayClose': '21:00', 'saturdayOpen': '10:00', 'saturdayClose': '20:00', 'sundayOpen': '10:00', 'sundayClose': '19:00'}","{'storeManager': 'KOSTA DOUEIHI', 'areaRegion': 'QLD6', 'areaRegionMgr': 'Lisa Hartnett', 'regionZone': 'QLD', 'regionZoneMgr': 'Mat Davey'}",[],True,,,True,True
34256111,3,8623,-27.202585,152.958874,Narangba Liquor Barn,36 Main Street,Narangba,4504,QLD,(07) 3726 9664,9.603,,,"{'mondayOpen': '10:00', 'mondayClose': '20:00', 'tuesdayOpen': '10:00', 'tuesdayClose': '20:00', 'wednesdayOpen': '10:00', 'wednesdayClose': '20:00', 'thursdayOpen': '10:00', 'thursdayClose': '20:00', 'fridayOpen': '10:00', 'fridayClose': '21:00', 'saturdayOpen': '10:00', 'saturdayClose': '21:00', 'sundayOpen': '10:00', 'sundayClose': '20:00'}","{'storeManager': 'RENEE SIMPSON', 'areaRegion': 'QLD6', 'areaRegionMgr': 'Lisa Hartnett', 'regionZone': 'QLD', 'regionZoneMgr': 'Mat Davey'}",[],True,,,True,True
34256233,3,6173,-27.103775,152.950207,Morayfield (ll),Morayfield Road,Morayfield,4506,QLD,(07) 3726 9663,1.411,,,"{'mondayOpen': '09:00', 'mondayClose': '18:00', 'tuesdayOpen': '09:00', 'tuesdayClose': '18:00', 'wednesdayOpen': '09:00', 'wednesdayClose': '18:00', 'thursdayOpen': '09:00', 'thursdayClose': '21:00', 'fridayOpen': '09:00', 'fridayClose': '19:00', 'saturdayOpen': '09:00', 'saturdayClose': '19:00', 'sundayOpen': '09:00', 'sundayClose': '18:00'}","{'storeManager': 'FRANCES CRAWFORD', 'areaRegion': 'QLD6', 'areaRegionMgr': 'Lisa Hartnett', 'regionZone': 'QLD', 'regionZoneMgr': 'Mat Davey'}",[],True,,,True,True
34256108,3,8618,-27.085817,152.980059,Sundowner Hotel Barn,8 Aerodrome Road,Caboolture,4510,QLD,(07) 3726 9656,4.178,,,"{'mondayOpen': '10:00', 'mondayClose': '21:00', 'tuesdayOpen': '10:00', 'tuesdayClose': '21:00', 'wednesdayOpen': '10:00', 'wednesdayClose': '21:00', 'thursdayOpen': '10:00', 'thursdayClose': '21:00', 'fridayOpen': '10:00', 'fridayClose': '22:00', 'saturdayOpen': '10:00', 'saturdayClose': '22:00', 'sundayOpen': '10:00', 'sundayClose': '19:00'}","{'storeManager': 'DEAN HINES', 'areaRegion': 'QLD6', 'areaRegionMgr': 'Lisa Hartnett', 'regionZone': 'QLD', 'regionZoneMgr': 'Mat Davey'}",[],True,,,True,True
34256329,3,6647,-27.085146,152.948887,Caboolture,60-78 King Street,Caboolture,4510,QLD,(07) 3726 9658,3.485,,,"{'mondayOpen': '09:00', 'mondayClose': '19:00', 'tuesdayOpen': '09:00', 'tuesdayClose': '19:00', 'wednesdayOpen': '09:00', 'wednesdayClose': '19:00', 'thursdayOpen': '09:00', 'thursdayClose': '20:00', 'fridayOpen': '09:00', 'fridayClose': '20:00', 'saturdayOpen': '09:00', 'saturdayClose': '19:00', 'sundayOpen': '10:00', 'sundayClose': '15:00'}","{'storeManager': 'MARK HOLSTEIN', 'areaRegion': 'QLD6', 'areaRegionMgr': 'Lisa Hartnett', 'regionZone': 'QLD', 'regionZoneMgr': 'Mat Davey'}",[],True,,,True,True
34256159,3,6093,-27.042438,152.973922,Caboolture Big Fish,459 Pumicestone Road,Caboolture,4510,QLD,(07) 5316 4180,8.443,,,"{'mondayOpen': '09:00', 'mondayClose': '20:00', 'tuesdayOpen': '09:00', 'tuesdayClose': '20:00', 'wednesdayOpen': '09:00', 'wednesdayClose': '20:00', 'thursdayOpen': '09:00', 'thursdayClose': '21:00', 'fridayOpen': '09:00', 'fridayClose': '21:00', 'saturdayOpen': '09:00', 'saturdayClose': '21:00', 'sundayOpen': '09:00', 'sundayClose': '18:00'}","{'storeManager': 'ROBERT MCPHERSON', 'areaRegion': 'QLD6', 'areaRegionMgr': 'Lisa Hartnett', 'regionZone': 'QLD', 'regionZoneMgr': 'Mat Davey'}",[],True,,,True,True
34256338,3,6674,-27.057673,153.13853,Bribie Island Hotel Barn,29 Sylvan Beach Esplanade,Bribie Island,4507,QLD,(07) 3726 9659,17.227,,,"{'mondayOpen': '10:00', 'mondayClose': '20:00', 'tuesdayOpen': '10:00', 'tuesdayClose': '20:00', 'wednesdayOpen': '10:00', 'wednesdayClose': '20:00', 'thursdayOpen': '10:00', 'thursdayClose': '21:00', 'fridayOpen': '10:00', 'fridayClose': '22:00', 'saturdayOpen': '10:00', 'saturdayClose': '22:00', 'sundayOpen': '10:00', 'sundayClose': '20:00'}","{'storeManager': 'PAUL BROWN', 'areaRegion': 'QLD6', 'areaRegionMgr': 'Lisa Hartnett', 'regionZone': 'QLD', 'regionZoneMgr': 'Mat Davey'}",[],True,,,True,True
34256339,3,6676,-27.076538,153.157125,Welsby,91 Welsby Parade,Bongaree,4507,QLD,(07) 3726 9620,18.079,,,"{'mondayOpen': '09:00', 'mondayClose': '19:00', 'tuesdayOpen': '09:00', 'tuesdayClose': '19:00', 'wednesdayOpen': '09:00', 'wednesdayClose': '19:00', 'thursdayOpen': '09:00', 'thursdayClose': '19:00', 'fridayOpen': '09:00', 'fridayClose': '19:00', 'saturdayOpen': '09:00', 'saturdayClose': '19:00', 'sundayOpen': '09:00', 'sundayClose': '19:00'}","{'storeManager': 'NAOMI HARNEY', 'areaRegion': 'QLD6', 'areaRegionMgr': 'Lisa Hartnett', 'regionZone': 'QLD', 'regionZoneMgr': 'Mat Davey'}",[],True,,,True,True
34256340,3,6677,-27.063892,153.157385,Bribie Central,Goodwin Drive,Bribie Island,4507,QLD,(07) 3726 9660,18.496,,,"{'mondayOpen': '09:00', 'mondayClose': '20:00', 'tuesdayOpen': '09:00', 'tuesdayClose': '20:00', 'wednesdayOpen': '09:00', 'wednesdayClose': '20:00', 'thursdayOpen': '09:00', 'thursdayClose': '21:00', 'fridayOpen': '09:00', 'fridayClose': '21:00', 'saturdayOpen': '09:00', 'saturdayClose': '19:00', 'sundayOpen': '09:00', 'sundayClose': '19:00'}","{'storeManager': 'TRACEY MARTIN', 'areaRegion': 'QLD6', 'areaRegionMgr': 'Lisa Hartnett', 'regionZone': 'QLD', 'regionZoneMgr': 'Mat Davey'}",[],True,,,True,True
34256322,3,6627,-23.847923,151.259436,Gladstone Valley,Goondoon Street,Gladstone,4680,QLD,(07) 3734 0810,1.241,,,"{'mondayOpen': '09:00', 'mondayClose': '20:00', 'tuesdayOpen': '09:00', 'tuesdayClose': '20:00', 'wednesdayOpen': '09:00', 'wednesdayClose': '20:00', 'thursdayOpen': '09:00', 'thursdayClose': '20:00', 'fridayOpen': '09:00', 'fridayClose': '20:00', 'saturdayOpen': '09:00', 'saturdayClose': '19:00', 'sundayOpen': '09:00', 'sundayClose': '18:00'}","{'storeManager': 'TAYLOR MYERS', 'areaRegion': 'QLD5', 'areaRegionMgr': 'Randall Drysdale', 'regionZone': 'QLD', 'regionZoneMgr': 'Mat Davey'}",[],True,,,True,True
34256107,3,8615,-23.847266,151.262686,The Club Hotel Drive,1 Tank Street,Gladstone,4680,QLD,(07) 3726 9648,1.444,,,"{'mondayOpen': '10:00', 'mondayClose': '18:00', 'tuesdayOpen': '10:00', 'tuesdayClose': '18:00', 'wednesdayOpen': '10:00', 'wednesdayClose': '18:00', 'thursdayOpen': '10:00', 'thursdayClose': '18:00', 'fridayOpen': '10:00', 'fridayClose': '18:00', 'saturdayOpen': '10:00', 'saturdayClose': '18:00', 'sundayOpen': '10:00', 'sundayClose': '18:00'}","{'storeManager': 'JESSICA SENIOR', 'areaRegion': 'QLD5', 'areaRegionMgr': 'Randall Drysdale', 'regionZone': 'QLD', 'regionZoneMgr': 'Mat Davey'}",[],True,,,True,True
34256309,3,6479,-23.86974,151.24005,Gladstone,Corner Dawson Hwy & Philip St,Gladstone,4680,QLD,(07) 4838 8980,1.719,,,"{'mondayOpen': '09:00', 'mondayClose': '20:00', 'tuesdayOpen': '09:00', 'tuesdayClose': '20:00', 'wednesdayOpen': '09:00', 'wednesdayClose': '20:00', 'thursdayOpen': '09:00', 'thursdayClose': '20:00', 'fridayOpen': '09:00', 'fridayClose': '21:00', 'saturdayOpen': '09:00', 'saturdayClose': '20:00', 'sundayOpen': '09:00', 'sundayClose': '18:00'}","{'storeManager': 'CHERYL FRANKISH', 'areaRegion': 'QLD5', 'areaRegionMgr': 'Randall Drysdale', 'regionZone': 'QLD', 'regionZoneMgr': 'Mat Davey'}",[],True,,,True,True
34256236,3,6196,-23.875176,151.235519,Gladstone,3 Shaw Street,New Auckland,4680,QLD,(07) 3734 0805,2.432,,,"{'mondayOpen': '10:00', 'mondayClose': '20:00', 'tuesdayOpen': '10:00', 'tuesdayClose': '20:00', 'wednesdayOpen': '10:00', 'wednesdayClose': '20:00', 'thursdayOpen': '10:00', 'thursdayClose': '20:00', 'fridayOpen': '10:00', 'fridayClose': '20:00', 'saturdayOpen': '10:00', 'saturdayClose': '20:00', 'sundayOpen': '10:00', 'sundayClose': '19:00'}","{'storeManager': 'AMANDA ENDERSBY', 'areaRegion': 'QLD5', 'areaRegionMgr': 'Randall Drysdale', 'regionZone': 'QLD', 'regionZoneMgr': 'Mat Davey'}",[],True,,,True,True
34256401,3,6526,-26.663034,153.050641,Buderim North,141 Jones Road,Buderim,4556,QLD,(07) 2105 0980,13.071,,,"{'mondayOpen': '09:00', 'mondayClose': '21:00', 'tuesdayOpen': '09:00', 'tuesdayClose': '21:00', 'wednesdayOpen': '09:00', 'wednesdayClose': '21:00', 'thursdayOpen': '09:00', 'thursdayClose': '21:00', 'fridayOpen': '09:00', 'fridayClose': '21:00', 'saturdayOpen': '09:00', 'saturdayClose': '21:00', 'sundayOpen': '09:00', 'sundayClose': '19:00'}","{'storeManager': 'MARK BROOM', 'areaRegion': 'QLD6', 'areaRegionMgr': 'Lisa Hartnett', 'regionZone': 'QLD', 'regionZoneMgr': 'Mat Davey'}",[],True,,,True,True
34256347,3,6687,-26.683574,153.070149,Buderim,129 King Street,Buderim,4556,QLD,(07) 3726 9608,10.362,,,"{'mondayOpen': '10:00', 'mondayClose': '19:00', 'tuesdayOpen': '10:00', 'tuesdayClose': '19:00', 'wednesdayOpen': '10:00', 'wednesdayClose': '19:00', 'thursdayOpen': '10:00', 'thursdayClose': '19:00', 'fridayOpen': '10:00', 'fridayClose': '20:00', 'saturdayOpen': '10:00', 'saturdayClose': '20:00', 'sundayOpen': '10:00', 'sundayClose': '19:00'}","{'storeManager': ""CLINTON O'BRIEN"", 'areaRegion': 'QLD6', 'areaRegionMgr': 'Lisa Hartnett', 'regionZone': 'QLD', 'regionZoneMgr': 'Mat Davey'}",[],True,,,True,True
34256411,3,6541,-26.687779,153.049479,Buderim Marketplace,67 Burnett St,Buderim,4556,QLD,(07) 3726 9605,10.601,,,"{'mondayOpen': '09:00', 'mondayClose': '19:00', 'tuesdayOpen': '09:00', 'tuesdayClose': '19:00', 'wednesdayOpen': '09:00', 'wednesdayClose': '19:00', 'thursdayOpen': '09:00', 'thursdayClose': '20:00', 'fridayOpen': '09:00', 'fridayClose': '20:00', 'saturdayOpen': '09:00', 'saturdayClose': '20:00', 'sundayOpen': '09:00', 'sundayClose': '18:00'}","{'storeManager': 'LIZ URQUHART', 'areaRegion': 'QLD6', 'areaRegionMgr': 'Lisa Hartnett', 'regionZone': 'QLD', 'regionZoneMgr': 'Mat Davey'}",[],True,,,True,True
34256307,3,6476,-26.714108,153.060819,Sippy Downs,111 Sippy Downs Drive,Sippy Downs,4556,QLD,(07) 5458 1280,7.572,,,"{'mondayOpen': '09:00', 'mondayClose': '21:00', 'tuesdayOpen': '09:00', 'tuesdayClose': '21:00', 'wednesdayOpen': '09:00', 'wednesdayClose': '21:00', 'thursdayOpen': '09:00', 'thursdayClose': '21:00', 'fridayOpen': '09:00', 'fridayClose': '21:00', 'saturdayOpen': '09:00', 'saturdayClose': '21:00', 'sundayOpen': '09:00', 'sundayClose': '18:00'}","{'storeManager': 'AARON MARTIN', 'areaRegion': 'QLD5', 'areaRegionMgr': 'Randall Drysdale', 'regionZone': 'QLD', 'regionZoneMgr': 'Mat Davey'}",[],True,,,True,True
34256324,3,6630,-26.703476,153.130455,Kawana Waters,119 Point Cartwright Drive,Buddina,4575,QLD,(07) 3734 0858,7.939,,,"{'mondayOpen': '09:00', 'mondayClose': '19:00', 'tuesdayOpen': '09:00', 'tuesdayClose': '19:00', 'wednesdayOpen': '09:00', 'wednesdayClose': '19:00', 'thursdayOpen': '09:00', 'thursdayClose': '21:00', 'fridayOpen': '09:00', 'fridayClose': '20:00', 'saturdayOpen': '09:00', 'saturdayClose': '20:00', 'sundayOpen': '09:00', 'sundayClose': '18:00'}","{'storeManager': 'MATTHEW GOUGH', 'areaRegion': 'QLD5', 'areaRegionMgr': 'Randall Drysdale', 'regionZone': 'QLD', 'regionZoneMgr': 'Mat Davey'}",[],True,,,True,True
34256248,3,6264,-26.725321,153.129509,Warana,239 Nicklin Way,Warana,4575,QLD,(07) 3726 9610,5.597,,,"{'mondayOpen': '10:00', 'mondayClose': '19:00', 'tuesdayOpen': '10:00', 'tuesdayClose': '19:00', 'wednesdayOpen': '10:00', 'wednesdayClose': '19:00', 'thursdayOpen': '10:00', 'thursdayClose': '20:00', 'fridayOpen': '10:00', 'fridayClose': '20:00', 'saturdayOpen': '10:00', 'saturdayClose': '20:00', 'sundayOpen': '10:00', 'sundayClose': '18:00'}","{'storeManager': 'OLIVER HENSBY', 'areaRegion': 'QLD6', 'areaRegionMgr': 'Lisa Hartnett', 'regionZone': 'QLD', 'regionZoneMgr': 'Mat Davey'}",[],True,,,True,True
34256114,3,2693,-26.735451,153.119995,Birtinya,8 The Avenue,Birtinya,4575,QLD,(07) 3074 1780,4.274,,,"{'mondayOpen': '09:00', 'mondayClose': '21:00', 'tuesdayOpen': '09:00', 'tuesdayClose': '21:00', 'wednesdayOpen': '09:00', 'wednesdayClose': '21:00', 'thursdayOpen': '09:00', 'thursdayClose': '21:00', 'fridayOpen': '09:00', 'fridayClose': '21:00', 'saturdayOpen': '09:00', 'saturdayClose': '21:00', 'sundayOpen': '09:00', 'sundayClose': '18:00'}","{'storeManager': 'DAVID SALTER', 'areaRegion': 'QLD5', 'areaRegionMgr': 'Randall Drysdale', 'regionZone': 'QLD', 'regionZoneMgr': 'Mat Davey'}",[],True,,,True,True
34256247,3,6263,-26.7599,153.124453,Wurtulla,Nicklin Way,Wurtulla,4575,QLD,(07) 3726 9677,2.071,,,"{'mondayOpen': '09:00', 'mondayClose': '20:00', 'tuesdayOpen': '09:00', 'tuesdayClose': '20:00', 'wednesdayOpen': '09:00', 'wednesdayClose': '20:00', 'thursdayOpen': '09:00', 'thursdayClose': '20:00', 'fridayOpen': '09:00', 'fridayClose': '21:00', 'saturdayOpen': '09:00', 'saturdayClose': '20:00', 'sundayOpen': '09:00', 'sundayClose': '19:00'}","{'storeManager': 'BONNIE MYERS', 'areaRegion': 'QLD6', 'areaRegionMgr': 'Lisa Hartnett', 'regionZone': 'QLD', 'regionZoneMgr': 'Mat Davey'}",[],True,,,True,True
34256348,3,6688,-26.773129,153.122386,Currimundi,Corner Bellara Drive And Nicklin Way,Currimundi,4551,QLD,(07) 3726 9676,1.354,,,"{'mondayOpen': '09:00', 'mondayClose': '20:00', 'tuesdayOpen': '09:00', 'tuesdayClose': '20:00', 'wednesdayOpen': '09:00', 'wednesdayClose': '20:00', 'thursdayOpen': '09:00', 'thursdayClose': '21:00', 'fridayOpen': '09:00', 'fridayClose': '21:00', 'saturdayOpen': '09:00', 'saturdayClose': '21:00', 'sundayOpen': '09:00', 'sundayClose': '18:00'}","{'storeManager': 'ADRIAN MALOCCA', 'areaRegion': 'QLD6', 'areaRegionMgr': 'Lisa Hartnett', 'regionZone': 'QLD', 'regionZoneMgr': 'Mat Davey'}",[],True,,,True,True
34256245,3,6261,-26.77595,153.132773,Currimundi Barn,32 Buderim Street,Currimundi,4551,QLD,(07) 3726 9617,2.271,,,"{'mondayOpen': '10:00', 'mondayClose': '21:00', 'tuesdayOpen': '10:00', 'tuesdayClose': '21:00', 'wednesdayOpen': '10:00', 'wednesdayClose': '21:00', 'thursdayOpen': '10:00', 'thursdayClose': '21:00', 'fridayOpen': '10:00', 'fridayClose': '21:00', 'saturdayOpen': '10:00', 'saturdayClose': '21:00', 'sundayOpen': '10:00', 'sundayClose': '20:00'}","{'storeManager': 'DEANNE MURPHY', 'areaRegion': 'QLD6', 'areaRegionMgr': 'Lisa Hartnett', 'regionZone': 'QLD', 'regionZoneMgr': 'Mat Davey'}",[],True,,,True,True
34256246,3,6262,-26.779865,153.121732,Aroona,130 Beerburram Street,Aroona,4551,QLD,(07) 3726 9687,1.535,,,"{'mondayOpen': '10:00', 'mondayClose': '19:00', 'tuesdayOpen': '10:00', 'tuesdayClose': '19:00', 'wednesdayOpen': '10:00', 'wednesdayClose': '19:00', 'thursdayOpen': '10:00', 'thursdayClose': '19:00', 'fridayOpen': '10:00', 'fridayClose': '20:00', 'saturdayOpen': '10:00', 'saturdayClose': '19:00', 'sundayOpen': '10:00', 'sundayClose': '18:00'}","{'storeManager': 'MARK HANTERINK', 'areaRegion': 'QLD6', 'areaRegionMgr': 'Lisa Hartnett', 'regionZone': 'QLD', 'regionZoneMgr': 'Mat Davey'}",[],True,,,True,True
34256349,3,6689,-26.802514,153.125112,Stocklands,47 Bowman Road,Caloundra,4551,QLD,(07) 3734 0811,3.697,,,"{'mondayOpen': '09:00', 'mondayClose': '19:00', 'tuesdayOpen': '09:00', 'tuesdayClose': '19:00', 'wednesdayOpen': '09:00', 'wednesdayClose': '19:00', 'thursdayOpen': '09:00', 'thursdayClose': '21:00', 'fridayOpen': '09:00', 'fridayClose': '21:00', 'saturdayOpen': '09:00', 'saturdayClose': '19:00', 'sundayOpen': '09:00', 'sundayClose': '18:00'}","{'storeManager': 'SHANE DREYER', 'areaRegion': 'QLD6', 'areaRegionMgr': 'Lisa Hartnett', 'regionZone': 'QLD', 'regionZoneMgr': 'Mat Davey'}",[],True,,,True,True
34256346,3,6686,-26.800813,153.142825,Kings Beach Tavern Barn,43 Burgess Street,Caloundra,4551,QLD,(07) 3726 9623,4.417,,,"{'mondayOpen': '10:00', 'mondayClose': '19:00', 'tuesdayOpen': '10:00', 'tuesdayClose': '19:00', 'wednesdayOpen': '10:00', 'wednesdayClose': '19:00', 'thursdayOpen': '10:00', 'thursdayClose': '20:00', 'fridayOpen': '10:00', 'fridayClose': '21:00', 'saturdayOpen': '10:00', 'saturdayClose': '21:00', 'sundayOpen': '10:00', 'sundayClose': '19:00'}","{'storeManager': 'LUKE VEARING', 'areaRegion': 'QLD6', 'areaRegionMgr': 'Lisa Hartnett', 'regionZone': 'QLD', 'regionZoneMgr': 'Mat Davey'}",[],True,,,True,True
34256404,3,6533,-23.38995,150.502945,Allenstown,42 Caroline Street,Allenstown,4700,QLD,(07) 3734 0807,0.742,,,"{'mondayOpen': '09:00', 'mondayClose': '19:00', 'tuesdayOpen': '09:00', 'tuesdayClose': '19:00', 'wednesdayOpen': '09:00', 'wednesdayClose': '19:00', 'thursdayOpen': '09:00', 'thursdayClose': '20:00', 'fridayOpen': '09:00', 'fridayClose': '20:00', 'saturdayOpen': '09:00', 'saturdayClose': '18:00', 'sundayOpen': '09:00', 'sundayClose': '18:00'}","{'storeManager': 'STEPHANIE HOUSMAN', 'areaRegion': 'QLD5', 'areaRegionMgr': 'Randall Drysdale', 'regionZone': 'QLD', 'regionZoneMgr': 'Mat Davey'}",[],True,,,True,True
34256402,3,6530,-23.353623,150.523274,North Rockhampton,Corner Highway One And Yamba Road,North Rockhampton,4701,QLD,(07) 3734 0806,4.938,,,"{'mondayOpen': '09:00', 'mondayClose': '18:00', 'tuesdayOpen': '09:00', 'tuesdayClose': '18:00', 'wednesdayOpen': '09:00', 'wednesdayClose': '18:00', 'thursdayOpen': '09:00', 'thursdayClose': '20:00', 'fridayOpen': '09:00', 'fridayClose': '19:00', 'saturdayOpen': '09:00', 'saturdayClose': '18:00', 'sundayOpen': '10:00', 'sundayClose': '17:00'}","{'storeManager': 'ETHAN FORSHAW', 'areaRegion': 'QLD5', 'areaRegionMgr': 'Randall Drysdale', 'regionZone': 'QLD', 'regionZoneMgr': 'Mat Davey'}",[],True,,,True,True
34256105,3,8610,-23.348806,150.537069,Berserker Tavern Drive,368 Dean Street,Rockhampton,4700,QLD,(07) 3726 9640,5.875,,,"{'mondayOpen': '10:00', 'mondayClose': '21:00', 'tuesdayOpen': '10:00', 'tuesdayClose': '21:00', 'wednesdayOpen': '10:00', 'wednesdayClose': '21:00', 'thursdayOpen': '10:00', 'thursdayClose': '21:00', 'fridayOpen': '10:00', 'fridayClose': '21:00', 'saturdayOpen': '10:00', 'saturdayClose': '21:00', 'sundayOpen': '10:00', 'sundayClose': '19:00'}","{'storeManager': 'JEFFREY WEICK', 'areaRegion': 'QLD5', 'areaRegionMgr': 'Randall Drysdale', 'regionZone': 'QLD', 'regionZoneMgr': 'Mat Davey'}",[],True,,,True,True
34256106,3,8614,-23.334629,150.519383,Farm St Bottleshop,309-315 Farm Street,Norman Gardens,4701,QLD,(07) 3734 0834,6.924,,,"{'mondayOpen': '10:00', 'mondayClose': '19:00', 'tuesdayOpen': '10:00', 'tuesdayClose': '19:00', 'wednesdayOpen': '10:00', 'wednesdayClose': '19:00', 'thursdayOpen': '10:00', 'thursdayClose': '19:00', 'fridayOpen': '10:00', 'fridayClose': '20:00', 'saturdayOpen': '10:00', 'saturdayClose': '19:00', 'sundayOpen': '10:00', 'sundayClose': '18:00'}","{'storeManager': 'JAMES GATT', 'areaRegion': 'QLD5', 'areaRegionMgr': 'Randall Drysdale', 'regionZone': 'QLD', 'regionZoneMgr': 'Mat Davey'}",[],True,,,True,True
34256342,3,6680,-26.396602,153.089525,Noosa Junction,Corner Tewantin Road And Sunshine Beach Road,Noosa Heads,4567,QLD,(07) 3726 9690,1.688,,,"{'mondayOpen': '10:00', 'mondayClose': '20:00', 'tuesdayOpen': '10:00', 'tuesdayClose': '20:00', 'wednesdayOpen': '10:00', 'wednesdayClose': '20:00', 'thursdayOpen': '10:00', 'thursdayClose': '20:00', 'fridayOpen': '10:00', 'fridayClose': '20:00', 'saturdayOpen': '10:00', 'saturdayClose': '20:00', 'sundayOpen': '10:00', 'sundayClose': '19:00'}","{'storeManager': 'DAVID MCKEE', 'areaRegion': 'QLD5', 'areaRegionMgr': 'Randall Drysdale', 'regionZone': 'QLD', 'regionZoneMgr': 'Mat Davey'}",[],True,,,True,True
34256344,3,6682,-26.398932,153.091384,Noosa Heads,153 Cooyar Street,Noosa Heads,4567,QLD,(07) 3734 0863,1.713,,,"{'mondayOpen': '10:00', 'mondayClose': '20:00', 'tuesdayOpen': '10:00', 'tuesdayClose': '20:00', 'wednesdayOpen': '10:00', 'wednesdayClose': '20:00', 'thursdayOpen': '10:00', 'thursdayClose': '20:00', 'fridayOpen': '10:00', 'fridayClose': '21:00', 'saturdayOpen': '10:00', 'saturdayClose': '21:00', 'sundayOpen': '10:00', 'sundayClose': '20:00'}","{'storeManager': 'ALISON CHASE', 'areaRegion': 'QLD5', 'areaRegionMgr': 'Randall Drysdale', 'regionZone': 'QLD', 'regionZoneMgr': 'Mat Davey'}",[],True,,,True,True
34256341,3,6679,-26.391714,153.039225,Royal Mail Hotel Barn,120 Poinciana Avenue,Tewantin,4565,QLD,(07) 3726 9606,3.195,,,"{'mondayOpen': '09:00', 'mondayClose': '21:00', 'tuesdayOpen': '09:00', 'tuesdayClose': '21:00', 'wednesdayOpen': '09:00', 'wednesdayClose': '21:00', 'thursdayOpen': '09:00', 'thursdayClose': '21:00', 'fridayOpen': '09:00', 'fridayClose': '21:00', 'saturdayOpen': '09:00', 'saturdayClose': '21:00', 'sundayOpen': '09:00', 'sundayClose': '20:00'}","{'storeManager': 'PAUL TURNBULL', 'areaRegion': 'QLD5', 'areaRegionMgr': 'Randall Drysdale', 'regionZone': 'QLD', 'regionZoneMgr': 'Mat Davey'}",[],True,,,True,True
34256343,3,6681,-26.411471,153.034849,Noosa Bushlands,Corner Swanbourne Way And Beckmans Road,Noosaville,4566,QLD,(07) 3726 9607,3.318,,,"{'mondayOpen': '10:00', 'mondayClose': '20:00', 'tuesdayOpen': '10:00', 'tuesdayClose': '20:00', 'wednesdayOpen': '10:00', 'wednesdayClose': '20:00', 'thursdayOpen': '10:00', 'thursdayClose': '20:00', 'fridayOpen': '10:00', 'fridayClose': '21:00', 'saturdayOpen': '10:00', 'saturdayClose': '21:00', 'sundayOpen': '10:00', 'sundayClose': '19:00'}","{'storeManager': 'CRAIG WARDEN', 'areaRegion': 'QLD5', 'areaRegionMgr': 'Randall Drysdale', 'regionZone': 'QLD', 'regionZoneMgr': 'Mat Davey'}",[],True,,,True,True
